{"type":"FeatureCollection","features":[{"type":"Feature","geometry":{"type":"Polygon","coordinates":[[[-86.32479971210077,39.70421682270558],[-86.31063764850214,39.69589602974227],[-86.30102461139276,39.69616019731839],[-86.29699056903436,39.6984055808947],[-86.28141421874541,39.710719394122826],[-86.27617854674834,39.71296430398768],[-86.26750964721221,39.721415074129155],[-86.28888148864287,39.73745548418101],[-86.30072612365264,39.73488134880886],[-86.3235570867874,39.71851023868402],[-86.32441539367217,39.70695570486356],[-86.32479971210077,39.70421682270558]]]},"id":"0","properties":{"object":9}}]}