{"type":"FeatureCollection","features":[{"type":"Feature","geometry":{"type":"Point","coordinates":[-86.08535702743801,39.59375857746505]},"id":"0","properties":{"obejct":7}},{"type":"Feature","geometry":{"type":"Point","coordinates":[-86.08531411209377,39.594502644436105]},"id":"1","properties":{"obejct":7}},{"type":"Feature","geometry":{"type":"Point","coordinates":[-86.08464892425808,39.59504828846882]},"id":"2","properties":{"obejct":7}},{"type":"Feature","geometry":{"type":"Point","coordinates":[-86.0846703819302,39.59592461686008]},"id":"3","properties":{"obejct":7}},{"type":"Feature","geometry":{"type":"Point","coordinates":[-86.08464892425808,39.59701587822576]},"id":"4","properties":{"obejct":7}},{"type":"Feature","geometry":{"type":"Point","coordinates":[-86.08452017822536,39.59775991020895]},"id":"5","properties":{"obejct":7}},{"type":"Feature","geometry":{"type":"Point","coordinates":[-86.08351166763576,39.59739616223793]},"id":"6","properties":{"obejct":7}},{"type":"Feature","geometry":{"type":"Point","coordinates":[-86.08351166763576,39.59694974166271]},"id":"7","properties":{"obejct":7}},{"type":"Feature","geometry":{"type":"Point","coordinates":[-86.08280356445583,39.59683400252539]},"id":"8","properties":{"obejct":7}},{"type":"Feature","geometry":{"type":"Point","coordinates":[-86.08351166763576,39.59620570097687]},"id":"9","properties":{"obejct":7}},{"type":"Feature","geometry":{"type":"Point","coordinates":[-86.08349020996364,39.59546165229887]},"id":"10","properties":{"obejct":7}},{"type":"Feature","geometry":{"type":"Point","coordinates":[-86.08151610412868,39.595345910675086]},"id":"11","properties":{"obejct":7}},{"type":"Feature","geometry":{"type":"Point","coordinates":[-86.08055050888332,39.59580887600986]},"id":"12","properties":{"obejct":7}},{"type":"Feature","geometry":{"type":"Point","coordinates":[-86.08112986603054,39.59653638671283]},"id":"13","properties":{"obejct":7}},{"type":"Feature","geometry":{"type":"Point","coordinates":[-86.0819881729153,39.59685053669969]},"id":"14","properties":{"obejct":7}},{"type":"Feature","geometry":{"type":"Point","coordinates":[-86.08136590042385,39.59767724038328]},"id":"15","properties":{"obejct":7}},{"type":"Feature","geometry":{"type":"Point","coordinates":[-86.08027155914577,39.597115082951966]},"id":"16","properties":{"obejct":7}},{"type":"Feature","geometry":{"type":"Point","coordinates":[-86.08031447449001,39.59787564779912]},"id":"17","properties":{"obejct":7}},{"type":"Feature","geometry":{"type":"Point","coordinates":[-86.0791772178677,39.59784257993595]},"id":"18","properties":{"obejct":7}},{"type":"Feature","geometry":{"type":"Point","coordinates":[-86.0790699295071,39.59666866056516]},"id":"19","properties":{"obejct":7}},{"type":"Feature","geometry":{"type":"Point","coordinates":[-86.07956345596584,39.596321441164044]},"id":"20","properties":{"obejct":7}},{"type":"Feature","geometry":{"type":"Point","coordinates":[-86.0757010749844,39.59131136750495]},"id":"21","properties":{"obejct":7}},{"type":"Feature","geometry":{"type":"Point","coordinates":[-86.07574399032863,39.592320025325805]},"id":"22","properties":{"obejct":7}},{"type":"Feature","geometry":{"type":"Point","coordinates":[-86.07437069931302,39.59246884244961]},"id":"23","properties":{"obejct":7}},{"type":"Feature","geometry":{"type":"Point","coordinates":[-86.07419903793605,39.59375857746505]},"id":"24","properties":{"obejct":7}},{"type":"Feature","geometry":{"type":"Point","coordinates":[-86.07587273636135,39.59389085662179]},"id":"25","properties":{"obejct":7}},{"type":"Feature","geometry":{"type":"Point","coordinates":[-86.07688124695095,39.593130248021126]},"id":"26","properties":{"obejct":7}},{"type":"Feature","geometry":{"type":"Point","coordinates":[-86.07733185806546,39.5923034900701]},"id":"27","properties":{"obejct":7}},{"type":"Feature","geometry":{"type":"Point","coordinates":[-86.07825453796657,39.59233656057758]},"id":"28","properties":{"obejct":7}},{"type":"Feature","geometry":{"type":"Point","coordinates":[-86.0791772178677,39.59399006582359]},"id":"29","properties":{"obejct":7}},{"type":"Feature","geometry":{"type":"Point","coordinates":[-86.0766022972134,39.59691667335748]},"id":"30","properties":{"obejct":7}},{"type":"Feature","geometry":{"type":"Point","coordinates":[-86.07544358291896,39.597644172425376]},"id":"31","properties":{"obejct":7}},{"type":"Feature","geometry":{"type":"Point","coordinates":[-86.07439215698513,39.59815672399871]},"id":"32","properties":{"obejct":7}},{"type":"Feature","geometry":{"type":"Point","coordinates":[-86.07385571518215,39.59734656009387]},"id":"33","properties":{"obejct":7}},{"type":"Feature","geometry":{"type":"Point","coordinates":[-86.07400591888698,39.596337975460706]},"id":"34","properties":{"obejct":7}},{"type":"Feature","geometry":{"type":"Point","coordinates":[-86.07289011993679,39.59546165229886]},"id":"35","properties":{"obejct":7}},{"type":"Feature","geometry":{"type":"Point","coordinates":[-86.07237513580593,39.59294836211845]},"id":"36","properties":{"obejct":7}},{"type":"Feature","geometry":{"type":"Point","coordinates":[-86.08690197983059,39.592088531386686]},"id":"37","properties":{"obejct":7}},{"type":"Feature","geometry":{"type":"Point","coordinates":[-86.0875886253384,39.59279954602471]},"id":"38","properties":{"obejct":7}},{"type":"Feature","geometry":{"type":"Point","coordinates":[-86.0875886253384,39.594287692576515]},"id":"39","properties":{"obejct":7}},{"type":"Feature","geometry":{"type":"Point","coordinates":[-86.08936961212429,39.59430422735863]},"id":"40","properties":{"obejct":7}},{"type":"Feature","geometry":{"type":"Point","coordinates":[-86.08947690048488,39.59304757267002]},"id":"41","properties":{"obejct":7}},{"type":"Feature","geometry":{"type":"Point","coordinates":[-86.08949835815702,39.5921050666937]},"id":"42","properties":{"obejct":7}},{"type":"Feature","geometry":{"type":"Point","coordinates":[-86.0891550354031,39.59073262278064]},"id":"43","properties":{"obejct":7}},{"type":"Feature","geometry":{"type":"Point","coordinates":[-86.0883825592068,39.5906334089139]},"id":"44","properties":{"obejct":7}},{"type":"Feature","geometry":{"type":"Point","coordinates":[-86.04364703934684,39.60288443627575]},"id":"45","properties":{"obejct":7}},{"type":"Feature","geometry":{"type":"Point","coordinates":[-86.04289602082267,39.60331428597197]},"id":"46","properties":{"obejct":7}},{"type":"Feature","geometry":{"type":"Point","coordinates":[-86.04218791764274,39.603760665524796]},"id":"47","properties":{"obejct":7}},{"type":"Feature","geometry":{"type":"Point","coordinates":[-86.04208062928214,39.604950996931976]},"id":"48","properties":{"obejct":7}},{"type":"Feature","geometry":{"type":"Point","coordinates":[-86.04212354462638,39.60625703146196]},"id":"49","properties":{"obejct":7}},{"type":"Feature","geometry":{"type":"Point","coordinates":[-86.04231666367545,39.60724893996239]},"id":"50","properties":{"obejct":7}},{"type":"Feature","geometry":{"type":"Point","coordinates":[-86.04323934357657,39.607348130030914]},"id":"51","properties":{"obejct":7}},{"type":"Feature","geometry":{"type":"Point","coordinates":[-86.04319642823233,39.605975988136834]},"id":"52","properties":{"obejct":7}},{"type":"Feature","geometry":{"type":"Point","coordinates":[-86.04323934357657,39.604950996931976]},"id":"53","properties":{"obejct":7}},{"type":"Feature","geometry":{"type":"Point","coordinates":[-86.04386161606803,39.603892925580446]},"id":"54","properties":{"obejct":7}},{"type":"Feature","geometry":{"type":"Point","coordinates":[-86.04437660019889,39.60534776952078]},"id":"55","properties":{"obejct":7}},{"type":"Feature","geometry":{"type":"Point","coordinates":[-86.04444097321525,39.606703392045546]},"id":"56","properties":{"obejct":7}},{"type":"Feature","geometry":{"type":"Point","coordinates":[-86.04574989121451,39.60645541429877]},"id":"57","properties":{"obejct":7}},{"type":"Feature","geometry":{"type":"Point","coordinates":[-86.04841064255729,39.606422350532114]},"id":"58","properties":{"obejct":7}},{"type":"Feature","geometry":{"type":"Point","coordinates":[-86.0470802668859,39.60569494367103]},"id":"59","properties":{"obejct":7}},{"type":"Feature","geometry":{"type":"Point","coordinates":[-86.04931186478629,39.605612283316944]},"id":"60","properties":{"obejct":7}},{"type":"Feature","geometry":{"type":"Point","coordinates":[-86.05062078278556,39.60483527116533]},"id":"61","properties":{"obejct":7}},{"type":"Feature","geometry":{"type":"Point","coordinates":[-86.06334128216757,39.587252114229855]},"id":"62","properties":{"obejct":7}},{"type":"Feature","geometry":{"type":"Point","coordinates":[-86.0671822054769,39.58759937908874]},"id":"63","properties":{"obejct":7}},{"type":"Feature","geometry":{"type":"Point","coordinates":[-86.06392063931479,39.588707307718394]},"id":"64","properties":{"obejct":7}},{"type":"Feature","geometry":{"type":"Point","coordinates":[-86.05952181653036,39.58768206094149]},"id":"65","properties":{"obejct":7}},{"type":"Feature","geometry":{"type":"Point","coordinates":[-86.0624829752828,39.585168488528026]},"id":"66","properties":{"obejct":7}},{"type":"Feature","geometry":{"type":"Point","coordinates":[-86.0616800110686,39.5830512943522]},"id":"67","properties":{"obejct":7}},{"type":"Feature","geometry":{"type":"Point","coordinates":[-86.06063155583415,39.58027294440733]},"id":"68","properties":{"obejct":7}},{"type":"Feature","geometry":{"type":"Point","coordinates":[-86.05906514576945,39.57699831755243]},"id":"69","properties":{"obejct":7}},{"type":"Feature","geometry":{"type":"Point","coordinates":[-86.05760602406535,39.574318962325655]},"id":"70","properties":{"obejct":7}},{"type":"Feature","geometry":{"type":"Point","coordinates":[-86.05477361134562,39.5703493568118]},"id":"71","properties":{"obejct":7}},{"type":"Feature","geometry":{"type":"Point","coordinates":[-86.05245618275676,39.56707426115302]},"id":"72","properties":{"obejct":7}},{"type":"Feature","geometry":{"type":"Point","coordinates":[-86.04652499306829,39.55819388890126]},"id":"73","properties":{"obejct":7}},{"type":"Feature","geometry":{"type":"Point","coordinates":[-86.03626964346363,39.54234459813729]},"id":"74","properties":{"obejct":7}},{"type":"Feature","geometry":{"type":"Point","coordinates":[-86.02839643404593,39.529258611770075]},"id":"75","properties":{"obejct":7}},{"type":"Feature","geometry":{"type":"Point","coordinates":[-86.02509195253958,39.52277059292055]},"id":"76","properties":{"obejct":7}},{"type":"Feature","geometry":{"type":"Point","coordinates":[-86.02088977136073,39.50814673577622]},"id":"77","properties":{"obejct":7}}]}