{"type":"FeatureCollection","features":[{"type":"Feature","geometry":{"type":"Point","coordinates":[-86.35737056967555,39.76920827126908]},"id":"0","properties":{"object":8}},{"type":"Feature","geometry":{"type":"Point","coordinates":[-86.35676975485622,39.76953812958137]},"id":"1","properties":{"object":8}},{"type":"Feature","geometry":{"type":"Point","coordinates":[-86.35631914374171,39.76914229941694]},"id":"2","properties":{"object":8}},{"type":"Feature","geometry":{"type":"Point","coordinates":[-86.35634060141383,39.768664001598395]},"id":"3","properties":{"object":8}},{"type":"Feature","geometry":{"type":"Point","coordinates":[-86.35644788977443,39.76816920725479]},"id":"4","properties":{"object":8}},{"type":"Feature","geometry":{"type":"Point","coordinates":[-86.35672683951198,39.767608436033164]},"id":"5","properties":{"object":8}},{"type":"Feature","geometry":{"type":"Point","coordinates":[-86.35758514639674,39.76778986251646]},"id":"6","properties":{"object":8}},{"type":"Feature","geometry":{"type":"Point","coordinates":[-86.35769243475734,39.76840011172433]},"id":"7","properties":{"object":8}},{"type":"Feature","geometry":{"type":"Point","coordinates":[-86.35430212256252,39.768565043014156]},"id":"8","properties":{"object":8}},{"type":"Feature","geometry":{"type":"Point","coordinates":[-86.35400171515285,39.76813622083879]},"id":"9","properties":{"object":8}},{"type":"Feature","geometry":{"type":"Point","coordinates":[-86.35486002203761,39.76803726149591]},"id":"10","properties":{"object":8}},{"type":"Feature","geometry":{"type":"Point","coordinates":[-86.35479564902126,39.76868049468194]},"id":"11","properties":{"object":8}},{"type":"Feature","geometry":{"type":"Point","coordinates":[-86.35458107230006,39.7700329140864]},"id":"12","properties":{"object":8}},{"type":"Feature","geometry":{"type":"Point","coordinates":[-86.35537500616847,39.77037926112402]},"id":"13","properties":{"object":8}},{"type":"Feature","geometry":{"type":"Point","coordinates":[-86.35385151144801,39.77014836329258]},"id":"14","properties":{"object":8}},{"type":"Feature","geometry":{"type":"Point","coordinates":[-86.35314340826808,39.76948865093528]},"id":"15","properties":{"object":8}},{"type":"Feature","geometry":{"type":"Point","coordinates":[-86.35402317282497,39.769835000711126]},"id":"16","properties":{"object":8}},{"type":"Feature","geometry":{"type":"Point","coordinates":[-86.35061730879413,39.773222947806175]},"id":"17","properties":{"object":8}},{"type":"Feature","geometry":{"type":"Point","coordinates":[-86.35094990271197,39.773899116209854]},"id":"18","properties":{"object":8}},{"type":"Feature","geometry":{"type":"Point","coordinates":[-86.35094990271197,39.77352804900581]},"id":"19","properties":{"object":8}},{"type":"Feature","geometry":{"type":"Point","coordinates":[-86.3508640720235,39.77281889278472]},"id":"20","properties":{"object":8}},{"type":"Feature","geometry":{"type":"Point","coordinates":[-86.3508104278432,39.77252203452291]},"id":"21","properties":{"object":8}},{"type":"Feature","geometry":{"type":"Point","coordinates":[-86.35082115667926,39.77206025245986]},"id":"22","properties":{"object":8}},{"type":"Feature","geometry":{"type":"Point","coordinates":[-86.35067205120981,39.77185981260919]},"id":"23","properties":{"object":8}},{"type":"Feature","geometry":{"type":"Point","coordinates":[-86.34980301548899,39.77241230310794]},"id":"24","properties":{"object":8}},{"type":"Feature","geometry":{"type":"Point","coordinates":[-86.34962062527597,39.772032981750094]},"id":"25","properties":{"object":8}},{"type":"Feature","geometry":{"type":"Point","coordinates":[-86.34972791363657,39.7729730351994]},"id":"26","properties":{"object":8}},{"type":"Feature","geometry":{"type":"Point","coordinates":[-86.34936313321055,39.77349253291372]},"id":"27","properties":{"object":8}},{"type":"Feature","geometry":{"type":"Point","coordinates":[-86.3244664185117,39.745481357788144]},"id":"28","properties":{"object":8}},{"type":"Feature","geometry":{"type":"Point","coordinates":[-86.32444496083959,39.745060641234915]},"id":"29","properties":{"object":8}},{"type":"Feature","geometry":{"type":"Point","coordinates":[-86.32444496083959,39.744714166850414]},"id":"30","properties":{"object":8}},{"type":"Feature","geometry":{"type":"Point","coordinates":[-86.32329697538121,39.74522562842469]},"id":"31","properties":{"object":8}},{"type":"Feature","geometry":{"type":"Point","coordinates":[-86.32320041585668,39.7447966609095]},"id":"32","properties":{"object":8}},{"type":"Feature","geometry":{"type":"Point","coordinates":[-86.32317895818456,39.74422744989136]},"id":"33","properties":{"object":8}},{"type":"Feature","geometry":{"type":"Point","coordinates":[-86.32368321347936,39.7439717158741]},"id":"34","properties":{"object":8}},{"type":"Feature","geometry":{"type":"Point","coordinates":[-86.32416601110204,39.74407070979984]},"id":"35","properties":{"object":8}},{"type":"Feature","geometry":{"type":"Point","coordinates":[-86.32436985898717,39.743138511363284]},"id":"36","properties":{"object":8}},{"type":"Feature","geometry":{"type":"Point","coordinates":[-86.32433767247899,39.742726030154294]},"id":"37","properties":{"object":8}},{"type":"Feature","geometry":{"type":"Point","coordinates":[-86.32430548597081,39.74240429309726]},"id":"38","properties":{"object":8}},{"type":"Feature","geometry":{"type":"Point","coordinates":[-86.32431621480687,39.7419918074933]},"id":"39","properties":{"object":8}},{"type":"Feature","geometry":{"type":"Point","coordinates":[-86.3214945309232,39.74553085368434]},"id":"40","properties":{"object":8}},{"type":"Feature","geometry":{"type":"Point","coordinates":[-86.32124776769383,39.745126636158226]},"id":"41","properties":{"object":8}},{"type":"Feature","geometry":{"type":"Point","coordinates":[-86.32033581662877,39.745258625815254]},"id":"42","properties":{"object":8}},{"type":"Feature","geometry":{"type":"Point","coordinates":[-86.31996030736669,39.745522604370784]},"id":"43","properties":{"object":8}},{"type":"Feature","geometry":{"type":"Point","coordinates":[-86.31943459439977,39.74580308047787]},"id":"44","properties":{"object":8}},{"type":"Feature","geometry":{"type":"Point","coordinates":[-86.31939167905553,39.746256789410296]},"id":"45","properties":{"object":8}},{"type":"Feature","geometry":{"type":"Point","coordinates":[-86.32050747800572,39.745704089041034]},"id":"46","properties":{"object":8}},{"type":"Feature","geometry":{"type":"Point","coordinates":[-86.32007832456334,39.74449968183455]},"id":"47","properties":{"object":8}},{"type":"Feature","geometry":{"type":"Point","coordinates":[-86.31922001767857,39.745019394375724]},"id":"48","properties":{"object":8}},{"type":"Feature","geometry":{"type":"Point","coordinates":[-86.31879086423619,39.74477191270213]},"id":"49","properties":{"object":8}}]}