{"type":"FeatureCollection","features":[{"type":"Feature","geometry":{"type":"Point","coordinates":[-86.3376891157945,39.75047591172111]},"id":"0","properties":{"object":5}},{"type":"Feature","geometry":{"type":"Point","coordinates":[-86.33541460254987,39.74740731917408]},"id":"1","properties":{"object":5}},{"type":"Feature","geometry":{"type":"Point","coordinates":[-86.33764620045027,39.74681338224897]},"id":"2","properties":{"object":5}},{"type":"Feature","geometry":{"type":"Point","coordinates":[-86.32799024799665,39.746483415078195]},"id":"3","properties":{"object":5}},{"type":"Feature","geometry":{"type":"Point","coordinates":[-86.33013601520857,39.75143275671047]},"id":"4","properties":{"object":5}},{"type":"Feature","geometry":{"type":"Point","coordinates":[-86.31468649128279,39.746087452387336]},"id":"5","properties":{"object":5}},{"type":"Feature","geometry":{"type":"Point","coordinates":[-86.31498689869245,39.74470156504921]},"id":"6","properties":{"object":5}},{"type":"Feature","geometry":{"type":"Point","coordinates":[-86.31541605213484,39.74166571442656]},"id":"7","properties":{"object":5}},{"type":"Feature","geometry":{"type":"Point","coordinates":[-86.30567426899275,39.74159971618848]},"id":"8","properties":{"object":5}},{"type":"Feature","geometry":{"type":"Point","coordinates":[-86.3049447081407,39.74555949859306]},"id":"9","properties":{"object":5}},{"type":"Feature","geometry":{"type":"Point","coordinates":[-86.30387182453474,39.746120449365144]},"id":"10","properties":{"object":5}},{"type":"Feature","geometry":{"type":"Point","coordinates":[-86.30026693561872,39.74486655309881]},"id":"11","properties":{"object":5}},{"type":"Feature","geometry":{"type":"Point","coordinates":[-86.29134054401716,39.745427509512396]},"id":"12","properties":{"object":5}},{"type":"Feature","geometry":{"type":"Point","coordinates":[-86.28013963917097,39.74146771952271]},"id":"13","properties":{"object":5}},{"type":"Feature","geometry":{"type":"Point","coordinates":[-86.28189916828474,39.741137726752136]},"id":"14","properties":{"object":5}},{"type":"Feature","geometry":{"type":"Point","coordinates":[-86.2719857237657,39.73678167408482]},"id":"15","properties":{"object":5}},{"type":"Feature","geometry":{"type":"Point","coordinates":[-86.28863687733015,39.73612164208626]},"id":"16","properties":{"object":5}},{"type":"Feature","geometry":{"type":"Point","coordinates":[-86.28726358631452,39.73156724902925]},"id":"17","properties":{"object":5}},{"type":"Feature","geometry":{"type":"Point","coordinates":[-86.28320548146357,39.72423998531273]},"id":"18","properties":{"object":5}},{"type":"Feature","geometry":{"type":"Point","coordinates":[-86.28277632802119,39.728299781682686]},"id":"19","properties":{"object":5}},{"type":"Feature","geometry":{"type":"Point","coordinates":[-86.26827094166865,39.71882655164226]},"id":"20","properties":{"object":5}},{"type":"Feature","geometry":{"type":"Point","coordinates":[-86.29397723286738,39.722952682891645]},"id":"21","properties":{"object":5}},{"type":"Feature","geometry":{"type":"Point","coordinates":[-86.24702745770989,39.714600838517825]},"id":"22","properties":{"object":5}},{"type":"Feature","geometry":{"type":"Point","coordinates":[-86.24471002912102,39.71027612309604]},"id":"23","properties":{"object":5}},{"type":"Feature","geometry":{"type":"Point","coordinates":[-86.25170523023188,39.7130162414382]},"id":"24","properties":{"object":5}},{"type":"Feature","geometry":{"type":"Point","coordinates":[-86.25170523023188,39.71021009480513]},"id":"25","properties":{"object":5}},{"type":"Feature","geometry":{"type":"Point","coordinates":[-86.23661360021583,39.70782679958766]},"id":"26","properties":{"object":5}},{"type":"Feature","geometry":{"type":"Point","coordinates":[-86.23425325628273,39.70634109501274]},"id":"27","properties":{"object":5}},{"type":"Feature","geometry":{"type":"Point","coordinates":[-86.23685609757749,39.701378175416835]},"id":"28","properties":{"object":5}},{"type":"Feature","geometry":{"type":"Point","coordinates":[-86.23556863725034,39.695698779108504]},"id":"29","properties":{"object":5}},{"type":"Feature","geometry":{"type":"Point","coordinates":[-86.2364269441351,39.694018518461945]},"id":"30","properties":{"object":5}},{"type":"Feature","geometry":{"type":"Point","coordinates":[-86.23694192826596,39.69751875200269]},"id":"31","properties":{"object":5}},{"type":"Feature","geometry":{"type":"Point","coordinates":[-86.27817637060184,39.70072164036825]},"id":"32","properties":{"object":5}},{"type":"Feature","geometry":{"type":"Point","coordinates":[-86.27950674627323,39.70121691911337]},"id":"33","properties":{"object":5}},{"type":"Feature","geometry":{"type":"Point","coordinates":[-86.27989298437137,39.70219095694273]},"id":"34","properties":{"object":5}},{"type":"Feature","geometry":{"type":"Point","coordinates":[-86.27686745260257,39.70311545470742]},"id":"35","properties":{"object":5}},{"type":"Feature","geometry":{"type":"Point","coordinates":[-86.27714640234012,39.703462138175965]},"id":"36","properties":{"object":5}},{"type":"Feature","geometry":{"type":"Point","coordinates":[-86.28343350027104,39.70344562947888]},"id":"37","properties":{"object":5}},{"type":"Feature","geometry":{"type":"Point","coordinates":[-86.28924852941532,39.699186253669374]},"id":"38","properties":{"object":5}},{"type":"Feature","geometry":{"type":"Point","coordinates":[-86.2902355823328,39.69717203867619]},"id":"39","properties":{"object":5}},{"type":"Feature","geometry":{"type":"Point","coordinates":[-86.29347837757567,39.69317026048066]},"id":"40","properties":{"object":5}},{"type":"Feature","geometry":{"type":"Point","coordinates":[-86.34635096379922,39.669283107074236]},"id":"41","properties":{"object":5}},{"type":"Feature","geometry":{"type":"Point","coordinates":[-86.34549265691446,39.666871602086935]},"id":"42","properties":{"object":5}},{"type":"Feature","geometry":{"type":"Point","coordinates":[-86.35064249822305,39.66782960729579]},"id":"43","properties":{"object":5}},{"type":"Feature","geometry":{"type":"Point","coordinates":[-86.33926993199991,39.66634304180296]},"id":"44","properties":{"object":5}},{"type":"Feature","geometry":{"type":"Point","coordinates":[-86.33823996373819,39.670373211840975]},"id":"45","properties":{"object":5}},{"type":"Feature","geometry":{"type":"Point","coordinates":[-86.33321886846231,39.676913479226634]},"id":"46","properties":{"object":5}},{"type":"Feature","geometry":{"type":"Point","coordinates":[-86.33836870977092,39.6771446894678]},"id":"47","properties":{"object":5}},{"type":"Feature","geometry":{"type":"Point","coordinates":[-86.3565219003837,39.65900885061393]},"id":"48","properties":{"object":5}},{"type":"Feature","geometry":{"type":"Point","coordinates":[-86.35986929723428,39.65881061842747]},"id":"49","properties":{"object":5}}]}