{"type":"FeatureCollection","features":[{"type":"Feature","geometry":{"type":"Point","coordinates":[-86.49967143596133,40.0256108777955]},"id":"0","properties":{"obejct":3}},{"type":"Feature","geometry":{"type":"Point","coordinates":[-86.4953799015375,40.02314612873575]},"id":"1","properties":{"obejct":3}},{"type":"Feature","geometry":{"type":"Point","coordinates":[-86.48362109721621,40.02597236683653]},"id":"2","properties":{"obejct":3}},{"type":"Feature","geometry":{"type":"Point","coordinates":[-86.49349162639102,40.03119731266046]},"id":"3","properties":{"obejct":3}},{"type":"Feature","geometry":{"type":"Point","coordinates":[-86.49942113269196,40.03737833344014]},"id":"4","properties":{"obejct":3}},{"type":"Feature","geometry":{"type":"Point","coordinates":[-86.49521542895661,40.044179405242815]},"id":"5","properties":{"obejct":3}},{"type":"Feature","geometry":{"type":"Point","coordinates":[-86.47251321185456,40.07065671983588]},"id":"6","properties":{"obejct":3}},{"type":"Feature","geometry":{"type":"Point","coordinates":[-86.47532416690217,40.06725758967913]},"id":"7","properties":{"obejct":3}},{"type":"Feature","geometry":{"type":"Point","coordinates":[-86.40988585471723,39.970359063135106]},"id":"8","properties":{"obejct":3}},{"type":"Feature","geometry":{"type":"Point","coordinates":[-86.40400645255659,39.97068795561798]},"id":"9","properties":{"obejct":3}},{"type":"Feature","geometry":{"type":"Point","coordinates":[-86.40220400809858,39.9734177021488]},"id":"10","properties":{"obejct":3}},{"type":"Feature","geometry":{"type":"Point","coordinates":[-86.4041351985893,39.975785586737715]},"id":"11","properties":{"obejct":3}},{"type":"Feature","geometry":{"type":"Point","coordinates":[-86.39980074882124,39.97621311271158]},"id":"12","properties":{"obejct":3}},{"type":"Feature","geometry":{"type":"Point","coordinates":[-86.39735457419967,39.971016846518374]},"id":"13","properties":{"obejct":3}},{"type":"Feature","geometry":{"type":"Point","coordinates":[-86.3967108440361,39.96677403243911]},"id":"14","properties":{"obejct":3}},{"type":"Feature","geometry":{"type":"Point","coordinates":[-86.38872859000776,39.968977697426084]},"id":"15","properties":{"obejct":3}},{"type":"Feature","geometry":{"type":"Point","coordinates":[-86.38692614554975,39.967267396443695]},"id":"16","properties":{"obejct":3}},{"type":"Feature","geometry":{"type":"Point","coordinates":[-86.3966250133476,39.96519524369765]},"id":"17","properties":{"obejct":3}},{"type":"Feature","geometry":{"type":"Point","coordinates":[-86.39207598685834,39.96292567100619]},"id":"18","properties":{"obejct":3}},{"type":"Feature","geometry":{"type":"Point","coordinates":[-86.3925909709892,39.96516235187784]},"id":"19","properties":{"obejct":3}},{"type":"Feature","geometry":{"type":"Point","coordinates":[-86.38997313499067,39.971016846518374]},"id":"20","properties":{"obejct":3}},{"type":"Feature","geometry":{"type":"Point","coordinates":[-86.38735529899213,39.96338617010845]},"id":"21","properties":{"obejct":3}},{"type":"Feature","geometry":{"type":"Point","coordinates":[-86.38469454764936,39.9648663247874]},"id":"22","properties":{"obejct":3}},{"type":"Feature","geometry":{"type":"Point","coordinates":[-86.3830637645683,39.962465168802375]},"id":"23","properties":{"obejct":3}},{"type":"Feature","geometry":{"type":"Point","coordinates":[-86.378686399456,39.97032617379979]},"id":"24","properties":{"obejct":3}},{"type":"Feature","geometry":{"type":"Point","coordinates":[-86.3748669338188,39.970095948009416]},"id":"25","properties":{"obejct":3}},{"type":"Feature","geometry":{"type":"Point","coordinates":[-86.37615439414594,39.967925209577785]},"id":"26","properties":{"obejct":3}},{"type":"Feature","geometry":{"type":"Point","coordinates":[-86.37134787559125,39.96960260441888]},"id":"27","properties":{"obejct":3}},{"type":"Feature","geometry":{"type":"Point","coordinates":[-86.38357874869916,39.97384524293529]},"id":"28","properties":{"obejct":3}},{"type":"Feature","geometry":{"type":"Point","coordinates":[-86.38598933908112,39.97889851799396]},"id":"29","properties":{"obejct":3}},{"type":"Feature","geometry":{"type":"Point","coordinates":[-86.38075366708405,39.983929771143345]},"id":"30","properties":{"obejct":3}},{"type":"Feature","geometry":{"type":"Point","coordinates":[-86.37637630197175,39.98399553670532]},"id":"31","properties":{"obejct":3}},{"type":"Feature","geometry":{"type":"Point","coordinates":[-86.37109771463044,39.983765356961506]},"id":"32","properties":{"obejct":3}},{"type":"Feature","geometry":{"type":"Point","coordinates":[-86.38225570413239,39.981266212683764]},"id":"33","properties":{"obejct":3}},{"type":"Feature","geometry":{"type":"Point","coordinates":[-86.37727752420075,39.979819297899915]},"id":"34","properties":{"obejct":3}},{"type":"Feature","geometry":{"type":"Point","coordinates":[-86.37590423318512,39.981496400847185]},"id":"35","properties":{"obejct":3}},{"type":"Feature","geometry":{"type":"Point","coordinates":[-86.37131229135163,39.977320009288846]},"id":"36","properties":{"obejct":3}},{"type":"Feature","geometry":{"type":"Point","coordinates":[-86.36787906381257,39.98027968320005]},"id":"37","properties":{"obejct":3}},{"type":"Feature","geometry":{"type":"Point","coordinates":[-86.2321405559181,39.93654951449129]},"id":"38","properties":{"obejct":3}},{"type":"Feature","geometry":{"type":"Point","coordinates":[-86.22915793949353,39.93210711573605]},"id":"39","properties":{"obejct":3}},{"type":"Feature","geometry":{"type":"Point","coordinates":[-86.23870660358655,39.93926417178074]},"id":"40","properties":{"obejct":3}},{"type":"Feature","geometry":{"type":"Point","coordinates":[-86.23907138401258,39.94003741809033]},"id":"41","properties":{"obejct":3}},{"type":"Feature","geometry":{"type":"Point","coordinates":[-86.35483928367547,39.74523646682407]},"id":"42","properties":{"obejct":3}},{"type":"Feature","geometry":{"type":"Point","coordinates":[-86.35157771751336,39.74543445089921]},"id":"43","properties":{"obejct":3}},{"type":"Feature","geometry":{"type":"Point","coordinates":[-86.35981746360711,39.74464251118532]},"id":"44","properties":{"obejct":3}},{"type":"Feature","geometry":{"type":"Point","coordinates":[-86.356555897445,39.737448641953954]},"id":"45","properties":{"obejct":3}},{"type":"Feature","geometry":{"type":"Point","coordinates":[-86.35346599265985,39.73949468118136]},"id":"46","properties":{"obejct":3}},{"type":"Feature","geometry":{"type":"Point","coordinates":[-86.34479709312372,39.73764664840485]},"id":"47","properties":{"obejct":3}},{"type":"Feature","geometry":{"type":"Point","coordinates":[-86.34762950584344,39.747018303020134]},"id":"48","properties":{"obejct":3}},{"type":"Feature","geometry":{"type":"Point","coordinates":[-86.3496036116784,39.73698662468963]},"id":"49","properties":{"obejct":3}},{"type":"Feature","geometry":{"type":"Point","coordinates":[-86.35380931541376,39.73596357543986]},"id":"50","properties":{"obejct":3}}]}