{"type":"FeatureCollection","features":[{"type":"Feature","geometry":{"type":"Point","coordinates":[-86.49507514299421,40.044601855848704]},"id":"0","properties":{"object":2}},{"type":"Feature","geometry":{"type":"Point","coordinates":[-86.4987658625987,40.03770225555179]},"id":"1","properties":{"object":2}},{"type":"Feature","geometry":{"type":"Point","coordinates":[-86.48529044450788,40.04046217945297]},"id":"2","properties":{"object":2}},{"type":"Feature","geometry":{"type":"Point","coordinates":[-86.49026862443952,40.05176355945504]},"id":"3","properties":{"object":2}},{"type":"Feature","geometry":{"type":"Point","coordinates":[-86.46185866655378,40.05787340894232]},"id":"4","properties":{"object":2}},{"type":"Feature","geometry":{"type":"Point","coordinates":[-86.45559302629499,40.03129485869715]},"id":"5","properties":{"object":2}},{"type":"Feature","geometry":{"type":"Point","coordinates":[-86.45632258714706,40.03543509163729]},"id":"6","properties":{"object":2}},{"type":"Feature","geometry":{"type":"Point","coordinates":[-86.44958487810163,40.028797453817525]},"id":"7","properties":{"object":2}},{"type":"Feature","geometry":{"type":"Point","coordinates":[-86.45799628557234,40.04443758776507]},"id":"8","properties":{"object":2}},{"type":"Feature","geometry":{"type":"Point","coordinates":[-86.48797340519633,40.029169495931676]},"id":"9","properties":{"object":2}},{"type":"Feature","geometry":{"type":"Point","coordinates":[-86.4822227490684,40.03623424780324]},"id":"10","properties":{"object":2}},{"type":"Feature","geometry":{"type":"Point","coordinates":[-86.4767295850059,40.03028676121879]},"id":"11","properties":{"object":2}},{"type":"Feature","geometry":{"type":"Point","coordinates":[-86.49569816715922,40.02571900231473]},"id":"12","properties":{"object":2}},{"type":"Feature","geometry":{"type":"Point","coordinates":[-86.37213159266099,39.98060629616947]},"id":"13","properties":{"object":2}},{"type":"Feature","geometry":{"type":"Point","coordinates":[-86.37874055567369,39.97692314452057]},"id":"14","properties":{"object":2}},{"type":"Feature","geometry":{"type":"Point","coordinates":[-86.34181892148335,39.94729704599022]},"id":"15","properties":{"object":2}},{"type":"Feature","geometry":{"type":"Point","coordinates":[-86.34216224423726,39.95190294990352]},"id":"16","properties":{"object":2}},{"type":"Feature","geometry":{"type":"Point","coordinates":[-86.23528923721774,39.90542326847253]},"id":"17","properties":{"object":2}},{"type":"Feature","geometry":{"type":"Point","coordinates":[-86.23518194885715,39.90800748297053]},"id":"18","properties":{"object":2}},{"type":"Feature","geometry":{"type":"Point","coordinates":[-86.23511757584079,39.909159649097234]},"id":"19","properties":{"object":2}},{"type":"Feature","geometry":{"type":"Point","coordinates":[-86.24994482727512,39.909554673022576]},"id":"20","properties":{"object":2}},{"type":"Feature","geometry":{"type":"Point","coordinates":[-86.25241245956882,39.9033410119932]},"id":"21","properties":{"object":2}},{"type":"Feature","geometry":{"type":"Point","coordinates":[-86.25724043579562,39.90397474892518]},"id":"22","properties":{"object":2}},{"type":"Feature","geometry":{"type":"Point","coordinates":[-86.26239027710423,39.90048500789558]},"id":"23","properties":{"object":2}},{"type":"Feature","geometry":{"type":"Point","coordinates":[-86.26565184326633,39.89943146624304]},"id":"24","properties":{"object":2}},{"type":"Feature","geometry":{"type":"Point","coordinates":[-86.2671967956589,39.91289582593762]},"id":"25","properties":{"object":2}},{"type":"Feature","geometry":{"type":"Point","coordinates":[-86.25346388550265,39.904431405627996]},"id":"26","properties":{"object":2}},{"type":"Feature","geometry":{"type":"Point","coordinates":[-86.24803509445651,39.90262072519617]},"id":"27","properties":{"object":2}},{"type":"Feature","geometry":{"type":"Point","coordinates":[-86.24717678757175,39.89937784156567]},"id":"28","properties":{"object":2}},{"type":"Feature","geometry":{"type":"Point","coordinates":[-86.25140394897922,39.89868644551241]},"id":"29","properties":{"object":2}},{"type":"Feature","geometry":{"type":"Point","coordinates":[-86.2487002822922,39.898093814771805]},"id":"30","properties":{"object":2}},{"type":"Feature","geometry":{"type":"Point","coordinates":[-86.26728905352762,39.90543663954256]},"id":"31","properties":{"object":2}},{"type":"Feature","geometry":{"type":"Point","coordinates":[-86.26510030213261,39.896910490095344]},"id":"32","properties":{"object":2}},{"type":"Feature","geometry":{"type":"Point","coordinates":[-86.26415616455937,39.90102594663034]},"id":"33","properties":{"object":2}},{"type":"Feature","geometry":{"type":"Point","coordinates":[-86.26535779419804,39.90747848486614]},"id":"34","properties":{"object":2}},{"type":"Feature","geometry":{"type":"Point","coordinates":[-86.26432782593632,39.91314041574566]},"id":"35","properties":{"object":2}},{"type":"Feature","geometry":{"type":"Point","coordinates":[-86.25330080833915,39.91223966851156]},"id":"36","properties":{"object":2}},{"type":"Feature","geometry":{"type":"Point","coordinates":[-86.24743931020271,39.936158214606685]},"id":"37","properties":{"object":2}},{"type":"Feature","geometry":{"type":"Point","coordinates":[-86.22347549424931,39.90863179846578]},"id":"38","properties":{"object":2}},{"type":"Feature","geometry":{"type":"Point","coordinates":[-86.21637300477788,39.9091749599612]},"id":"39","properties":{"object":2}},{"type":"Feature","geometry":{"type":"Point","coordinates":[-86.21396974550053,39.90956998379824]},"id":"40","properties":{"object":2}},{"type":"Feature","geometry":{"type":"Point","coordinates":[-86.07147617867567,39.61879207298965]},"id":"41","properties":{"object":2}},{"type":"Feature","geometry":{"type":"Point","coordinates":[-86.06475992730238,39.60679102694874]},"id":"42","properties":{"object":2}},{"type":"Feature","geometry":{"type":"Point","coordinates":[-86.0690152268427,39.59890438980983]},"id":"43","properties":{"object":2}},{"type":"Feature","geometry":{"type":"Point","coordinates":[-86.09582359171837,39.576638199461506]},"id":"44","properties":{"object":2}},{"type":"Feature","geometry":{"type":"Point","coordinates":[-85.74375061936549,40.03806753271448]},"id":"45","properties":{"object":2}},{"type":"Feature","geometry":{"type":"Point","coordinates":[-85.73396227694127,40.039911396303125]},"id":"46","properties":{"object":2}},{"type":"Feature","geometry":{"type":"Point","coordinates":[-85.73179505205724,40.04170201592829]},"id":"47","properties":{"object":2}},{"type":"Feature","geometry":{"type":"Point","coordinates":[-85.74648093982843,40.04512784578037]},"id":"48","properties":{"object":2}},{"type":"Feature","geometry":{"type":"Point","coordinates":[-85.74046206279901,40.04236811073618]},"id":"49","properties":{"object":2}}]}