{"type":"FeatureCollection","features":[{"type":"Feature","geometry":{"type":"Point","coordinates":[-86.4963138998929,39.62409213172896]},"id":"0","properties":{"object":4}},{"type":"Feature","geometry":{"type":"Point","coordinates":[-86.49597057713899,39.62078651922034]},"id":"1","properties":{"object":4}},{"type":"Feature","geometry":{"type":"Point","coordinates":[-86.49176487340364,39.62065429143572]},"id":"2","properties":{"object":4}},{"type":"Feature","geometry":{"type":"Point","coordinates":[-86.49099239720735,39.62402602102618]},"id":"3","properties":{"object":4}},{"type":"Feature","geometry":{"type":"Point","coordinates":[-86.48601421727572,39.62105097403163]},"id":"4","properties":{"object":4}},{"type":"Feature","geometry":{"type":"Point","coordinates":[-86.48292431249055,39.62468712521171]},"id":"5","properties":{"object":4}},{"type":"Feature","geometry":{"type":"Point","coordinates":[-86.47416958226596,39.622968241192154]},"id":"6","properties":{"object":4}},{"type":"Feature","geometry":{"type":"Point","coordinates":[-86.47416958226596,39.61933199969488]},"id":"7","properties":{"object":4}},{"type":"Feature","geometry":{"type":"Point","coordinates":[-86.4691914023343,39.619133653754815]},"id":"8","properties":{"object":4}},{"type":"Feature","geometry":{"type":"Point","coordinates":[-86.46901974095735,39.62290212941567]},"id":"9","properties":{"object":4}},{"type":"Feature","geometry":{"type":"Point","coordinates":[-86.46206745519075,39.6227037937073]},"id":"10","properties":{"object":4}},{"type":"Feature","geometry":{"type":"Point","coordinates":[-86.49107822789583,39.6056447963572]},"id":"11","properties":{"object":4}},{"type":"Feature","geometry":{"type":"Point","coordinates":[-86.48987659825715,39.61715016309109]},"id":"12","properties":{"object":4}},{"type":"Feature","geometry":{"type":"Point","coordinates":[-86.48747333897981,39.6094140063921]},"id":"13","properties":{"object":4}},{"type":"Feature","geometry":{"type":"Point","coordinates":[-86.4838684500638,39.605578668033935]},"id":"14","properties":{"object":4}},{"type":"Feature","geometry":{"type":"Point","coordinates":[-86.48369678868686,39.6090833821428]},"id":"15","properties":{"object":4}},{"type":"Feature","geometry":{"type":"Point","coordinates":[-86.33944864490827,39.70622528056259]},"id":"16","properties":{"object":4}},{"type":"Feature","geometry":{"type":"Point","coordinates":[-86.33215303638777,39.716789613455866]},"id":"17","properties":{"object":4}},{"type":"Feature","geometry":{"type":"Point","coordinates":[-86.33249635914167,39.71428073088312]},"id":"18","properties":{"object":4}},{"type":"Feature","geometry":{"type":"Point","coordinates":[-86.33138056019148,39.71012106660913]},"id":"19","properties":{"object":4}},{"type":"Feature","geometry":{"type":"Point","coordinates":[-86.34854669788679,39.710715319719206]},"id":"20","properties":{"object":4}},{"type":"Feature","geometry":{"type":"Point","coordinates":[-86.3338696501573,39.70261671878942]},"id":"21","properties":{"object":4}},{"type":"Feature","geometry":{"type":"Point","coordinates":[-86.33146639087995,39.702220504114734]},"id":"22","properties":{"object":4}},{"type":"Feature","geometry":{"type":"Point","coordinates":[-86.33447046497663,39.69944693769449]},"id":"23","properties":{"object":4}},{"type":"Feature","geometry":{"type":"Point","coordinates":[-86.34725923755965,39.704729825299914]},"id":"24","properties":{"object":4}},{"type":"Feature","geometry":{"type":"Point","coordinates":[-86.35240907886823,39.701031846441175]},"id":"25","properties":{"object":4}},{"type":"Feature","geometry":{"type":"Point","coordinates":[-86.3474308989366,39.699909206505495]},"id":"26","properties":{"object":4}},{"type":"Feature","geometry":{"type":"Point","coordinates":[-86.34391184070905,39.7008337348384]},"id":"27","properties":{"object":4}},{"type":"Feature","geometry":{"type":"Point","coordinates":[-86.34313936451277,39.70611651628044]},"id":"28","properties":{"object":4}},{"type":"Feature","geometry":{"type":"Point","coordinates":[-86.34159441212019,39.715888595731094]},"id":"29","properties":{"object":4}},{"type":"Feature","geometry":{"type":"Point","coordinates":[-86.33850450733503,39.716020641379316]},"id":"30","properties":{"object":4}},{"type":"Feature","geometry":{"type":"Point","coordinates":[-86.34416933277448,39.71958577832549]},"id":"31","properties":{"object":4}},{"type":"Feature","geometry":{"type":"Point","coordinates":[-86.33953447559675,39.722292518481794]},"id":"32","properties":{"object":4}},{"type":"Feature","geometry":{"type":"Point","coordinates":[-86.33979196766218,39.68485085895943]},"id":"33","properties":{"object":4}},{"type":"Feature","geometry":{"type":"Point","coordinates":[-86.34588594654402,39.6810857588395]},"id":"34","properties":{"object":4}},{"type":"Feature","geometry":{"type":"Point","coordinates":[-86.3529240629991,39.67969856494249]},"id":"35","properties":{"object":4}},{"type":"Feature","geometry":{"type":"Point","coordinates":[-86.34013529041609,39.68214264977301]},"id":"36","properties":{"object":4}},{"type":"Feature","geometry":{"type":"Point","coordinates":[-86.34219522693952,39.6893422888111]},"id":"37","properties":{"object":4}},{"type":"Feature","geometry":{"type":"Point","coordinates":[-86.35790224293073,39.69165394028204]},"id":"38","properties":{"object":4}},{"type":"Feature","geometry":{"type":"Point","coordinates":[-86.35223741749128,39.67765075159774]},"id":"39","properties":{"object":4}},{"type":"Feature","geometry":{"type":"Point","coordinates":[-86.36176462391218,39.67414951072026]},"id":"40","properties":{"object":4}},{"type":"Feature","geometry":{"type":"Point","coordinates":[-86.31438608387313,39.6826710891741]},"id":"41","properties":{"object":4}},{"type":"Feature","geometry":{"type":"Point","coordinates":[-86.32228250721298,39.68148209483508]},"id":"42","properties":{"object":4}},{"type":"Feature","geometry":{"type":"Point","coordinates":[-86.29764909962019,39.68174631756845]},"id":"43","properties":{"object":4}},{"type":"Feature","geometry":{"type":"Point","coordinates":[-86.31026621082624,39.68947438526604]},"id":"44","properties":{"object":4}},{"type":"Feature","geometry":{"type":"Point","coordinates":[-86.31575937488874,39.6876250118968]},"id":"45","properties":{"object":4}},{"type":"Feature","geometry":{"type":"Point","coordinates":[-86.35300989368757,39.723876902447714]},"id":"46","properties":{"object":4}},{"type":"Feature","geometry":{"type":"Point","coordinates":[-86.35189409473737,39.732656370396846]},"id":"47","properties":{"object":4}},{"type":"Feature","geometry":{"type":"Point","coordinates":[-86.36442537525495,39.751333773362376]},"id":"48","properties":{"object":4}},{"type":"Feature","geometry":{"type":"Point","coordinates":[-86.36880274036726,39.75166371730292]},"id":"49","properties":{"object":4}}]}