{"type":"FeatureCollection","features":[{"type":"Feature","geometry":{"type":"Point","coordinates":[-86.49372264682702,40.03152107995974]},"id":"0","properties":{"object":1}},{"type":"Feature","geometry":{"type":"Point","coordinates":[-86.47895976840906,40.051440100678676]},"id":"1","properties":{"object":1}},{"type":"Feature","geometry":{"type":"Point","coordinates":[-86.45818874179773,40.04467260674373]},"id":"2","properties":{"object":1}},{"type":"Feature","geometry":{"type":"Point","coordinates":[-86.45754501163415,40.04165001378136]},"id":"3","properties":{"object":1}},{"type":"Feature","geometry":{"type":"Point","coordinates":[-86.4495198422616,40.0330414605095]},"id":"4","properties":{"object":1}},{"type":"Feature","geometry":{"type":"Point","coordinates":[-86.45621463596277,40.03580157304457]},"id":"5","properties":{"object":1}},{"type":"Feature","geometry":{"type":"Point","coordinates":[-86.44956275760583,40.02919683189996]},"id":"6","properties":{"object":1}},{"type":"Feature","geometry":{"type":"Point","coordinates":[-86.44271873719389,40.02751042665912]},"id":"7","properties":{"object":1}},{"type":"Feature","geometry":{"type":"Point","coordinates":[-86.47883480327249,40.02533919026333]},"id":"8","properties":{"object":1}},{"type":"Feature","geometry":{"type":"Point","coordinates":[-86.4730410999341,40.07734117572999]},"id":"9","properties":{"object":1}},{"type":"Feature","geometry":{"type":"Point","coordinates":[-86.47973589363527,40.07205408556819]},"id":"10","properties":{"object":1}},{"type":"Feature","geometry":{"type":"Point","coordinates":[-86.47600225868653,40.073302007209314]},"id":"11","properties":{"object":1}},{"type":"Feature","geometry":{"type":"Point","coordinates":[-86.45720533791017,40.062726789280184]},"id":"12","properties":{"object":1}},{"type":"Feature","geometry":{"type":"Point","coordinates":[-86.46201185646485,40.05822689746573]},"id":"13","properties":{"object":1}},{"type":"Feature","geometry":{"type":"Point","coordinates":[-86.25171921266995,39.740641378383]},"id":"14","properties":{"object":1}},{"type":"Feature","geometry":{"type":"Point","coordinates":[-86.27236149324858,39.74054237953063]},"id":"15","properties":{"object":1}},{"type":"Feature","geometry":{"type":"Point","coordinates":[-86.2784554721304,39.74602010223976]},"id":"16","properties":{"object":1}},{"type":"Feature","geometry":{"type":"Point","coordinates":[-86.27210400118314,39.74446922494102]},"id":"17","properties":{"object":1}},{"type":"Feature","geometry":{"type":"Point","coordinates":[-86.26776955141507,39.749616683323275]},"id":"18","properties":{"object":1}},{"type":"Feature","geometry":{"type":"Point","coordinates":[-86.29469892992459,39.747962042502344]},"id":"19","properties":{"object":1}},{"type":"Feature","geometry":{"type":"Point","coordinates":[-86.29285357012235,39.74789605029485]},"id":"20","properties":{"object":1}},{"type":"Feature","geometry":{"type":"Point","coordinates":[-86.2968446971365,39.745883257601406]},"id":"21","properties":{"object":1}},{"type":"Feature","geometry":{"type":"Point","coordinates":[-86.32557719324001,39.67488971985964]},"id":"22","properties":{"object":1}},{"type":"Feature","geometry":{"type":"Point","coordinates":[-85.91607618640015,39.84447404455936]},"id":"23","properties":{"object":1}},{"type":"Feature","geometry":{"type":"Point","coordinates":[-86.38710012749888,39.963636473611295]},"id":"24","properties":{"object":1}},{"type":"Feature","geometry":{"type":"Point","coordinates":[-86.38401022271373,39.96524819014368]},"id":"25","properties":{"object":1}},{"type":"Feature","geometry":{"type":"Point","coordinates":[-86.3826369316981,39.96268258266414]},"id":"26","properties":{"object":1}},{"type":"Feature","geometry":{"type":"Point","coordinates":[-86.3907050164149,39.97037911627198]},"id":"27","properties":{"object":1}},{"type":"Feature","geometry":{"type":"Point","coordinates":[-86.39513216227539,39.975270811522755]},"id":"28","properties":{"object":1}},{"type":"Feature","geometry":{"type":"Point","coordinates":[-86.3790174139884,39.976773220376224]},"id":"29","properties":{"object":1}},{"type":"Feature","geometry":{"type":"Point","coordinates":[-86.38088423146276,39.979634263448155]},"id":"30","properties":{"object":1}},{"type":"Feature","geometry":{"type":"Point","coordinates":[-86.37702185048131,39.980818108301484]},"id":"31","properties":{"object":1}},{"type":"Feature","geometry":{"type":"Point","coordinates":[-86.36886793507604,39.980982529575634]},"id":"32","properties":{"object":1}},{"type":"Feature","geometry":{"type":"Point","coordinates":[-86.37290197743444,39.97779268624209]},"id":"33","properties":{"object":1}},{"type":"Feature","geometry":{"type":"Point","coordinates":[-86.4864560190744,40.02937079074577]},"id":"34","properties":{"object":1}},{"type":"Feature","geometry":{"type":"Point","coordinates":[-86.4893742624826,40.03719124036061]},"id":"35","properties":{"object":1}},{"type":"Feature","geometry":{"type":"Point","coordinates":[-86.48233614602752,40.03676409609792]},"id":"36","properties":{"object":1}},{"type":"Feature","geometry":{"type":"Point","coordinates":[-86.48649893441863,40.034759768056745]},"id":"37","properties":{"object":1}},{"type":"Feature","geometry":{"type":"Point","coordinates":[-86.49079046884248,40.03314969139105]},"id":"38","properties":{"object":1}},{"type":"Feature","geometry":{"type":"Point","coordinates":[-86.4947386805124,40.03791409378697]},"id":"39","properties":{"object":1}},{"type":"Feature","geometry":{"type":"Point","coordinates":[-86.49920187631317,40.034956917689364]},"id":"40","properties":{"object":1}},{"type":"Feature","geometry":{"type":"Point","coordinates":[-86.49467430749603,40.03668195266375]},"id":"41","properties":{"object":1}},{"type":"Feature","geometry":{"type":"Point","coordinates":[-86.48310496551552,40.02603577348077]},"id":"42","properties":{"object":1}},{"type":"Feature","geometry":{"type":"Point","coordinates":[-86.47612847294533,40.03030894968542]},"id":"43","properties":{"object":1}},{"type":"Feature","geometry":{"type":"Point","coordinates":[-86.02887144815105,39.810428358845215]},"id":"44","properties":{"object":1}},{"type":"Feature","geometry":{"type":"Point","coordinates":[-86.0250090671696,39.812060163973925]},"id":"45","properties":{"object":1}},{"type":"Feature","geometry":{"type":"Point","coordinates":[-86.01912966500896,39.807873434631155]},"id":"46","properties":{"object":1}},{"type":"Feature","geometry":{"type":"Point","coordinates":[-86.00690284742477,39.81272463595056]},"id":"47","properties":{"object":1}},{"type":"Feature","geometry":{"type":"Point","coordinates":[-86.00162426008346,39.81216422781214]},"id":"48","properties":{"object":1}},{"type":"Feature","geometry":{"type":"Point","coordinates":[-86.00372711195114,39.81269167089241]},"id":"49","properties":{"object":1}}]}