{"type":"FeatureCollection","features":[{"type":"Feature","geometry":{"type":"Point","coordinates":[-86.07180202172852,39.54506896138303]},"id":"0","properties":{"object":6}},{"type":"Feature","geometry":{"type":"Point","coordinates":[-86.07828245345507,39.54300157994765]},"id":"1","properties":{"object":6}},{"type":"Feature","geometry":{"type":"Point","coordinates":[-86.07735977355395,39.5445735289485]},"id":"2","properties":{"object":6}},{"type":"Feature","geometry":{"type":"Point","coordinates":[-86.06916294280444,39.54389511322092]},"id":"3","properties":{"object":6}},{"type":"Feature","geometry":{"type":"Point","coordinates":[-86.07226357642566,39.547882778876705]},"id":"4","properties":{"object":6}},{"type":"Feature","geometry":{"type":"Point","coordinates":[-86.06784329596911,39.55106778287985]},"id":"5","properties":{"object":6}},{"type":"Feature","geometry":{"type":"Point","coordinates":[-86.04099623618498,39.500313085788314]},"id":"6","properties":{"object":6}},{"type":"Feature","geometry":{"type":"Point","coordinates":[-86.04086749015227,39.50534629012123]},"id":"7","properties":{"object":6}},{"type":"Feature","geometry":{"type":"Point","coordinates":[-86.04116789756193,39.50024685698584]},"id":"8","properties":{"object":6}},{"type":"Feature","geometry":{"type":"Point","coordinates":[-86.04305617270842,39.504816496304386]},"id":"9","properties":{"object":6}},{"type":"Feature","geometry":{"type":"Point","coordinates":[-86.0440432256259,39.51074333445941]},"id":"10","properties":{"object":6}},{"type":"Feature","geometry":{"type":"Point","coordinates":[-86.03582317861745,39.506887838747986]},"id":"11","properties":{"object":6}},{"type":"Feature","geometry":{"type":"Point","coordinates":[-86.01889307531545,39.50793083538342]},"id":"12","properties":{"object":6}}]}