{"type":"FeatureCollection","features":[{"type":"Feature","geometry":{"type":"MultiPolygon","coordinates":[[[[-86.41325,39.65593],[-86.41325,39.655944990342746],[-86.4325,39.65593],[-86.41325,39.65593]]],[[[-86.41325,39.77555999999999],[-86.41325,39.655944990342746],[-86.23163,39.65593],[-86.23163,39.77555999999999],[-86.41325,39.77555999999999]]],[[[-86.52219315282441,39.593025996959604],[-86.4552452158127,39.59302599695961],[-86.4552452158127,39.6301868954912],[-86.52219315282441,39.6301868954912],[-86.52219315282441,39.593025996959604]]],[[[-86.51699551415884,40.01872949729343],[-86.43013485742055,40.01872949729342],[-86.43013485742055,40.08311652940348],[-86.51699551415884,40.08311652940348],[-86.51699551415884,40.01872949729343]]],[[[-86.42000149776945,39.941952066033394],[-86.33608271867449,39.941952066033394],[-86.33608271867449,39.989335267371246],[-86.42000149776945,39.989335267371246],[-86.42000149776945,39.941952066033394]]],[[[-86.28427659318373,39.853404916355146],[-86.19458352372573,39.85340491635514],[-86.19458352372573,39.95045961723545],[-86.28427659318373,39.95045961723545],[-86.28427659318373,39.853404916355146]]],[[[-86.103553826318,39.784943054081694],[-85.98304753969693,39.784943054081694],[-85.98304753969693,39.84032440656338],[-86.103553826318,39.84032440656338],[-86.103553826318,39.784943054081694]]],[[[-85.95517501165573,39.7974392027313],[-85.86900100042526,39.79743920273129],[-85.86900100042526,39.86994017714408],[-85.95517501165573,39.86994017714408],[-85.95517501165573,39.7974392027313]]],[[[-85.78310468198428,39.97099990979417],[-85.70705869199405,39.97099990979417],[-85.70705869199405,40.05080779450227],[-85.78310468198428,40.05080779450227],[-85.78310468198428,39.97099990979417]]],[[[-86.10905708976979,39.5315811776021],[-86.0273462743401,39.53158117760209],[-86.0273462743401,39.640326958679935],[-86.10905708976979,39.640326958679935],[-86.10905708976979,39.5315811776021]]]]},"id":"0","properties":{}}]}