{"type":"FeatureCollection","features":[{"type":"Feature","geometry":{"type":"Polygon","coordinates":[[[-85.9328962801486,39.865162749750546],[-85.93293316052255,39.8651318685984],[-85.93294523046312,39.865138559515856],[-85.93298345194158,39.86510716366664],[-85.93297272310552,39.865097899314954],[-85.93298881635961,39.86508297341238],[-85.93293316052255,39.865044371925144],[-85.93288421020803,39.86500319698147],[-85.93284800038633,39.86497488919336],[-85.9328238605052,39.86500010885972],[-85.93279905007181,39.865018122901425],[-85.93282587216196,39.86503716631178],[-85.93281179056463,39.865052092224325],[-85.93279703841505,39.86504488661179],[-85.93277826295194,39.86506187126872],[-85.93276418135461,39.86507113562528],[-85.93283123657999,39.865124662994226],[-85.9328962801486,39.865162749750546]]]},"id":"0","properties":{"object":0}},{"type":"Feature","geometry":{"type":"Polygon","coordinates":[[[-85.93279301510152,39.86521833578939],[-85.93272461877164,39.865132897970355],[-85.93272059545812,39.865119516133646],[-85.93269578502475,39.86508863496202],[-85.93266628072557,39.86510922241129],[-85.93263409421739,39.86512003081971],[-85.93265219912824,39.86514730917621],[-85.93263945863542,39.86515297072053],[-85.93263074145612,39.86514010357365],[-85.93260995433626,39.86515297072053],[-85.93258447335062,39.865160691007496],[-85.93259587273893,39.86517458752185],[-85.93261062488851,39.86518848403337],[-85.93263744697866,39.865226056069],[-85.93267633900938,39.86527340709827],[-85.93279301510152,39.86521833578939]]]},"id":"1","properties":{"object":0}},{"type":"Feature","geometry":{"type":"Polygon","coordinates":[[[-85.93253466863895,39.865226727535],[-85.93251321096685,39.8651649652744],[-85.93247633059288,39.8651778324166],[-85.9324428029802,39.86517371493138],[-85.93242201586033,39.86517989115914],[-85.9324253686216,39.86519172892749],[-85.93239385266567,39.865196361097155],[-85.93243676800991,39.865300842174356],[-85.93255344410207,39.86527510793366],[-85.93253466863895,39.865226727535]]]},"id":"2","properties":{"object":0}},{"type":"Feature","geometry":{"type":"Polygon","coordinates":[[[-85.93232894102886,39.86519803377595],[-85.93228066126659,39.865197004404955],[-85.93224914531066,39.86519906314693],[-85.93222433487728,39.86519597503394],[-85.93218812505557,39.86519597503394],[-85.93218209008529,39.86527678061053],[-85.93223774592235,39.86527883935008],[-85.93227261463954,39.86530302953528],[-85.93230346004322,39.86527883935008],[-85.9323282704766,39.86527986871983],[-85.93232894102886,39.86519803377595]]]},"id":"3","properties":{"object":0}},{"type":"Feature","geometry":{"type":"Polygon","coordinates":[[[-85.93212576369598,39.86531589665161],[-85.93212643424823,39.86520060720332],[-85.932128445905,39.86518516663751],[-85.93209290663555,39.86518568132309],[-85.93205803791835,39.865182078523915],[-85.93198427717044,39.865175902296365],[-85.93197958330467,39.86526236943186],[-85.93198092440917,39.865311779174654],[-85.93212576369598,39.86531589665161]]]},"id":"4","properties":{"object":0}},{"type":"Feature","geometry":{"type":"Polygon","coordinates":[[[-85.93191139308631,39.865248853787506],[-85.93191541639982,39.86521282582056],[-85.93192145137012,39.865178856577195],[-85.93188390044389,39.86517679783466],[-85.93184366730867,39.86517473909202],[-85.93184232620416,39.86518760623242],[-85.93180209306894,39.8651891502891],[-85.93180544583021,39.865209223022816],[-85.93180276362119,39.865246795047064],[-85.93180343417345,39.86530083696369],[-85.93190736977277,39.86530289570253],[-85.93191139308631,39.865248853787506]]]},"id":"5","properties":{"object":0}},{"type":"Feature","geometry":{"type":"Polygon","coordinates":[[[-85.93173369673906,39.86528436705076],[-85.93173570839582,39.86523701602904],[-85.93173369673906,39.86518503280453],[-85.93167334703622,39.86518400343335],[-85.93159019855676,39.86518400343335],[-85.93158885745225,39.86528076425679],[-85.93173369673906,39.86528436705076]]]},"id":"6","properties":{"object":0}},{"type":"Feature","geometry":{"type":"Polygon","coordinates":[[[-85.93245783260235,39.86482782411415],[-85.93248398414025,39.86480620720358],[-85.93247325530419,39.86480672189201],[-85.93252153506646,39.86476297336201],[-85.93253226390252,39.86474392987553],[-85.93248733690152,39.86471768073685],[-85.9324397276915,39.86468422593771],[-85.93235590865979,39.86475885585185],[-85.93240150621304,39.864793339991664],[-85.93245783260235,39.86482782411415]]]},"id":"7","properties":{"object":0}},{"type":"Feature","geometry":{"type":"Polygon","coordinates":[[[-85.93226728169539,39.864778876925755],[-85.93222235469439,39.86477784754848],[-85.93219285039523,39.86475571593336],[-85.93216602830508,39.86477733285982],[-85.93212445406535,39.86477630348255],[-85.93211841909506,39.864874094256784],[-85.93214658228972,39.86487769707213],[-85.93217541603663,39.86487924113578],[-85.93217474548437,39.86487049144125],[-85.93226459948637,39.864872550193],[-85.93226728169539,39.864778876925755]]]},"id":"8","properties":{"object":0}},{"type":"Feature","geometry":{"type":"Polygon","coordinates":[[[-85.93206611601927,39.86486380049763],[-85.9320701393328,39.86476137751],[-85.93193267612078,39.86475828937732],[-85.93193066446402,39.86481490512059],[-85.9319266411505,39.864868432689455],[-85.93195279268839,39.86487306488094],[-85.93197894422629,39.86487152081715],[-85.93197894422629,39.8648612270576],[-85.93206611601927,39.86486380049763]]]},"id":"9","properties":{"object":0}},{"type":"Feature","geometry":{"type":"Polygon","coordinates":[[[-85.9318587639184,39.864761267941795],[-85.9317340411992,39.86475817980912],[-85.93172867678119,39.864844647471074],[-85.93175818108034,39.8648467062236],[-85.93176086328936,39.86485802936139],[-85.93178433261824,39.864862146865576],[-85.93178433261824,39.864872440624985],[-85.93181920133544,39.864875528752485],[-85.93185541115713,39.86487449937668],[-85.9318587639184,39.864761267941795]]]},"id":"10","properties":{"object":0}},{"type":"Feature","geometry":{"type":"Polygon","coordinates":[[[-85.93168579731963,39.864816334762715],[-85.93168579731963,39.86475611619912],[-85.9315456518986,39.864754057443854],[-85.93154632245086,39.864859053882626],[-85.93160600160144,39.864862656698776],[-85.93164757584117,39.86486574482674],[-85.93168244455836,39.864866774202675],[-85.93168579731963,39.864816334762715]]]},"id":"11","properties":{"object":0}},{"type":"Feature","geometry":{"type":"Polygon","coordinates":[[[-85.93147524391196,39.864811702567415],[-85.93147792612098,39.86478082125724],[-85.93147524391196,39.86475302806621],[-85.93135119174502,39.86474993993318],[-85.93134918008826,39.86483846635831],[-85.93139813040278,39.8648384663583],[-85.93139611874602,39.864862656698776],[-85.93143501077674,39.86486831826658],[-85.9314732322552,39.864866259514706],[-85.93147524391196,39.864811702567415]]]},"id":"12","properties":{"object":0}},{"type":"Feature","geometry":{"type":"Polygon","coordinates":[[[-85.93154021940063,39.865175138675056],[-85.93154021940063,39.86515403655973],[-85.9314637764437,39.865151463130594],[-85.93146645865272,39.865179256160204],[-85.93139806232284,39.8651777121033],[-85.9313913568003,39.86527138482604],[-85.93144298932384,39.865274987620516],[-85.93146578810047,39.86529454564437],[-85.93149462184739,39.8652739582507],[-85.93153887829612,39.8652739582507],[-85.93154021940063,39.865175138675056]]]},"id":"13","properties":{"object":0}},{"type":"Feature","geometry":{"type":"Polygon","coordinates":[[[-85.91052943353044,39.83831367575242],[-85.91043555621492,39.83812625658897],[-85.90973818187105,39.83832191394566],[-85.90954774503099,39.83841459355164],[-85.90496216913574,39.839700862364836],[-85.90481464763992,39.83970910039167],[-85.90465639730805,39.839667910247584],[-85.90454910894745,39.83958141086455],[-85.90449814697617,39.83950726844953],[-85.90439085861557,39.839280721685405],[-85.90422992607468,39.83934662627569],[-85.90428625246399,39.83940223322455],[-85.90427552362793,39.83945166158571],[-85.90433721443527,39.83958964890574],[-85.9043613543164,39.83966791024758],[-85.90432112118118,39.83979765911782],[-85.9042165150296,39.83989239623332],[-85.90411443680286,39.83993891249997],[-85.90371076434612,39.84005012539343],[-85.89958320581228,39.84119776096572],[-85.8994437309435,39.84121011773624],[-85.89932571374685,39.8411812852682],[-85.89923988305837,39.84112567975996],[-85.89916746341497,39.84104947954588],[-85.89912454807073,39.84097327924725],[-85.89903603517324,39.84076733207107],[-85.89886169158727,39.84082087839631],[-85.89898507320196,39.84107007420666],[-85.89900368866768,39.84118261246143],[-85.89898223099556,39.84127116928732],[-85.89890444693413,39.84136590436998],[-85.89884044044008,39.841410920531246],[-85.89868755452623,39.84145622853835],[-85.89754805633939,39.84178099008645],[-85.89211712496848,39.8433055894291],[-85.8921050550279,39.84328911423732],[-85.89203934090703,39.84330250033094],[-85.89196826236814,39.843298381533195],[-85.89191327708333,39.84327675784093],[-85.89180464761823,39.843225272831944],[-85.89176039116948,39.84318099569334],[-85.89171345251174,39.843098619545565],[-85.8916021408376,39.8428556093338],[-85.89106435793012,39.8430007977417],[-85.89122126715749,39.8433395694996],[-85.89126359760127,39.84343492667815],[-85.8912515276607,39.843488470923205],[-85.89122470557055,39.843529658775566],[-85.8911804491218,39.843542015126495],[-85.89118520351387,39.84355945213248],[-85.89081908198332,39.84366551069264],[-85.89027608870427,39.84381308465395],[-85.89045553545378,39.84417861668074],[-85.89044882993124,39.844129191722054],[-85.89046224097632,39.84406432140978],[-85.89048369864844,39.84401901512359],[-85.89056550602339,39.84392943215154],[-85.89062585572623,39.843893392991895],[-85.89069156984709,39.84387691794118],[-85.89089340252299,39.84381825764828],[-85.8913989989223,39.84367821943795],[-85.8915974823894,39.84362158625711],[-85.89165649098773,39.84361643778377],[-85.89170879406352,39.84361952686781],[-85.89176109713931,39.84364320984076],[-85.89181696668051,39.84370033130151],[-85.89186390533827,39.843775498881584],[-85.89199935689352,39.843737400255385],[-85.8919604648628,39.8436622326336],[-85.89195375934027,39.843608688524064],[-85.89197220801485,39.84357238771388],[-85.89199634789598,39.84353531867091],[-85.8920540153898,39.84349516051845],[-85.89215325712335,39.843458091433774],[-85.8922699332155,39.843432349002114],[-85.89459858625985,39.8427860351852],[-85.89658673432989,39.84222356661662],[-85.89664574292821,39.84220812088105],[-85.89668731716795,39.84220503173352],[-85.89674632576627,39.842220477469766],[-85.89676376012487,39.842245190640526],[-85.89681472209615,39.84223077462534],[-85.89680935767812,39.84220709116522],[-85.89682545093221,39.842172080817924],[-85.8968603196494,39.842148397337574],[-85.89692066935224,39.842132951585114],[-85.89876970546645,39.84161106895463],[-85.89897355335158,39.84155649352002],[-85.89903256194991,39.84154619626332],[-85.89912241595191,39.841538988182734],[-85.89919081228179,39.84157090967676],[-85.89923909204407,39.84161724730299],[-85.8992472718712,39.84163317585266],[-85.89941759214365,39.84158683823717],[-85.89941222772562,39.8415456492194],[-85.89941356883013,39.84150857908226],[-85.89942429766619,39.841468419744466],[-85.8994605074879,39.84143443874796],[-85.89951817498171,39.84140457664624],[-85.89958254799807,39.841383982085794],[-85.90072590682956,39.841061717002525],[-85.90127844188663,39.8409093163479],[-85.9026607349418,39.840522671874],[-85.90285921840892,39.84046603609049],[-85.9039492509852,39.84016345844314],[-85.90434085350138,39.840054305229486],[-85.9044347308169,39.84003988875432],[-85.90451519708735,39.84005224573322],[-85.90457152347666,39.840091376151676],[-85.90462784986597,39.840159339457095],[-85.90478341798884,39.84011814958306],[-85.90477268915278,39.84007284069309],[-85.90476375265676,39.840025979828916],[-85.9047704581793,39.839987879122276],[-85.90480398579199,39.83994668914539],[-85.90485360665876,39.839912707395875],[-85.9048777465399,39.839904469393446],[-85.90494614286978,39.83987975538028],[-85.90752055339212,39.83916272714893],[-85.91022735275365,39.83840285511005],[-85.91052943353044,39.83831367575242]]]},"id":"14","properties":{"object":0}},{"type":"Feature","geometry":{"type":"Polygon","coordinates":[[[-85.91125539617096,39.83670991080897],[-85.91113067345177,39.83644834155131],[-85.89103967995496,39.84208411508434],[-85.89117024890272,39.842343287824136],[-85.91125539617096,39.83670991080897]]]},"id":"15","properties":{"object":0}},{"type":"Feature","geometry":{"type":"Polygon","coordinates":[[[-85.91178831962009,39.82915893685398],[-85.9120779981937,39.82893029612515],[-85.91158708652308,39.828546812275285],[-85.91180166324428,39.828546812275285],[-85.91190626939586,39.828530333542815],[-85.91192236264995,39.828398503540726],[-85.9119143160229,39.82820487776652],[-85.91191968044093,39.828052448581644],[-85.91171315034678,39.82805450843775],[-85.9116908193024,39.828070054594065],[-85.91149770025332,39.828069024666235],[-85.91149099473078,39.828103012275875],[-85.91144011552196,39.828100916395826],[-85.91144959886914,39.827901874369324],[-85.91138656695729,39.827912173671805],[-85.91133426388151,39.82790187436933],[-85.91133560498601,39.828075932373714],[-85.91126050313359,39.828075932373714],[-85.91125379761107,39.8281047703437],[-85.91114919145947,39.82810889005273],[-85.91114919145947,39.82834989259978],[-85.9107951398695,39.82808108201212],[-85.91071601470357,39.82813875793563],[-85.91062616070157,39.82807387251826],[-85.91058056314832,39.82811403968863],[-85.91054971774464,39.82813051852094],[-85.91064493616467,39.828200553514236],[-85.91057519873029,39.82825925926246],[-85.91095069896733,39.82854301770304],[-85.9103975708384,39.8289770657245],[-85.91069220882558,39.82919808278243],[-85.91109454017781,39.828888078904384],[-85.9111602542987,39.82888807890439],[-85.9111602542987,39.82891176695775],[-85.91123133283757,39.828911766957745],[-85.91125681382321,39.82893545500288],[-85.91129302364492,39.828907647296866],[-85.91133996230268,39.82890970712733],[-85.9113439856162,39.829083762578264],[-85.91139092427396,39.82909097196614],[-85.91144725066327,39.82908582240345],[-85.91144725066327,39.82890352763576],[-85.91178831962009,39.82915893685398]]]},"id":"16","properties":{"object":0}}]}