{"type":"FeatureCollection","features":[{"type":"Feature","geometry":{"type":"Polygon","coordinates":[[[-86.50324001258407,39.61514466395839],[-86.50321855491195,39.61503308768729],[-86.50322928374801,39.61445040868292],[-86.5031541818956,39.614218988710455],[-86.5031562809388,39.61322398236294],[-86.50311336559456,39.61226522045465],[-86.50312409443062,39.61143869091082],[-86.50300607723396,39.611215526242134],[-86.50275605117052,39.61108341492138],[-86.50244491492478,39.61095943400247],[-86.50225179587572,39.61082718744426],[-86.5020694056627,39.61022380931672],[-86.50166170989243,39.60900050601629],[-86.50158660804003,39.60818220323027],[-86.50146859084336,39.608016888361874],[-86.50127547179429,39.60776891531919],[-86.50107162390916,39.60757880205169],[-86.50081413184373,39.6074052199168],[-86.49662290898881,39.60867238342581],[-86.49655853597245,39.60883769672915],[-86.49852191297136,39.610317233218964],[-86.49825591005904,39.613858838743425],[-86.49825591005904,39.61430515031961],[-86.49823445238692,39.61478451880741],[-86.49810570635421,39.615106850924015],[-86.49814862169845,39.61528041374972],[-86.49849194445235,39.615296943519944],[-86.49888891138656,39.61522255952284],[-86.49885672487838,39.61478451880741],[-86.49950045504195,39.61475145901825],[-86.49955409922225,39.61526388397556],[-86.5004445926152,39.61525561908697],[-86.50038021959884,39.61461095473831],[-86.50065916933639,39.614635749631965],[-86.50061625399215,39.615296943519944],[-86.50293368258103,39.61528867863533],[-86.50318044581039,39.615239089306876],[-86.50324001258407,39.61514466395839]]]},"id":"0","properties":{"object":2}},{"type":"Feature","geometry":{"type":"Polygon","coordinates":[[[-86.5126831988759,39.608600998454676],[-86.51269392771196,39.60827863604555],[-86.51256518167925,39.608138118628275],[-86.50911049646807,39.6081629158403],[-86.5078015784688,39.60815465010397],[-86.50728659433794,39.60815465010397],[-86.50669650835468,39.608187713043435],[-86.50598840517473,39.608121587148666],[-86.50546269220781,39.60815465010397],[-86.5033169249959,39.608187713043435],[-86.50339235452728,39.612913900915494],[-86.50339771894531,39.6129738233623],[-86.50343795208053,39.61301101657904],[-86.50482138814675,39.61299803527057],[-86.50491258325326,39.61299803527057],[-86.50491102075179,39.613437682331195],[-86.50521347382485,39.61344422780818],[-86.50528455236376,39.61346282429269],[-86.5053127155584,39.613485553322526],[-86.50532254845105,39.613545004373826],[-86.5053388717766,39.61370358033644],[-86.50534691840365,39.6137924298289],[-86.50537642270281,39.613831688870626],[-86.50538178712084,39.61392260446071],[-86.50573047429278,39.613965995950274],[-86.50582611583899,39.61399527380629],[-86.50604069256018,39.61410271923697],[-86.50613188766668,39.6142060319938],[-86.50638401531408,39.61424735705335],[-86.50653421901892,39.614354802092755],[-86.50672197364996,39.61452010182771],[-86.50693655037115,39.614631678925676],[-86.50692582153509,39.615301137736694],[-86.51263846592568,39.61530475056342],[-86.5126831988759,39.608600998454676]]]},"id":"1","properties":{"object":2}},{"type":"Feature","geometry":{"type":"Polygon","coordinates":[[[-86.51554456439655,39.61529005872085],[-86.51545873370809,39.6144387703365],[-86.51720753398578,39.61442637285551],[-86.51732555118244,39.61438504790281],[-86.51741138187091,39.6142652054005],[-86.51738489882733,39.61354545060203],[-86.51731516139294,39.61276852747697],[-86.51733355600204,39.61210000627179],[-86.51733355600204,39.61195536396879],[-86.51730136949386,39.611715670344154],[-86.51722090322342,39.611413985809406],[-86.51717367436197,39.611187186941265],[-86.51720049645212,39.610947490656976],[-86.51721122528818,39.61076978425536],[-86.51721122528818,39.61056728105561],[-86.51712003018167,39.610484626518115],[-86.5169431940082,39.61033823704567],[-86.51681981239352,39.610210122046716],[-86.5167608037952,39.610001418072926],[-86.51671008815777,39.60987312056578],[-86.51666985502254,39.609658216408405],[-86.51665726760875,39.609293919476535],[-86.51665458539973,39.60922779463829],[-86.51655450359694,39.60914231566364],[-86.51639625326506,39.60912578442382],[-86.51566765542763,39.608982395044094],[-86.51551208730477,39.60923449654486],[-86.51524118419427,39.60956718646466],[-86.51502660747308,39.60958578399062],[-86.51494345899361,39.60970770098162],[-86.5147798442437,39.60983581691032],[-86.51453576322335,39.61011891094434],[-86.51400642314877,39.61047825367258],[-86.51373820224728,39.61069315528455],[-86.51351289669003,39.61078407499648],[-86.51292281070677,39.61074274786951],[-86.51278285846348,39.610727197223284],[-86.5127522131373,39.61317822277656],[-86.51288095917002,39.613376585782596],[-86.51276294197336,39.6135832133095],[-86.51279512848154,39.613781575155066],[-86.51289213601136,39.61388241989073],[-86.51300478878998,39.61394337462987],[-86.51310268941903,39.61396197098032],[-86.51325155201936,39.613975401674715],[-86.51345405879998,39.61396300411072],[-86.5136565655806,39.6139671366323],[-86.51375044289613,39.613975401674715],[-86.51380145234938,39.61399586274688],[-86.51382559223052,39.61410950694634],[-86.51386994003737,39.61432667852496],[-86.51389139770949,39.614440322181316],[-86.51393699526274,39.614494044572105],[-86.51395308851683,39.614541568190745],[-86.51405769466841,39.6145560318943],[-86.51413011431181,39.61453123697209],[-86.51421326279127,39.61450437579633],[-86.5142374026724,39.61445685215216],[-86.51422935604536,39.61441139472286],[-86.51434200882399,39.614432057194435],[-86.51437687754118,39.614477514610165],[-86.5139664995619,39.61466141021462],[-86.51392739055214,39.615008687793946],[-86.5139568948513,39.615097535611284],[-86.51401858565865,39.61521324422569],[-86.51410173413811,39.615264899794674],[-86.51418220040856,39.61528556201145],[-86.51427875993309,39.615295893117576],[-86.51446651456413,39.61529795933858],[-86.51461940047798,39.61529382689645],[-86.51471637608503,39.61529295957687],[-86.51481695892309,39.61530742312341],[-86.51493631722425,39.61529192646628],[-86.51503287674879,39.61526919802955],[-86.51524726094786,39.61528708982463],[-86.51534918489043,39.61528605671396],[-86.51554456439655,39.61529005872085]]]},"id":"2","properties":{"object":2}},{"type":"Feature","geometry":{"type":"Polygon","coordinates":[[[-86.51282405344651,39.610387879291466],[-86.51303058354065,39.61036308287636],[-86.51326930014298,39.61031349001942],[-86.51339536396668,39.61028146128047],[-86.51353389468125,39.610226700284514],[-86.51363581862381,39.610172974582106],[-86.5137243315213,39.61010685058341],[-86.513850395345,39.61000559808804],[-86.51394427266052,39.60992914202401],[-86.51404509256362,39.60977055509474],[-86.51409873674392,39.60956804897227],[-86.51432184141288,39.60937234898957],[-86.51453105371604,39.60930622422621],[-86.51475099485528,39.60910371674565],[-86.51571136395157,39.608136700556585],[-86.5156739860931,39.60800197037391],[-86.51570617260128,39.60784905373631],[-86.51573835910946,39.607700269656604],[-86.51573835910946,39.60755148525722],[-86.5157812744537,39.60738616888293],[-86.51582955421597,39.607253915499285],[-86.515834918634,39.607113396002404],[-86.51573835910946,39.607051402016054],[-86.51556133331448,39.60705553495021],[-86.5144830852905,39.60706380081776],[-86.5129005819717,39.607030737341596],[-86.51276110710293,39.60712992772272],[-86.51275037826687,39.607386168882925],[-86.51276647152096,39.60758041558214],[-86.51282405344651,39.610387879291466]]]},"id":"3","properties":{"object":2}},{"type":"Feature","geometry":{"type":"Polygon","coordinates":[[[-86.52014190626237,39.61531935008214],[-86.52017409277055,39.61497222419077],[-86.52031893205735,39.61497222419078],[-86.52051741552445,39.61497222419078],[-86.52096534442994,39.61491436970632],[-86.5210672683725,39.61486064764173],[-86.52116651010606,39.61479039564823],[-86.52129583521314,39.61468850778557],[-86.5213789836926,39.61463685178648],[-86.52140580578275,39.61451907596439],[-86.52139478790177,39.61434409746027],[-86.52123846345629,39.61420819222308],[-86.5211499505588,39.61415446961044],[-86.52113922172273,39.61410487946947],[-86.52106411987032,39.61406768684043],[-86.5210238867351,39.614024295414616],[-86.52094073825563,39.61402222915556],[-86.52085490756716,39.61400363282135],[-86.5207556658336,39.614005699080934],[-86.52068592839922,39.614051156776654],[-86.5205571823665,39.61406355432488],[-86.5204847627231,39.614042891743296],[-86.52048208051409,39.61399950030195],[-86.52047671609606,39.613966440137915],[-86.5204096608707,39.61397883770127],[-86.5203238301822,39.61398090396162],[-86.52021654182161,39.613966440137915],[-86.52014948659624,39.613966440137915],[-86.5200341516086,39.613958175094425],[-86.51991076999391,39.613951976311164],[-86.51979275279726,39.613939578743],[-86.51970692210878,39.61394577752736],[-86.51959382985868,39.61395651462439],[-86.51953079794683,39.613946183318404],[-86.51947313045301,39.61395238210218],[-86.51940607522764,39.6139575477549],[-86.51935108994283,39.61395031584099],[-86.5192545304183,39.61396064714636],[-86.51908555125036,39.6139823428826],[-86.51899167393483,39.61401746929833],[-86.51892910124317,39.6140841870987],[-86.51888886810795,39.61415030729853],[-86.51866222144619,39.61428874626239],[-86.51861528278843,39.61430837564531],[-86.518537498727,39.61430630939473],[-86.51850799442784,39.614350733768404],[-86.51845325696603,39.61443105807221],[-86.51846130359307,39.614499244185616],[-86.51838083732262,39.614567430231844],[-86.51830305326119,39.614567430231844],[-86.5182494090809,39.61456123150314],[-86.51827354896204,39.61461908628275],[-86.5182869600071,39.614660411095734],[-86.51818235385552,39.61470586836151],[-86.51811347076791,39.61473760571625],[-86.51805982658762,39.61475826809045],[-86.51800618240732,39.614814056469946],[-86.5179310805549,39.614840917525534],[-86.5179310805549,39.614892573372366],[-86.51786134312052,39.614929765558216],[-86.51782647440332,39.61497109018572],[-86.51777551243204,39.61500208364015],[-86.51772455046076,39.615068202963215],[-86.51767627069849,39.61510746128144],[-86.51761726210016,39.61513018977127],[-86.51756093571085,39.61517151427912],[-86.51756143767764,39.61522081689711],[-86.51765531499316,39.615259042017684],[-86.51767923506816,39.6152917172306],[-86.51776372465213,39.61530928010846],[-86.51785357865413,39.61530618077738],[-86.51799439462741,39.615312379439374],[-86.51971607388231,39.61530994639945],[-86.51985286654207,39.615320277501894],[-86.51998831809732,39.615320277501894],[-86.5200942653534,39.61531924439173],[-86.52014190626237,39.61531935008214]]]},"id":"4","properties":{"object":2}},{"type":"Feature","geometry":{"type":"Polygon","coordinates":[[[-86.52147574140452,39.61386499772002],[-86.52156157209299,39.61382780496208],[-86.52161521627329,39.613749286851956],[-86.5215991230192,39.61354265982077],[-86.52159375860117,39.61330710425291],[-86.5215991230192,39.613203790154486],[-86.52160208206512,39.61291803726606],[-86.52161281090117,39.612765131486285],[-86.52161281090117,39.61264528617955],[-86.52160208206512,39.61248824718769],[-86.52160208206512,39.61236426878462],[-86.52158598881103,39.61222375965939],[-86.52155820045233,39.61216938623573],[-86.52152601394415,39.61213012625128],[-86.52148578080893,39.61210739677642],[-86.52142945441962,39.61208156781866],[-86.52137849244833,39.612075368867366],[-86.5212470642066,39.61207123623285],[-86.52114111695052,39.61207640202595],[-86.5210847905612,39.61206503728063],[-86.52105528286616,39.61201183060747],[-86.52104187182108,39.61194467520454],[-86.52102846077601,39.61186408863504],[-86.52096666833836,39.61164398593967],[-86.5209559395023,39.61158716183952],[-86.52093448183018,39.61151380702304],[-86.52089672799059,39.61144192663202],[-86.52083503718325,39.6113758038453],[-86.52076261753984,39.6113499746146],[-86.52071031446405,39.61134274242827],[-86.52006436050593,39.61133996552228],[-86.51952791870295,39.61134203186142],[-86.51916313827692,39.61134616453944],[-86.51887614191233,39.61134203186142],[-86.51866156519114,39.61134823087836],[-86.51841211975275,39.61136682792593],[-86.51817072094141,39.61136269524911],[-86.51812244117914,39.611418486365125],[-86.51813853443323,39.611517670460366],[-86.51820025670709,39.61178376616313],[-86.51825926530542,39.611916010894085],[-86.51831827390374,39.61204205641817],[-86.51837460029306,39.61212677541195],[-86.51842824447336,39.61213297435861],[-86.51846579539956,39.61217636696995],[-86.51843806762336,39.61219953518996],[-86.51844879645942,39.61227288927982],[-86.51849768980114,39.612456538552586],[-86.518563403922,39.612477201607646],[-86.51858620269863,39.612530925521966],[-86.51857279165355,39.61255468800919],[-86.51856282754918,39.6125975998995],[-86.51858830853482,39.61266268836944],[-86.51863077690615,39.61280765954596],[-86.51873806526675,39.61298122813641],[-86.51879170944704,39.613084542566995],[-86.51889899780764,39.61325397789934],[-86.51889899780764,39.613386219821834],[-86.51894191315188,39.61353912422978],[-86.51902774384035,39.613621775120485],[-86.51907390178394,39.61362365510168],[-86.51917046130848,39.61362468823716],[-86.51923483432483,39.61366394737402],[-86.51920801223469,39.61369700768254],[-86.5191758257265,39.61371560409915],[-86.51918521345806,39.61375796258495],[-86.51919277686159,39.613803766868024],[-86.51924105662386,39.613865754808344],[-86.51936712044755,39.61388021865309],[-86.5195200063614,39.61387815238973],[-86.51971044320146,39.613886417442764],[-86.51981236714403,39.613890549968914],[-86.51990624445955,39.613882284916365],[-86.51999743956605,39.613867821072056],[-86.5201145763422,39.61389366788588],[-86.52031037760028,39.61388953535991],[-86.5205839629198,39.6138854028337],[-86.5207100267435,39.61388540283371],[-86.52091119241962,39.61388746909686],[-86.52101043415317,39.61388746909686],[-86.52110431146869,39.61388746909686],[-86.52116332006702,39.613862673935174],[-86.52123842191945,39.613879204043954],[-86.52134839248905,39.613879204043954],[-86.52147574140452,39.61386499772002]]]},"id":"5","properties":{"object":2}},{"type":"Feature","geometry":{"type":"Polygon","coordinates":[[[-86.51838193971052,39.613833027279945],[-86.5185401900424,39.613802033302086],[-86.51860456305876,39.6137441778396],[-86.51865552503004,39.61367392471302],[-86.51867430049315,39.61360780405816],[-86.51867430049315,39.61350862295745],[-86.51863943177595,39.61339704404931],[-86.51858846980467,39.61329786264665],[-86.51848386365309,39.61321107880275],[-86.51839009667653,39.61308885228044],[-86.51835254575032,39.61296074237157],[-86.51835791016835,39.612822300751894],[-86.51834718133229,39.61272105222788],[-86.51828785886137,39.61257121385253],[-86.51825701345771,39.61254021930973],[-86.518220803636,39.612528854640544],[-86.51818325270979,39.612537119854686],[-86.51813899626104,39.61255571658287],[-86.51807059993116,39.61256294864248],[-86.51805182446806,39.612532987247754],[-86.51804780115454,39.61248856170753],[-86.5180236612734,39.61247513072466],[-86.51798879255621,39.612475130724654],[-86.5179874514517,39.61252988779238],[-86.5179700170931,39.6125484845225],[-86.51793514837591,39.61253402039949],[-86.51791369070381,39.61256604809635],[-86.51788150419561,39.61254435191623],[-86.51787479867308,39.6125164568175],[-86.51781579007475,39.612480296487604],[-86.51777555693953,39.61250199268783],[-86.51780103792517,39.61255158397704],[-86.51782249559729,39.61259497632596],[-86.51779969682066,39.61261873879123],[-86.51773800601332,39.61258051221266],[-86.51773666490881,39.61255261712851],[-86.51770581950514,39.61253815300637],[-86.51768838514654,39.6125133573614],[-86.51764815201132,39.61251542366548],[-86.51758914341299,39.61251542366548],[-86.51754220475523,39.61254021930973],[-86.5175368403372,39.61261047358683],[-86.51751270045607,39.61266729684707],[-86.51750867714254,39.61272825265617],[-86.51751001824705,39.61278404267169],[-86.51751404156057,39.612836733200645],[-86.51753778663607,39.61296884908202],[-86.51751183374981,39.61309932606398],[-86.51752524479488,39.61314168492691],[-86.51750667814282,39.613280918111776],[-86.51751472476987,39.613394563484945],[-86.5175200891879,39.61349581102389],[-86.51750667814282,39.61361772112938],[-86.51750399593381,39.61371070326892],[-86.51751397913995,39.6137526035212],[-86.517524707976,39.613810458976644],[-86.51759980982841,39.61384351921518],[-86.5176695472628,39.61386211559241],[-86.51775269574226,39.61385385053647],[-86.51795654362739,39.61383938668621],[-86.51806919640602,39.61385385053647],[-86.518246222201,39.613845585479574],[-86.51838193971052,39.613833027279945]]]},"id":"6","properties":{"object":2}},{"type":"Feature","geometry":{"type":"Polygon","coordinates":[[[-86.52198256602635,39.603232544044474],[-86.5218645488297,39.60299282022153],[-86.52196110835423,39.60263736612902],[-86.52198256602635,39.60233150882164],[-86.52192892184605,39.60180245515487],[-86.52038396945348,39.60178592216263],[-86.52033032527318,39.60119899838208],[-86.5202444945847,39.60100060048632],[-86.51980461230626,39.60100886707666],[-86.51983679881444,39.60081873524926],[-86.51960076442113,39.60081873524926],[-86.51835621943822,39.60081873524926],[-86.51757301440587,39.60106673318138],[-86.5172726069962,39.60119899838208],[-86.51739089608152,39.60262230081398],[-86.51752525505961,39.60381788858773],[-86.51753598389567,39.604363459238414],[-86.51756817040385,39.60528100018493],[-86.51767545876444,39.60548765187379],[-86.52014309105815,39.605586844465364],[-86.52194553551615,39.605644706744854],[-86.52198256602635,39.603232544044474]]]},"id":"7","properties":{"object":2}},{"type":"Feature","geometry":{"type":"Polygon","coordinates":[[[-86.52199547958567,39.608050034355664],[-86.52201693725777,39.60798184189011],[-86.52201777327676,39.607756448132484],[-86.52199902778322,39.60573566640682],[-86.51759802189204,39.60557058747605],[-86.51749341574046,39.60564498184395],[-86.51742367830607,39.605709043596704],[-86.51747464027736,39.60575657324597],[-86.51742636051509,39.605789637330545],[-86.51742099609706,39.605841299931086],[-86.51739365799381,39.605898422367325],[-86.51739097578479,39.60595628438644],[-86.51743657333805,39.60597281638302],[-86.51743925554706,39.606012079859084],[-86.51737756473972,39.60603274483754],[-86.51737756473972,39.606134003142856],[-86.51743925554706,39.60614020262612],[-86.51744998438312,39.60621459638204],[-86.5174070690389,39.606276591117606],[-86.5174070690389,39.60634065228603],[-86.51737756473972,39.60640264690875],[-86.5174097512479,39.6066919544141],[-86.51739902241184,39.60694819719511],[-86.51744193775608,39.6073036291601],[-86.5174633954282,39.60748547736692],[-86.51751703960849,39.60765079350409],[-86.51752776844455,39.607807843468834],[-86.51744193775608,39.607981424594364],[-86.51742048008396,39.608146739547436],[-86.52016603409331,39.6080811372194],[-86.52086877285521,39.60807700434648],[-86.52100824772398,39.60804394135414],[-86.52128719746153,39.6080232769759],[-86.5214803165106,39.6080728714733],[-86.52190946995299,39.60806460572623],[-86.52199547958567,39.608050034355664]]]},"id":"8","properties":{"object":2}},{"type":"Feature","geometry":{"type":"Polygon","coordinates":[[[-86.52057840451378,39.59877862039358],[-86.52060268783133,39.59774163834578],[-86.52040152215521,39.59748949500247],[-86.52019443816432,39.597309638114844],[-86.52008446759471,39.59726210266812],[-86.5199369460989,39.5972249009914],[-86.51979747123013,39.59722903451203],[-86.51953729695568,39.59722903451203],[-86.51908936805019,39.59722696775175],[-86.51772412366161,39.59722076747055],[-86.51514650967415,39.59722766969841],[-86.5150445857316,39.5973000062708],[-86.51499630596932,39.59739094356888],[-86.51498289492424,39.59752734929213],[-86.51510379942638,39.59908664646796],[-86.51514991219021,39.60020134468456],[-86.51517540127674,39.60051373902516],[-86.51519820005336,39.60059847212499],[-86.51516467244068,39.60062017204851],[-86.51517540127674,39.60064290529443],[-86.51530951172748,39.60063773864831],[-86.51557907373348,39.60063050534304],[-86.51580437929073,39.60061913871898],[-86.51593312532344,39.600603638774075],[-86.51609942228237,39.600568505552765],[-86.51626035482326,39.600520972342615],[-86.51667475611606,39.60036080585086],[-86.51988539480399,39.599137951046885],[-86.52047667231058,39.598841771114415],[-86.52057840451378,39.59877862039358]]]},"id":"9","properties":{"object":2}},{"type":"Feature","geometry":{"type":"Polygon","coordinates":[[[-86.52165748312557,39.59711242286895],[-86.52170710399234,39.59702768550427],[-86.52169503405177,39.59686647754863],[-86.52168908604474,39.59680237995759],[-86.52167969831319,39.59667320652591],[-86.52168372162672,39.59659570235128],[-86.52172395476194,39.596480996013675],[-86.52174675353857,39.59640762519364],[-86.52174407132955,39.59627018387086],[-86.5217318643511,39.59609075824382],[-86.52172566309396,39.59582338094992],[-86.52172448478304,39.59555966868824],[-86.52172850809656,39.59540982479691],[-86.52173266973669,39.595049004291916],[-86.52173104397319,39.594416948143795],[-86.52172433845065,39.59414309075206],[-86.52172162419477,39.59360948113723],[-86.52170418983617,39.59358777901727],[-86.52117177134672,39.59359087932052],[-86.51097610741535,39.59358029950817],[-86.51093855648914,39.59367950915475],[-86.51095464974323,39.59382832335817],[-86.5109868362514,39.593927532649516],[-86.51112631112018,39.59401020695046],[-86.51126578598895,39.59408048002866],[-86.51152864247241,39.594171421553476],[-86.51189878731647,39.594303699921866],[-86.51218846589008,39.59440290853242],[-86.51238694935718,39.594452512784414],[-86.51255861073413,39.594489715950104],[-86.51275709420123,39.594547587501445],[-86.51300922184863,39.59460545900444],[-86.51326134949603,39.59466333045909],[-86.51359394341388,39.5947460038819],[-86.51374414711871,39.5947460038819],[-86.51382997780719,39.59483281086962],[-86.51407674103656,39.5950725629373],[-86.51426986008563,39.59521310686703],[-86.51443615704456,39.595308180540144],[-86.51455417424121,39.595349516879075],[-86.51467219143787,39.59536191777593],[-86.5148009374706,39.59531231417515],[-86.51481128205624,39.5954082907674],[-86.51481932868327,39.595462027925535],[-86.51484346856441,39.59554263358454],[-86.51483542193736,39.59564804084328],[-86.51482737531032,39.595798917620805],[-86.51483273972835,39.59590019088984],[-86.51483542193736,39.5960179983839],[-86.51483273972835,39.59615440681092],[-86.51481664647426,39.59631974999866],[-86.51482790121229,39.596486821756585],[-86.51485338219794,39.59670693373194],[-86.51486978369331,39.59689973997045],[-86.51487783032036,39.596988611026646],[-86.51491538124657,39.597091949320685],[-86.51495293217278,39.59715395222313],[-86.51503876286125,39.59715395222313],[-86.51530698376274,39.597145685172684],[-86.51781315552384,39.597151675886934],[-86.52102159049522,39.59717594453567],[-86.52113424327385,39.59715527691425],[-86.52149365928184,39.597126342233906],[-86.52165748312557,39.59711242286895]]]},"id":"10","properties":{"object":2}},{"type":"Feature","geometry":{"type":"Polygon","coordinates":[[[-86.51465953299916,39.59593295862071],[-86.51424915286454,39.59542917422895],[-86.51404128221563,39.595283722146064],[-86.51386023471274,39.59518580678128],[-86.5138548702947,39.59515583786719],[-86.51382268378651,39.595151704222836],[-86.51379317948735,39.595130002586004],[-86.51376099297917,39.59510830094237],[-86.5137475819341,39.59508453246776],[-86.51377306291974,39.595055596922435],[-86.51373551199353,39.59502356112596],[-86.51369661996281,39.594998759208885],[-86.51366577455914,39.59501942747375],[-86.51363492915547,39.595027694777954],[-86.51360944816983,39.59500289286235],[-86.51356921503461,39.59496672338614],[-86.5135504395715,39.59499152531472],[-86.5135128886453,39.59498325800618],[-86.51352495858586,39.59494295486292],[-86.51350081870473,39.594933654134245],[-86.51350215980924,39.59489955145168],[-86.5134725223592,39.594880242651115],[-86.51341217265636,39.594907111440214],[-86.51341083155187,39.594876108990356],[-86.51337328062564,39.5948750755751],[-86.51330086098224,39.594907111440214],[-86.51326331005603,39.594891610217005],[-86.51327806220561,39.59484717335793],[-86.5132566045335,39.59482650504169],[-86.51321368918926,39.594837872616395],[-86.5131855259946,39.594823404793715],[-86.51313858733684,39.5948327055372],[-86.51311578856021,39.594800669637685],[-86.51308360205203,39.59480893696801],[-86.51306348548442,39.59478930205688],[-86.51302191124469,39.594785168390636],[-86.51299240694553,39.59480376988666],[-86.51298033700496,39.59477793447418],[-86.51292669282466,39.59475623272025],[-86.51289048300296,39.59476243322209],[-86.51287304864437,39.59479550255572],[-86.51284756765874,39.594830638705425],[-86.51280062900096,39.59483167212134],[-86.51278051243335,39.59478930205688],[-86.51277514801532,39.594741764880524],[-86.512716139417,39.594696294507436],[-86.51267322407276,39.59471799628013],[-86.51263835535556,39.59471386260965],[-86.51260750995189,39.59475209905209],[-86.51254984245807,39.594737631211494],[-86.51251229153186,39.59470456185021],[-86.51251497374088,39.59475623272025],[-86.51246267066509,39.594744865132164],[-86.512446577411,39.594678726400744],[-86.51249351606876,39.5946074205102],[-86.51243987188846,39.594622921797],[-86.5123929332307,39.59463842308031],[-86.51226310370353,39.5945926790459],[-86.51221884725479,39.594555475935515],[-86.51217459080604,39.59455444251548],[-86.51208071349052,39.59459784614297],[-86.51202572820573,39.594582344850586],[-86.5119694018164,39.59449553754897],[-86.51167033551124,39.594404596449664],[-86.51157645819572,39.594374627197595],[-86.51147185204414,39.59434569135572],[-86.51142491338638,39.59437979431095],[-86.51138602135566,39.59437152692941],[-86.51138736246017,39.594317788925316],[-86.51134578822044,39.59430642126527],[-86.51128141520408,39.594304354417794],[-86.51124118206886,39.59436946008388],[-86.51119156120208,39.594424231469844],[-86.51108963725952,39.59440562987192],[-86.51110170720008,39.59431055496004],[-86.51106281516937,39.59429298675554],[-86.51090965936919,39.59440047184346],[-86.51093111704131,39.5944624771551],[-86.51087210844298,39.59451001452308],[-86.51090697716018,39.59455341817841],[-86.5109445280864,39.5946071559997],[-86.510874790652,39.59462782438141],[-86.510874790652,39.594704297340115],[-86.51090161274215,39.594753901376286],[-86.51088015507003,39.59481590637156],[-86.51087747286101,39.594859309835215],[-86.51093379925032,39.59489651278241],[-86.51086674402495,39.5949254483942],[-86.510874790652,39.59502465611433],[-86.51088908608149,39.595387290611974],[-86.51092931921671,39.59542242646152],[-86.51093200142574,39.595465829545134],[-86.5108729928274,39.59550303216661],[-86.51088908608149,39.595567103301185],[-86.51093200142574,39.59562497395247],[-86.51092127258967,39.59568491136172],[-86.51086762840937,39.59572624747583],[-86.5108717198243,39.59611532798563],[-86.51083953331612,39.59749593227108],[-86.51091411486517,39.599412522515685],[-86.51091143265616,39.59963365853795],[-86.51095971241843,39.59977212652885],[-86.51103984065699,39.59990127335781],[-86.51120815604942,39.60008899355957],[-86.51156558563666,39.60051580734893],[-86.51175065805869,39.60069560672468],[-86.51244266798453,39.60071213997718],[-86.51246412565665,39.60032567416792],[-86.5126344418063,39.60031147237708],[-86.51284298164616,39.60032503749684],[-86.51290970101253,39.60023468592103],[-86.51306107752609,39.60031557661421],[-86.51337816522116,39.6003229549414],[-86.5134079635131,39.60027290998492],[-86.51348991776186,39.600283020743504],[-86.51353625946393,39.60030874267206],[-86.51355674825004,39.60028647022701],[-86.51364477667306,39.60031460064126],[-86.51365124016142,39.60036173242676],[-86.51358205238482,39.60043489832944],[-86.51360378499294,39.600471481438206],[-86.51362538024897,39.600508372949655],[-86.51361203810663,39.60056195193734],[-86.51360536716217,39.60060114142842],[-86.51359666736907,39.60066413602032],[-86.51362316303668,39.600697699982646],[-86.5143175289908,39.600710596262374],[-86.5149263935323,39.60067390682481],[-86.51465953299916,39.59593295862071]]]},"id":"11","properties":{"object":2}},{"type":"Feature","geometry":{"type":"Polygon","coordinates":[[[-86.5107355505603,39.59825693816598],[-86.51069263521606,39.5973475711822],[-86.51075700823242,39.59660353476975],[-86.51071409288818,39.59539652536861],[-86.51071409288818,39.59460286389014],[-86.51067117754394,39.594024146662754],[-86.50979141298706,39.59359423930704],[-86.5077100187915,39.593544634440455],[-86.50773147646362,39.59308165397288],[-86.50419096056396,39.59303204873927],[-86.50416950289186,39.593958007243245],[-86.50301078859741,39.593958007243245],[-86.50296147918203,39.59942970521826],[-86.5029722080181,39.60062011106807],[-86.50309558963278,39.60070691069426],[-86.5046673641155,39.60069451075431],[-86.50476392364004,39.60033077819505],[-86.50471564387779,39.600153044545195],[-86.50469955062368,39.5998967766192],[-86.5047210082958,39.5996281076141],[-86.50490339850882,39.599570240307386],[-86.50502141570547,39.59963224099131],[-86.50529500102499,39.59963224099131],[-86.50546666240194,39.599599173966766],[-86.50556858634451,39.59970664173878],[-86.50548812007406,39.599822376075984],[-86.50550957774618,39.59995257697416],[-86.50548812007406,39.600117911095296],[-86.50546666240194,39.60021091136499],[-86.50547202681997,39.60040931152296],[-86.50539156054953,39.60069864406786],[-86.50773462285711,39.600707560236735],[-86.50874849786474,39.600703426923694],[-86.50873240461065,39.60050916093314],[-86.5087380598547,39.599857113955686],[-86.50940861210843,39.599869514045544],[-86.50971438393613,39.59977444663316],[-86.51065852150937,39.59981164694052],[-86.5107355505603,39.59825693816598]]]},"id":"12","properties":{"object":2}},{"type":"Feature","geometry":{"type":"Polygon","coordinates":[[[-86.50285988235454,39.59641573192314],[-86.50147586250286,39.59640746478458],[-86.50145440483074,39.59361311542373],[-86.5028706111906,39.593604847950665],[-86.50289206886272,39.59301785484267],[-86.49363363212836,39.593027886801664],[-86.49365508980048,39.59321804001571],[-86.49362826771033,39.593329651441756],[-86.49361753887428,39.59346193141753],[-86.49373555607093,39.593495001372],[-86.49368191189063,39.59359834487798],[-86.49225281994696,39.59358464848378],[-86.49197923462744,39.59359291595925],[-86.4913784198081,39.593597049696605],[-86.49119066517706,39.59351850864463],[-86.4912174872672,39.59301419029466],[-86.48811507716267,39.59302912712738],[-86.48812848820775,39.59320274529698],[-86.48814458146184,39.59337636303143],[-86.48817103334582,39.59350236678986],[-86.48828100391545,39.59352303550119],[-86.48852508493579,39.593487898688274],[-86.48872088619387,39.593463096221356],[-86.48889522977984,39.593498233046844],[-86.48909562387348,39.593624688535684],[-86.48924046316029,39.59377763658345],[-86.48940676011921,39.59395745345097],[-86.48965136098741,39.594118320943494],[-86.48983375120042,39.594167925399276],[-86.49045334148286,39.594254733111434],[-86.4908208041179,39.59431673855349],[-86.49126068639634,39.5943663428672],[-86.49164400379235,39.59438637464721],[-86.49176738540704,39.59441634389419],[-86.49185589830452,39.59445768076529],[-86.4919792799192,39.59456102283514],[-86.49213216583306,39.594736704000084],[-86.49230919162804,39.594887582762595],[-86.49244866649681,39.594933053010124],[-86.49259248996948,39.59501761325407],[-86.49272928262924,39.595097186018315],[-86.49275342251038,39.59513852248315],[-86.49280572558617,39.59518192574464],[-86.49299616242622,39.59534313762078],[-86.49316959800852,39.59549570727554],[-86.49329700293673,39.5955659788468],[-86.49341636123789,39.59562281609494],[-86.4935612005247,39.59565588501781],[-86.4937932239497,39.595655477675216],[-86.49400377735736,39.59564927725333],[-86.49419287309291,39.59563584300403],[-86.49429345593097,39.59561620832727],[-86.49445841178539,39.59559037321781],[-86.49459520444516,39.59559347343145],[-86.49483668156672,39.59564706215132],[-86.49504857607891,39.5957359348147],[-86.49533825465251,39.59588061099961],[-86.49566276783717,39.59608017112056],[-86.49580492491496,39.5961773103953],[-86.49584247584117,39.59627031595624],[-86.49593569977048,39.59646599275841],[-86.49602153045896,39.596621001311206],[-86.49610736114744,39.59679874402481],[-86.49616100532774,39.596897949062004],[-86.49622269613508,39.59702195515867],[-86.49623610718015,39.59711909311266],[-86.49623074276212,39.59719969684343],[-86.49623342497114,39.59731750212732],[-86.49624274223696,39.59754848657561],[-86.49627358764063,39.597634256677274],[-86.4963218674029,39.59772106004549],[-86.49640881015209,39.597825147577396],[-86.49648793531803,39.59792745125369],[-86.4965543837633,39.59806320552489],[-86.49660266352556,39.59817274241228],[-86.49672336293123,39.59833394732771],[-86.49687624884508,39.59847448464015],[-86.49707207449245,39.5986638018613],[-86.49712169535923,39.598685502391],[-86.49777559376217,39.59897374476791],[-86.49785874224163,39.59901301221236],[-86.49793518519856,39.599070879984666],[-86.49801492015908,39.5991960392022],[-86.49804844777175,39.599378942048375],[-86.49806856433936,39.59948124342969],[-86.4981229405674,39.599612986149296],[-86.4981940191063,39.59974008741322],[-86.49824694706935,39.59988395771937],[-86.49827913357753,39.59990875788728],[-86.4982925446226,39.59993665806552],[-86.4982737691595,39.599988325032676],[-86.49828181578654,39.60004205863759],[-86.4982912035181,39.60007512545066],[-86.49827779247302,39.60012059229287],[-86.49824426486033,39.600149525722365],[-86.498161192242,39.60037403473843],[-86.49813168794283,39.600455668013296],[-86.49814241677889,39.60055280115172],[-86.4981263235248,39.60059516769069],[-86.49813034683832,39.60066130077293],[-86.49817057997355,39.600675767376224],[-86.49830334931978,39.60068196734815],[-86.49838918000827,39.60070780055854],[-86.4987200388493,39.60071332984217],[-86.49874149652142,39.60068852996236],[-86.49888365359922,39.60068129666242],[-86.49890001207042,39.60060264394995],[-86.49887453108478,39.6005664773978],[-86.49888660102535,39.6004001110147],[-86.49887587218929,39.60032674434608],[-86.49884368568111,39.60024097757861],[-86.49882458218747,39.60019049389302],[-86.49883531102353,39.600118160339385],[-86.49887152084523,39.60006442679352],[-86.49900294908696,39.60006236011782],[-86.49903111228161,39.600031359975304],[-86.49898953804188,39.60000139315771],[-86.49909012087994,39.599967292970156],[-86.49920009144955,39.59999725980254],[-86.49932615527325,39.60005926010422],[-86.49946697124653,39.60008096019668],[-86.49996445847644,39.600082139678214],[-86.50017367077959,39.60006147292397],[-86.50023536158693,39.600080073003056],[-86.50037751866472,39.60006560627532],[-86.50043920947206,39.60010693977515],[-86.50046603156221,39.600152406596486],[-86.5004633493532,39.60023507346784],[-86.50046871377123,39.60033220691566],[-86.50045594984202,39.60069476961459],[-86.50139968966532,39.60069250296355],[-86.50201257442522,39.600687336321094],[-86.50219496463824,39.600682169678244],[-86.50243368124056,39.60069560294882],[-86.50283198927927,39.6006976696056],[-86.50284674142885,39.60068113634964],[-86.50285988235454,39.59641573192314]]]},"id":"13","properties":{"object":2}},{"type":"Feature","geometry":{"type":"Polygon","coordinates":[[[-86.4775379995426,39.599282342295304],[-86.47736633816564,39.597595895395784],[-86.47929752865636,39.59767856531854],[-86.47938335934484,39.59352841334761],[-86.47507036724889,39.59354494831098],[-86.47509182492101,39.59526456294974],[-86.4684614042362,39.59514882099666],[-86.4684614042362,39.59541337374811],[-86.47097195187413,39.59542990826153],[-86.47105778256261,39.595843269814324],[-86.4713796476444,39.59615742294469],[-86.47113288441503,39.59636823543071],[-86.47076273957097,39.59657078015608],[-86.47065813321996,39.596475708435946],[-86.47028530636632,39.59645504038552],[-86.47014379802502,39.5964073988459],[-86.47008812066078,39.59625228437354],[-86.47003041055488,39.596057795379615],[-86.46981843151143,39.596032572542356],[-86.46933010184617,39.596039995634236],[-86.46908258488078,39.596017355089266],[-86.4690607503864,39.59597296579055],[-86.46896275561197,39.59597943625985],[-86.46888621844649,39.59602310901451],[-86.46871168637493,39.59600711447091],[-86.46870058071897,39.59593895665986],[-86.46862394937601,39.5959121115196],[-86.46858218671396,39.59599480668194],[-86.46842050050965,39.59602383464664],[-86.46830446818414,39.59841170266054],[-86.46828533641239,39.59896803484911],[-86.46827693250884,39.599545034055744],[-86.46827389272076,39.6001240998565],[-86.4682670084344,39.600417766104584],[-86.46824747304933,39.60056459922897],[-86.46825648082641,39.60063181581844],[-86.46828694631627,39.60070729903917],[-86.47298346253116,39.60069389747879],[-86.47585345070829,39.60070011021581],[-86.476057346154,39.60051412586936],[-86.4775379995426,39.599282342295304]]]},"id":"14","properties":{"object":2}},{"type":"Feature","geometry":{"type":"Polygon","coordinates":[[[-86.52215228766066,39.62990956559547],[-86.52215602171108,39.62780930317181],[-86.5219789959161,39.62780517147671],[-86.52167858850643,39.62789606871215],[-86.5213299013345,39.62802828265963],[-86.52059497606442,39.62835468476069],[-86.52049305212185,39.6284455812742],[-86.52043940794155,39.62856953087294],[-86.52014972936794,39.62909424838115],[-86.52004244100735,39.629139696167044],[-86.51986541521237,39.62914795939762],[-86.51959719431089,39.6291066432348],[-86.5193504310815,39.628999221095995],[-86.51912512552425,39.6289207201968],[-86.51890518438503,39.62890006205062],[-86.51853503954098,39.628953773217845],[-86.5182597267604,39.629063797672146],[-86.5180236923671,39.62920840422362],[-86.51791908621551,39.62929929961557],[-86.517645500896,39.62957818245922],[-86.51756104721501,39.629690761577734],[-86.51754361285641,39.62974240634138],[-86.517515365663,39.629877372735],[-86.51752475339455,39.62994760941468],[-86.51786941725297,39.62993624760367],[-86.5182181044249,39.62992282000645],[-86.51854391227185,39.62991952319813],[-86.51900793443144,39.62993191790392],[-86.52006366275546,39.629957019752936],[-86.52082004569766,39.62997354601791],[-86.52157374643085,39.629969414452034],[-86.52187415384053,39.62996734866899],[-86.52205386184451,39.62996734866899],[-86.52211823486087,39.629969414452034],[-86.52215228766066,39.62990956559547]]]},"id":"15","properties":{"object":2}},{"type":"Feature","geometry":{"type":"Polygon","coordinates":[[[-86.52200259080998,39.627429552687744],[-86.52210987917057,39.62728494241841],[-86.52214206567875,39.6271444635816],[-86.52214743009678,39.626355297755865],[-86.5197388064014,39.62637182488113],[-86.51974417081944,39.626475119324674],[-86.51982463708988,39.626590808918344],[-86.51998020521275,39.62672302535999],[-86.52043081632725,39.627049433618545],[-86.52118183485142,39.62748739671088],[-86.52140714040867,39.62760308461203],[-86.5215036999332,39.62757416265487],[-86.52162708154789,39.62760308461203],[-86.52176119199864,39.627570030945726],[-86.52200259080998,39.627429552687744]]]},"id":"16","properties":{"object":2}},{"type":"Feature","geometry":{"type":"Polygon","coordinates":[[[-86.51084600271821,39.629821899329706],[-86.51092110457063,39.629821899329706],[-86.51092261176628,39.626819559368926],[-86.51091724734825,39.62654686306166],[-86.51088506084007,39.62641877806158],[-86.51077240806144,39.62636093314509],[-86.50954932075065,39.626365064926446],[-86.50941613311501,39.62636137313931],[-86.50938684100146,39.624001105502124],[-86.50936806553835,39.62387921368442],[-86.50929832810397,39.62397631396337],[-86.50924728711603,39.623862036466996],[-86.50903515506445,39.62386317604199],[-86.5089859285864,39.624035158556865],[-86.50892557888356,39.624099203292666],[-86.50886791138974,39.62407647774802],[-86.50881426720944,39.62408164264518],[-86.50876062302915,39.62403412557675],[-86.50870429663983,39.624031026636374],[-86.50865467577306,39.62402999365623],[-86.5086265125784,39.62400416914728],[-86.50859700827924,39.62404342239706],[-86.50853934078542,39.62403929047708],[-86.50850313096372,39.62401243299119],[-86.50846826224652,39.62404032345709],[-86.50842400579778,39.62392049767211],[-86.50836909992516,39.62393269391899],[-86.5083221612674,39.623919265156665],[-86.50824571831049,39.62393475988221],[-86.50826985819161,39.62400706855548],[-86.50823498947442,39.62402979412288],[-86.50817329866707,39.62402049730076],[-86.5081424532634,39.62400087067215],[-86.50811026675522,39.62401946432045],[-86.50807271582902,39.62398744192306],[-86.50808076245606,39.62395438652954],[-86.50807942135155,39.62389447358859],[-86.50791848881066,39.623895506570776],[-86.50790239555657,39.62393372690059],[-86.50793994648278,39.62397504615234],[-86.50787825567544,39.62397091422826],[-86.50784338695824,39.6239492216229],[-86.50782997591317,39.623915133229275],[-86.50780315382302,39.623881044818866],[-86.50772000534356,39.623880011836455],[-86.50770525319398,39.623922364102036],[-86.50763149244607,39.62392236410203],[-86.50760869366944,39.623905836391735],[-86.50758589489281,39.623955419510835],[-86.50762076361002,39.623992606826874],[-86.50761539919198,39.624030827103056],[-86.50757650716126,39.624038057963745],[-86.50752311462576,39.62401702074654],[-86.50750836247617,39.62398086642456],[-86.50745203608687,39.623961239784705],[-86.50739168638404,39.6239529759347],[-86.50739839190656,39.62400255902004],[-86.50739973301107,39.62403871333067],[-86.50735815877134,39.624028383529556],[-86.50732060784513,39.62400565796167],[-86.50730451459104,39.62398603132886],[-86.50722270721609,39.623979833443656],[-86.50723611826116,39.624022185648165],[-86.50722136611158,39.62404077929072],[-86.50718515628988,39.62403251545021],[-86.50714492315466,39.624036647370595],[-86.50717710966283,39.62407590060193],[-86.50716503972227,39.624129615514036],[-86.50712078327352,39.62415234104122],[-86.50708323234731,39.62414304423556],[-86.50704970473463,39.62412858253535],[-86.5069906961363,39.62413787934297],[-86.50696521515066,39.624157505932715],[-86.50696923846418,39.62419366016243],[-86.50693973416502,39.62420502291645],[-86.50689950102979,39.624208121849016],[-86.50685792679006,39.62419572611783],[-86.50683244580442,39.62416886869266],[-86.50679489487821,39.62414511019246],[-86.50677880162412,39.624121351684124],[-86.50674929732496,39.62414304423556],[-86.50676270837003,39.62419572611783],[-86.50672783965284,39.62421948460066],[-86.50675466174299,39.62433104606304],[-86.50677343720609,39.624374431027626],[-86.50675197953397,39.624388892676436],[-86.50676807278806,39.624465332769965],[-86.5067399095934,39.62448392629347],[-86.50670193057407,39.62452275694038],[-86.50671668272365,39.62462088928767],[-86.50674484591832,39.6247386479207],[-86.50675825696338,39.624846076674295],[-86.50673411708225,39.624891527250604],[-86.50669790726054,39.624900823955734],[-86.50666974406589,39.624899790988565],[-86.50681470131705,39.62592396711489],[-86.5074530670626,39.6259694169832],[-86.50749061798881,39.62571324460807],[-86.50760327076743,39.6257793536989],[-86.50764082169364,39.625919835307194],[-86.50766764378379,39.62604378943063],[-86.50763545727561,39.62615534795183],[-86.50763009285758,39.62632475128826],[-86.50770889037058,39.6264831674251],[-86.50769816153452,39.626578198165895],[-86.50768206828043,39.62671867815236],[-86.50766597502634,39.62683849909189],[-86.50763915293619,39.626941792838736],[-86.50766597502634,39.627045086431394],[-86.50767133944437,39.62716490680569],[-86.50761233084604,39.6272516731541],[-86.50764988177225,39.62818956911832],[-86.5076573426039,39.62834247887865],[-86.50768684690307,39.628400322138575],[-86.50769489353011,39.62846126409222],[-86.50770562236617,39.62851807433966],[-86.50769355242561,39.628616201020805],[-86.50766270702194,39.62862549722549],[-86.50767989133085,39.62881429724275],[-86.50767855022634,39.62885354776389],[-86.50766379807676,39.628910357689215],[-86.50765575144972,39.629000220566766],[-86.50768257353987,39.62906632651712],[-86.50770243145168,39.629163690912456],[-86.507671586048,39.629234961219126],[-86.50765683389844,39.62937130420994],[-86.50764599114761,39.629466190560365],[-86.5076607432972,39.62954882243191],[-86.50766476661073,39.62961079627081],[-86.50765903864001,39.62991960571825],[-86.50777437362765,39.629917539933736],[-86.507836064435,39.62996505296198],[-86.50832422647571,39.62993200042405],[-86.50870778236484,39.62992373728711],[-86.50904574070071,39.62993613199216],[-86.5093676057825,39.62995265826209],[-86.50956340704059,39.62995265826209],[-86.5103316503461,39.629953641896286],[-86.51074068722087,39.62995880635475],[-86.51084931668598,39.629953641896286],[-86.51084600271821,39.629821899329706]]]},"id":"17","properties":{"object":2}},{"type":"Feature","geometry":{"type":"Polygon","coordinates":[[[-86.5126022429622,39.617780677421216],[-86.51245472146638,39.61774761906304],[-86.51232329322467,39.61773728832289],[-86.5121704073108,39.617714560689095],[-86.5119531483806,39.617693899197356],[-86.51170906736024,39.61766910539913],[-86.51149692361132,39.61766853911276],[-86.5113172156073,39.61767886986319],[-86.51120992724671,39.61772432514671],[-86.51101949040665,39.617794574162595],[-86.51096048180833,39.61782763249832],[-86.51090951983704,39.61784002937014],[-86.51085319344773,39.61782143406158],[-86.51085587565674,39.61777804498878],[-86.51094170634522,39.617759449663566],[-86.51104986059893,39.61770578447584],[-86.51105656612147,39.6176851229815],[-86.51108875262965,39.617662395330576],[-86.51117324221362,39.61765619687903],[-86.51125236737957,39.61762830384021],[-86.51127017071558,39.61759414457189],[-86.51164567997765,39.61761067378959],[-86.51187634995293,39.617627203003345],[-86.51214457085442,39.61766439371987],[-86.51236451199364,39.61769331981891],[-86.51258445313286,39.61769745211776],[-86.51260054638695,39.6176148060934],[-86.51267028382134,39.617494969182765],[-86.5126649194033,39.61736686742817],[-86.51264346173119,39.61721397147524],[-86.5126273684771,39.61706933985756],[-86.51224113037895,39.61703214882131],[-86.51130235722374,39.61697016371649],[-86.51106632283043,39.61694950200254],[-86.510808830765,39.61690817855615],[-86.51069617798638,39.61681726688725],[-86.51063180497002,39.616697428595806],[-86.51062644055199,39.616561060632456],[-86.51067472031426,39.61642469240048],[-86.51069617798638,39.61630485342936],[-86.51060750852702,39.616286829046594],[-86.51062091957209,39.616220710887525],[-86.51059677969096,39.6161690560318],[-86.51043048273203,39.6161690560318],[-86.51012739311335,39.61616079125133],[-86.50983235012171,39.616166989836785],[-86.50983235012171,39.61624137281903],[-86.50978675256847,39.6162826966635],[-86.50983920228097,39.61778849498994],[-86.5098271323404,39.61784841321708],[-86.50950224117386,39.617867210427804],[-86.50942043379892,39.617893037226835],[-86.50943518594849,39.61793539315639],[-86.50940702275383,39.617942624653956],[-86.50933728531945,39.61793539315639],[-86.50930643991578,39.617936426227516],[-86.50924340800393,39.617943657724986],[-86.50917769388306,39.6179508892217],[-86.5090945454036,39.61793745929862],[-86.50900737361061,39.61791886401624],[-86.50891215519059,39.61789613644206],[-86.50885582880127,39.61789097108325],[-86.50880218462098,39.61790646715851],[-86.50879011468041,39.617926095515536],[-86.50874719933617,39.61793436008523],[-86.50872305945504,39.61792093015897],[-86.50866002754319,39.6179198970876],[-86.50862515882599,39.617893037226835],[-86.5085902901088,39.617880640364504],[-86.50857419685471,39.617901301800494],[-86.50857419685471,39.61792816165806],[-86.50855139807808,39.61793849236973],[-86.5085192115699,39.61791576480201],[-86.50850714162934,39.617878574220555],[-86.50847093180764,39.61786617735564],[-86.50844276861298,39.617877541148566],[-86.50846288518059,39.61790543408695],[-86.5084642262851,39.61794882307985],[-86.50844813303101,39.61796741835419],[-86.50840655879128,39.61798188134192],[-86.5083730311786,39.61797774906],[-86.50831536368477,39.61792816165806],[-86.50828183607209,39.61791059944466],[-86.50819600538361,39.617908533301616],[-86.50817052439797,39.61794675693795],[-86.50815875174153,39.618035525222645],[-86.50818557383168,39.61817189028105],[-86.50819093824973,39.61824627110877],[-86.50822058251848,39.618451166234806],[-86.50822862914552,39.61856067087264],[-86.50828227332582,39.61861232394352],[-86.50836005738725,39.6186639769759],[-86.50843515923967,39.61867843981806],[-86.50853708318223,39.61862885291808],[-86.50862827828874,39.61856686924316],[-86.50873824885835,39.618469761374186],[-86.50884285500993,39.61840984368492],[-86.50896087220659,39.61835612433322],[-86.50906547835817,39.6183271985112],[-86.50922909310808,39.618335463033],[-86.509395390067,39.618358190462914],[-86.50954291156282,39.618413975941024],[-86.50963410666934,39.61844083559965],[-86.50968775084962,39.61851521613831],[-86.50979772141923,39.61864124964639],[-86.50999221362092,39.61887604080187],[-86.51010486639954,39.619018602534396],[-86.51014912284829,39.61908678412875],[-86.51017996825196,39.61916116397327],[-86.51019203819253,39.61919835386553],[-86.51017460383393,39.61921901490817],[-86.51012364186265,39.619200419970085],[-86.51008877314545,39.619170461448185],[-86.51000026024798,39.61909091634441],[-86.50979240651448,39.61889265882689],[-86.50967170710881,39.618784187772775],[-86.50951479788144,39.61867571654867],[-86.50942628498395,39.618630261889955],[-86.50926803465207,39.618593071692416],[-86.50928144569714,39.61864472473915],[-86.509257305816,39.61868604714876],[-86.5092127714407,39.61870167206257],[-86.50916717388745,39.618738862201745],[-86.50909207203503,39.61875952338153],[-86.50900087692854,39.61872026713464],[-86.50894991495724,39.61866241578286],[-86.50888554194088,39.61869340758447],[-86.50881848671551,39.618730597728074],[-86.50876752474423,39.618817374652146],[-86.50881848671551,39.618897953127096],[-86.50883189776059,39.61895787039377],[-86.50881312229748,39.61901365538858],[-86.50875143149014,39.61905084536009],[-86.50867632963772,39.61904051481445],[-86.50862000324841,39.61897646539703],[-86.50855831244108,39.619017787608605],[-86.50854221918698,39.619162415154825],[-86.50854221918698,39.61930291019604],[-86.50856060579986,39.61943099619384],[-86.50874299601287,39.61964173783091],[-86.50888247088164,39.619815289285526],[-86.50877518252105,39.61986900750468],[-86.50846941069335,39.619757438849],[-86.50830847815246,39.61976983537519],[-86.5083353002426,39.62024503387146],[-86.50828165606231,39.620414451676815],[-86.50820022752512,39.6207681044106],[-86.5081948631071,39.62199946385151],[-86.508178769853,39.62223912186675],[-86.5081948631071,39.62235895056316],[-86.50829678704966,39.62240440277302],[-86.5082324140333,39.62257794729975],[-86.51071613958109,39.62264405938595],[-86.5115637176298,39.62232589439176],[-86.51265269448984,39.62235068652177],[-86.5126022429622,39.617780677421216]]]},"id":"18","properties":{"object":2}},{"type":"Feature","geometry":{"type":"Polygon","coordinates":[[[-86.49873134568007,39.627731779511294],[-86.49872134993163,39.62685571140188],[-86.49868953283082,39.626595342145194],[-86.49857706561237,39.626518870429194],[-86.498526196696,39.62648063438248],[-86.49843102491651,39.62644498917904],[-86.49838343912279,39.626485011304325],[-86.4983006375511,39.62644614450549],[-86.49825655463977,39.62646492994456],[-86.49819025670976,39.6264557296293],[-86.49813565009391,39.62645732708052],[-86.498084206909,39.62647568581151],[-86.4980343454245,39.6265055240091],[-86.49798125147473,39.62646259824026],[-86.49798152662846,39.62642977294802],[-86.49794411329687,39.62641542618769],[-86.49787846797967,39.62641341751887],[-86.49783159811707,39.6264258700463],[-86.49779136498185,39.62645789131528],[-86.4977645428917,39.626482681964944],[-86.49771223981591,39.626475451359724],[-86.49769882877084,39.62643929832218],[-86.49767066557618,39.62641554060153],[-86.49764518459054,39.626395914652235],[-86.49760763366433,39.626401079376286],[-86.49760897476884,39.62643826537799],[-86.4975834937832,39.62645169365146],[-86.49754326064797,39.62643723243375],[-86.49743194897385,39.62643723243375],[-86.49743597228739,39.626469253697465],[-86.49741183240624,39.62648681373904],[-86.49735570118945,39.62648057340825],[-86.49726718829196,39.62649090284333],[-86.49723500178378,39.62646404630897],[-86.49719342754405,39.626441321540995],[-86.49718806312602,39.62646921102793],[-86.49714648888629,39.62644442037341],[-86.49709686801951,39.62642892620987],[-86.49705395267527,39.62642066265452],[-86.49703517721217,39.626443387429305],[-86.49699494407695,39.626415497931944],[-86.49699494407695,39.6264506180379],[-86.49699226186793,39.62650742993622],[-86.49694800541918,39.62651672642423],[-86.496915818911,39.62652085819628],[-86.49686619804423,39.626510528765685],[-86.49683937595408,39.62650329816336],[-86.49681523607295,39.626489869899885],[-86.4968071894459,39.62642892620987],[-86.49675890968363,39.6264371897642],[-86.49674952195208,39.626473342802804],[-86.49668514893573,39.626475408690176],[-86.49662859594672,39.62650199816524],[-86.49646498119681,39.62653505234175],[-86.4963711038813,39.62654538176868],[-86.49630807196944,39.626547447653905],[-86.496140433906,39.62654951353902],[-86.49603314554541,39.62656707356019],[-86.49593122160285,39.62657533709804],[-86.49585961443391,39.626618984988994],[-86.49577914816346,39.62660142498098],[-86.49572148066964,39.62657456848954],[-86.49569734078852,39.6265136248741],[-86.49568661195245,39.62647643891289],[-86.49565442544427,39.62645061531697],[-86.49561419230905,39.626466109475686],[-86.49558066469636,39.62646817536322],[-86.49556323033777,39.6264888342355],[-86.49552702051606,39.626484702461546],[-86.49547337633577,39.626470241250736],[-86.49543314320054,39.62649606483934],[-86.4954076622149,39.626471274194465],[-86.49532719594445,39.626458878868696],[-86.4953178082129,39.626484702461546],[-86.49528562170472,39.626508460158476],[-86.4952453885695,39.6265053613289],[-86.4952279542109,39.626466109475686],[-86.49518369776216,39.6264185940446],[-86.49516089898553,39.62644648354072],[-86.49517951695182,39.62650394710567],[-86.4951567181752,39.62652254008139],[-86.49512721387603,39.62650601299209],[-86.4951406249211,39.626541133052086],[-86.49513526050308,39.626571088383294],[-86.49511782614448,39.62659897781791],[-86.49506149975517,39.62660827429364],[-86.49500785557487,39.62659381310864],[-86.49497566906669,39.62652357302432],[-86.49492336599091,39.62651221065104],[-86.49491800157287,39.62647605763273],[-86.49489788500526,39.62644197048387],[-86.49484960524299,39.62644197048387],[-86.49483485309341,39.626464695251634],[-86.49487106291511,39.62650601299209],[-86.49486435739257,39.62654526482268],[-86.49483753530242,39.62655869307538],[-86.49479059664466,39.62654526482268],[-86.49473024694183,39.62653700128126],[-86.49467526165702,39.626543198937405],[-86.49465112177589,39.626503947105675],[-86.49463368741729,39.626457464644524],[-86.49459345428207,39.62643473987437],[-86.49456663219192,39.62645539875663],[-86.49458674875953,39.626498782389305],[-86.49455053893783,39.62650807887848],[-86.49449957696655,39.62648948589887],[-86.49444861499526,39.626478123519995],[-86.49444995609977,39.626541133052086],[-86.49443252174117,39.62656798955653],[-86.49430914012649,39.626540100109395],[-86.49424074379661,39.62653803422399],[-86.49423135606506,39.62656798955653],[-86.49422010558911,39.62663512419011],[-86.49418791908093,39.62665165124854],[-86.49414366263218,39.62665578301253],[-86.49408465403386,39.62664648654322],[-86.4940377153761,39.62662376183514],[-86.49404039758511,39.62666611242144],[-86.49406185525723,39.626684705353576],[-86.49406856077977,39.626742549999385],[-86.49408063072033,39.62679522990259],[-86.49409078634812,39.62687144811634],[-86.49404604501193,39.626990468560955],[-86.49408627814715,39.62706277404112],[-86.49408896035617,39.627118552502786],[-86.49405140942996,39.627209450640265],[-86.494059456057,39.627261097256074],[-86.49406750268405,39.627335468315124],[-86.4940863098177,39.62740005959912],[-86.4941211785349,39.62746823293605],[-86.49405412330952,39.62753434035014],[-86.49407558098164,39.62758392086927],[-86.49409435644475,39.627647962320545],[-86.49405948772755,39.62770580616106],[-86.49406216993657,39.62774712316039],[-86.4940863098177,39.627817362002666],[-86.49408094539967,39.62789173246379],[-86.49410508528081,39.62796197115925],[-86.49416945829716,39.627957839473254],[-86.49417138600332,39.62801017709779],[-86.4941874792574,39.62804426347407],[-86.49426307135553,39.6280699211568],[-86.4945822542283,39.62806578947727],[-86.49475659781427,39.62806785531705],[-86.49487997942896,39.62805959195747],[-86.49497922116251,39.62811123793871],[-86.49515450227217,39.628199639217506],[-86.49534493911223,39.62829260176782],[-86.49539321887451,39.62834424757514],[-86.49547368514496,39.62834424757514],[-86.49551660048918,39.62838556419323],[-86.49560243117766,39.628393827513875],[-86.4956989907022,39.628445473245634],[-86.49576604592757,39.6285260405102],[-86.49589210975127,39.62861073932818],[-86.49614691960768,39.62874088609036],[-86.49643928127271,39.628888950776435],[-86.49656802730544,39.62896332008573],[-86.49672359542829,39.62901289958087],[-86.4969220788954,39.62896745171169],[-86.49722785072309,39.628847634458936],[-86.4974102409361,39.628822844656604],[-86.49749607162458,39.62886416098891],[-86.49742096977216,39.62896332008573],[-86.49728685932142,39.62904182093662],[-86.49720102863294,39.62914511139417],[-86.49713665561659,39.62928971777571],[-86.49721712188703,39.62938474466188],[-86.4986869724272,39.629136848163256],[-86.49873134568007,39.627731779511294]]]},"id":"19","properties":{"object":2}},{"type":"Feature","geometry":{"type":"Polygon","coordinates":[[[-86.51236237748122,39.62992023103332],[-86.5123757885263,39.629071188408425],[-86.51241333945251,39.629013345709396],[-86.51257158978439,39.62900921408617],[-86.51264400942779,39.6289885559664],[-86.51271993393222,39.6289665364007],[-86.51276821369449,39.628898364540056],[-86.51278162473957,39.628786810441376],[-86.51277011103728,39.628437794125276],[-86.51275938220122,39.62813205079792],[-86.51271646685699,39.62778498916749],[-86.51272183127502,39.62745445266282],[-86.51271646685699,39.626995830647225],[-86.51274328894714,39.62654960090348],[-86.5126708537196,39.62653673505885],[-86.51264134942043,39.62659664571209],[-86.512563565359,39.626590448060696],[-86.5125099211787,39.62656152568029],[-86.51250187455167,39.626491285563176],[-86.5124375015353,39.626454099589935],[-86.51244554816235,39.62652433974481],[-86.5124375015353,39.626575986872005],[-86.51237849293697,39.62656978921876],[-86.51233289538372,39.626528471516416],[-86.51231411992062,39.62659044806069],[-86.5122577935313,39.626592513944544],[-86.51219878493299,39.62658631629282],[-86.51216391621578,39.626621436312064],[-86.51208076773632,39.626580118640504],[-86.5118956953143,39.626555328025745],[-86.51183400450695,39.626590448060696],[-86.51176426707256,39.626582184524686],[-86.51163820324886,39.62656565744964],[-86.51156310139645,39.626563591565],[-86.5115014105891,39.62659664571209],[-86.51145044861782,39.62656565744964],[-86.51143435536375,39.626499549110044],[-86.51142362652767,39.62646442902896],[-86.51137266455639,39.62644583603765],[-86.51137802897442,39.626499549110044],[-86.51134557007192,39.626617363013764],[-86.5112058225847,39.62662775092822],[-86.51118381930802,39.626921223188646],[-86.51117199858672,39.62735116067199],[-86.51113762658836,39.62821929899846],[-86.51116871959802,39.62959537372174],[-86.51117835538805,39.62975675614077],[-86.51120835623072,39.62993904882514],[-86.51229398008576,39.6299410396292],[-86.51236237748122,39.62992023103332]]]},"id":"20","properties":{"object":2}},{"type":"Feature","geometry":{"type":"Polygon","coordinates":[[[-86.50297492645247,39.60583484021768],[-86.50302103330095,39.60575257612387],[-86.50302451762951,39.605298318999466],[-86.50297349603424,39.60510095261747],[-86.50306108423861,39.6038444389584],[-86.5030584020296,39.603726644776145],[-86.50307985970171,39.60344352460628],[-86.5030584020296,39.60332366316371],[-86.50308731643551,39.60325918109044],[-86.50308865754002,39.603208549854386],[-86.50309804527157,39.603148618955665],[-86.50306988207691,39.60310315410137],[-86.50301892010563,39.60308248824863],[-86.50300953237408,39.60311762019462],[-86.5029760047614,39.60316825149719],[-86.50294918267124,39.60317341795454],[-86.50290090290898,39.60315068553927],[-86.50288212744589,39.60310832056359],[-86.50284725872868,39.60311452031776],[-86.50282848326557,39.603088688005094],[-86.50273326484555,39.60309178788313],[-86.50271985380047,39.60314758566386],[-86.50265011636608,39.603153785414506],[-86.50262463538044,39.603134152868904],[-86.50258574334973,39.603097987638776],[-86.50251868812437,39.603093854468405],[-86.50249723045224,39.60312588653226],[-86.50245699731701,39.60312278665576],[-86.50240603534573,39.60309592105363],[-86.5023396473889,39.60309060486406],[-86.50225784001394,39.60309370474201],[-86.50222297129676,39.60311230400672],[-86.50218273816154,39.60311333729907],[-86.50217469153448,39.6031360697266],[-86.50211836514517,39.603135036434615],[-86.50211031851812,39.603099904497455],[-86.50204704187993,39.60310500810779],[-86.5020041265357,39.603088475426546],[-86.5019504823554,39.60309777506022],[-86.50188745044355,39.603093641889856],[-86.50181234859113,39.60311224115459],[-86.50171176575307,39.603123607369476],[-86.5015910663474,39.60312980712226],[-86.50154010437612,39.603147373085456],[-86.50157899640683,39.603189738037244],[-86.50158838413839,39.60323003638194],[-86.50157899640683,39.60325070219066],[-86.50154010437612,39.60327446786303],[-86.50149316571836,39.60327240128314],[-86.50143818043355,39.603284800761514],[-86.50139794729833,39.603282734181946],[-86.50138990067128,39.603332332074714],[-86.50138051293973,39.603368497182494],[-86.50133223317746,39.60338502979686],[-86.50127993010167,39.60339019623806],[-86.50122226260785,39.60332199918332],[-86.50115386627797,39.60330339997491],[-86.50104523681289,39.60328066760232],[-86.50101888332645,39.60330320405137],[-86.50097730908672,39.60328977128663],[-86.50089684281627,39.60329390444528],[-86.50083112869541,39.60327117206955],[-86.50074663911144,39.603260839169046],[-86.50065544400493,39.60325257284751],[-86.50061118755619,39.6032288071676],[-86.5005602255849,39.60318747553097],[-86.50054815564434,39.60313684424248],[-86.50058591064644,39.60310414243935],[-86.50081121620369,39.60309380951389],[-86.50114381012153,39.60309587609911],[-86.50126783178865,39.60307304156722],[-86.50133086370049,39.603036876305154],[-86.50137512014923,39.60296247913525],[-86.50135634468613,39.60286431608045],[-86.50135817050027,39.60269573008775],[-86.50132464288758,39.60260376645471],[-86.50131075527793,39.60231243037046],[-86.50133221295005,39.60225456530656],[-86.50143816020615,39.60217706737739],[-86.50153471973067,39.60213160188526],[-86.50162725594168,39.60211196904988],[-86.50274167039134,39.60211842339565],[-86.50296027042606,39.60211222355232],[-86.503039395592,39.602097757249055],[-86.50306755878665,39.6020595248616],[-86.50307292320468,39.60193139454435],[-86.49808937885501,39.60194792750182],[-86.49807977841589,39.60211487825143],[-86.49809050725196,39.60221820889715],[-86.49818170235845,39.602292606866605],[-86.4984070079157,39.602333939037365],[-86.49863767789098,39.60243726935624],[-86.49967805752509,39.60290165886287],[-86.4998068035578,39.602947123849454],[-86.49990068087332,39.60301118809806],[-86.49997041830773,39.60304012031994],[-86.50008038887732,39.60307938545889],[-86.50019840607398,39.60310831765228],[-86.50021449932807,39.603166182002816],[-86.50022791037314,39.60322817946757],[-86.50028960118048,39.60335837396293],[-86.50034671427062,39.60349892594533],[-86.50035207868865,39.60358778853394],[-86.50035207868865,39.60367665100855],[-86.5003789007788,39.603761380238566],[-86.50036817194274,39.60383370998707],[-86.50034134985259,39.60392877182734],[-86.50034134985259,39.603996968284534],[-86.50035234284759,39.60413222541551],[-86.5003724594152,39.604221087191476],[-86.50039525819183,39.604369878747065],[-86.50043549132705,39.60450833726854],[-86.50046117030529,39.604633169527176],[-86.500535676573,39.60490597138685],[-86.50062418947049,39.605112624194916],[-86.50077948225731,39.60552679240469],[-86.50081435097451,39.605594987288164],[-86.50085190190072,39.605650783051914],[-86.50082776201958,39.60572517733366],[-86.50085994852776,39.60580783755298],[-86.50085190190072,39.60588016516394],[-86.5008679951548,39.605995889184335],[-86.50082239760155,39.60606408360578],[-86.50083580864663,39.606212871201286],[-86.50085190190072,39.60632446168812],[-86.5008840884089,39.60645051739209],[-86.50093236817116,39.60651457839963],[-86.50103429211373,39.60648358114532],[-86.50287936919399,39.60589671231182],[-86.50297492645247,39.60583484021768]]]},"id":"21","properties":{"object":2}},{"type":"Feature","geometry":{"type":"Polygon","coordinates":[[[-86.47400714779955,39.61465523322706],[-86.47475816632372,39.614308104005374],[-86.47519804860217,39.614109743668536],[-86.47572376156909,39.61391138276333],[-86.47610999966723,39.61381220209757],[-86.47643186474902,39.6136634308325],[-86.47671081448657,39.61347333375076],[-86.47687174702746,39.61321711511896],[-86.4769146623717,39.612894774202935],[-86.47690393353564,39.61197733414994],[-86.47685449069765,39.61201629441149],[-86.47678475326326,39.612018360730424],[-86.47674988454607,39.61205968709594],[-86.47669624036577,39.612020427049266],[-86.47664259618548,39.612055554460476],[-86.47659968084123,39.611993564899265],[-86.4765031213167,39.612012161773436],[-86.47644411271837,39.61198736594007],[-86.47633950656679,39.61196876905921],[-86.47618930286195,39.61196463641834],[-86.47616516298082,39.61189644780838],[-86.47610615438249,39.61184685604986],[-86.47610078996446,39.61191504470868],[-86.47604446357515,39.61194603953138],[-86.47598813718584,39.61191711103062],[-86.47588621324327,39.61189024884052],[-86.47583256906297,39.61186958561026],[-86.47570114082124,39.611908845742455],[-86.47558312362459,39.61196463641834],[-86.47549192851808,39.6120452228708],[-86.47539000457552,39.61211754396622],[-86.47526930516985,39.61215473764301],[-86.47519152110841,39.61214440606811],[-86.47509496158388,39.612053488142685],[-86.47503058856753,39.61197910066032],[-86.47497426217821,39.61194603953138],[-86.47492061799791,39.61190264677571],[-86.47488038486269,39.611840657077536],[-86.47483488327342,39.611781880440866],[-86.47470881944972,39.611668232420264],[-86.4745425224908,39.61156904854073],[-86.47442450529414,39.61154011988245],[-86.47442718750315,39.611606242512224],[-86.47440841204005,39.611645502793756],[-86.47434940344172,39.611618640498264],[-86.47436549669581,39.611705426338474],[-86.47431989914256,39.611699227353476],[-86.47429575926142,39.61173228860028],[-86.47424747949916,39.61165790077277],[-86.47423943287211,39.611730222272804],[-86.47417774206477,39.61169716102504],[-86.47414555555659,39.611736421255024],[-86.47407045370417,39.61167443140803],[-86.47402753835993,39.611709558994804],[-86.47391756779032,39.611705426338474],[-86.4738424659379,39.611734354927684],[-86.47379418617564,39.611755018198295],[-86.47378077513056,39.6118025436973],[-86.4737503279944,39.61181528529963],[-86.47370607154565,39.611800821023444],[-86.4736980249186,39.61184421384293],[-86.4736604739924,39.61188554031242],[-86.47360280649858,39.61185867811008],[-86.47358000772195,39.611888639796625],[-86.47355989115434,39.611927899918044],[-86.47341909614936,39.61213708687658],[-86.47327276766113,39.612459582819454],[-86.473274672114,39.61257598488988],[-86.47327450154354,39.61269947377715],[-86.47331875799229,39.61272220305761],[-86.47329461811115,39.61277799307802],[-86.4733026647382,39.61283584934799],[-86.47330937026074,39.61291023590973],[-86.47329324153849,39.61297522799968],[-86.47328921822496,39.61302998467182],[-86.47328385380693,39.61307027728973],[-86.47319265870043,39.61307957558281],[-86.4732060697455,39.613109536740986],[-86.4731679307001,39.61313187655834],[-86.47310221657924,39.61311534627114],[-86.47308344111613,39.6130740205358],[-86.47304723129443,39.613094683406544],[-86.4730606423395,39.61315460569685],[-86.47303516135388,39.61317113597471],[-86.47297749386004,39.61316080455152],[-86.47292250000818,39.613310975192285],[-86.47293859326227,39.61345561466295],[-86.4730512460409,39.613637446711586],[-86.47321217858179,39.61374489269766],[-86.47339993321283,39.613877133682344],[-86.47357159458979,39.61403830204087],[-86.4736252387701,39.614149879915416],[-86.47368981921092,39.61417376329916],[-86.47374882780926,39.61425744655816],[-86.47378823526229,39.61436337765807],[-86.47400714779955,39.61465523322706]]]},"id":"22","properties":{"object":2}},{"type":"Feature","geometry":{"type":"MultiPolygon","coordinates":[[[[-86.46571285429258,39.60294490929048],[-86.46572089586414,39.60289252972905],[-86.46569573951078,39.60295120817511],[-86.46571285429258,39.60294490929048]]],[[[-86.46284722415459,39.610184200623806],[-86.46455310908806,39.60923366222573],[-86.46481060115349,39.60913447485835],[-86.46485351649773,39.608969162263634],[-86.4646496686126,39.60870466129108],[-86.4645960244323,39.608390565073755],[-86.46458529559624,39.60815912484395],[-86.46472477046501,39.607993809920444],[-86.46481105268417,39.60794147492964],[-86.46472924530921,39.607853651149604],[-86.46465682566581,39.60777202659534],[-86.46457367718635,39.60771829898813],[-86.46440662642819,39.60756808761085],[-86.46398820182186,39.60728704960707],[-86.46376289626461,39.60716306188983],[-86.4635805060516,39.606848958679166],[-86.46345176001888,39.60660924737553],[-86.46333374282223,39.60625381184613],[-86.46319426795347,39.60587770947362],[-86.46315671702725,39.605666925932056],[-86.4631674458633,39.60551400413752],[-86.46326400538784,39.605402412344624],[-86.46343030234677,39.60537348110969],[-86.46354295512539,39.60581571438094],[-86.46356977721554,39.60604716244375],[-86.46365560790402,39.60631993952464],[-86.4637253453384,39.60645219469218],[-86.46381117602688,39.60671257131506],[-86.46398283740383,39.60684482573267],[-86.46415986319882,39.606939883439324],[-86.4643695600703,39.60700524366419],[-86.46452781040217,39.60706723769187],[-86.4647128828242,39.60720155789474],[-86.46486576873805,39.607327612001974],[-86.46496180427133,39.60739621586652],[-86.46515224111138,39.60749540572407],[-86.46517639551871,39.60748682841344],[-86.46521260534041,39.60749096132161],[-86.46521528754943,39.607510592631996],[-86.46527831946128,39.60754158942652],[-86.46530648265593,39.60754055620029],[-86.46531318817847,39.607565353626306],[-86.46532173609603,39.607595689783395],[-86.4653525814997,39.60759982268505],[-86.46538208579886,39.60761842073948],[-86.46543304777015,39.60765458360878],[-86.46545718765128,39.60768971323514],[-86.4654598698603,39.60772380962018],[-86.4654944987287,39.60777133360113],[-86.46549583983321,39.60779096483202],[-86.46555350732703,39.607838493052185],[-86.46565831079813,39.60788655235231],[-86.46575218811364,39.607910316433674],[-86.46584338322015,39.607938213388344],[-86.46614513173432,39.607927881184224],[-86.46661720052094,39.60793098084562],[-86.46691257618394,39.60791419412462],[-86.46703327558961,39.60790179547519],[-86.46714458726373,39.60785323407688],[-86.46725655572254,39.60777196569382],[-86.46729142443974,39.60769654038719],[-86.46728337781269,39.60765211174343],[-86.46730081217129,39.607583918885986],[-86.46728957204442,39.607503411124405],[-86.46728018431287,39.607438317803954],[-86.4672493389092,39.60737219119352],[-86.4672319045506,39.60731536358721],[-86.46718094257932,39.60729676545137],[-86.4671594849072,39.60726473531687],[-86.46716753153424,39.607232705167526],[-86.46714875607114,39.60719964177202],[-86.46710949822481,39.607139953265666],[-86.4670531718355,39.607068660203936],[-86.46704110189494,39.607029397327],[-86.46700086875971,39.6070118323485],[-86.46697002335604,39.60703249702861],[-86.46687614604052,39.607002533240454],[-86.46677288099345,39.60698806795879],[-86.46666693373736,39.60695913738637],[-86.46652050011755,39.606877795808494],[-86.4664400338471,39.60681786808534],[-86.46635089532512,39.606706755738934],[-86.46630797998088,39.60660136531022],[-86.46629456893581,39.6065042406554],[-86.4663106621899,39.60639678343179],[-86.46639649287837,39.60635752017386],[-86.46654937879222,39.60631825689369],[-86.46668080703395,39.6062645281584],[-86.46662856576334,39.606163471801544],[-86.46655614611994,39.60608287850285],[-86.46651591298472,39.606018817095936],[-86.4664408111323,39.606014684099904],[-86.46640057799708,39.605969221127296],[-86.46637912032496,39.60590929261781],[-86.46628256080042,39.60583696503726],[-86.466207458948,39.605826632519594],[-86.46612162825953,39.60580596747962],[-86.46609165901246,39.605754609209946],[-86.46603130930963,39.605727744628844],[-86.46599375838342,39.60569261400707],[-86.46599644059245,39.605655416858696],[-86.46597766512933,39.60562028620019],[-86.46594547862115,39.60560478737461],[-86.46583986665372,39.60556552354942],[-86.4658334964637,39.60552316004446],[-86.46588931995991,39.60543688305986],[-86.46594070111969,39.60540666034161],[-86.46606718391409,39.60535990540143],[-86.46671460778845,39.60555332160428],[-86.46725020539334,39.60561696313523],[-86.46800236893769,39.60470913712844],[-86.46803512120219,39.60361046155773],[-86.46809441442255,39.6021022209655],[-86.4680811485292,39.60090996152358],[-86.46799500123356,39.60087252589761],[-86.46789276075754,39.60085575670932],[-86.46777979147174,39.600861720604584],[-86.46766011663361,39.6008656177595],[-86.46760382521482,39.60171970036586],[-86.46758372556472,39.60214674161867],[-86.46753143896655,39.60256138317868],[-86.46705092925895,39.6031925707482],[-86.46676354373179,39.60335257352207],[-86.46646542881669,39.603314184071145],[-86.46610983732921,39.602912672932135],[-86.46598874657896,39.60290320892999],[-86.46583956088664,39.602898276375484],[-86.46571285429258,39.60294490929048],[-86.46568167883052,39.60314797295176],[-86.46575344912627,39.60510546518618],[-86.46560064728484,39.605239530699144],[-86.46469544396791,39.60520713187517],[-86.4634361894925,39.60521192040525],[-86.46082648271623,39.60531650858645],[-86.46089268034659,39.60804792660529],[-86.4621918022556,39.60800846549213],[-86.46261070316248,39.60801766112875],[-86.46266190658287,39.60812351401421],[-86.46265123841857,39.60827034713995],[-86.46262179474465,39.60837378531496],[-86.46255211776295,39.609369914592904],[-86.46257092405835,39.610157271642805],[-86.46269834524355,39.61023272740856],[-86.46284722415459,39.610184200623806]]]]},"id":"23","properties":{"object":2}},{"type":"Feature","geometry":{"type":"Polygon","coordinates":[[[-86.49381173048647,39.60379701910972],[-86.49383855257662,39.603557297240826],[-86.49375808630617,39.60340850393928],[-86.49354887400301,39.60332584085584],[-86.49321091566713,39.603226645025465],[-86.49285686407717,39.603077851013495],[-86.49253499899538,39.602879458500176],[-86.49229360018404,39.60272239735741],[-86.49221953239898,39.60270979300994],[-86.49216186490516,39.60264366188386],[-86.49210285630684,39.60255996458687],[-86.49205189433555,39.60255479808374],[-86.49201166120032,39.60252793226126],[-86.49197679248313,39.60248350030121],[-86.49196874585608,39.602426668682824],[-86.49190839615325,39.602388436476964],[-86.49181957607762,39.60229206843558],[-86.49175252085224,39.602217670465535],[-86.49165059690968,39.602104006745826],[-86.49154867296711,39.602035808424496],[-86.49144943123356,39.60196967665482],[-86.491347507291,39.60187254550358],[-86.49128313427465,39.60181881331884],[-86.49110771062533,39.60163251465051],[-86.49080730321566,39.60163871453677],[-86.4902547681586,39.601632514650504],[-86.48462447893563,39.60157779303409],[-86.48457619917336,39.602081236037755],[-86.48457083475533,39.602494557896456],[-86.48466739427987,39.6027342834442],[-86.48486051332894,39.60278388172976],[-86.4852145649189,39.602850012721966],[-86.48534331095162,39.602883078194374],[-86.48566517603341,39.602883078194374],[-86.4856882403547,39.6032247545953],[-86.48571425848357,39.603677500567265],[-86.48571481312564,39.60382242365805],[-86.4858529468899,39.60383895616409],[-86.48607020582011,39.60383895616409],[-86.4864631494408,39.60382759006661],[-86.49161369923422,39.603805946114115],[-86.49298833316622,39.60383531997268],[-86.49330751603901,39.60384151966175],[-86.49356232589541,39.60384771935028],[-86.49372862285433,39.603839453098786],[-86.49381173048647,39.60379701910972]]]},"id":"24","properties":{"object":2}},{"type":"Feature","geometry":{"type":"Polygon","coordinates":[[[-86.46571019925528,39.61529015676174],[-86.4656780127471,39.61499262026452],[-86.46569947041922,39.61469508248839],[-86.4657316569274,39.614455398349776],[-86.46561363973075,39.61421571338127],[-86.46540979184562,39.61401735277971],[-86.46502355374747,39.61373220841919],[-86.464725006306,39.61391417520932],[-86.46434506041663,39.614149795396315],[-86.46407998336981,39.61411470116312],[-86.46415665704279,39.61387812949944],[-86.46406853770804,39.61377352855192],[-86.46393750325551,39.61373504801378],[-86.46377428242212,39.61353539728849],[-86.4637101690357,39.61348695441596],[-86.46319263266646,39.61325197227117],[-86.46257911122201,39.613366794140056],[-86.46236622678789,39.613415939179134],[-86.46228216019841,39.61344785502592],[-86.46224637328373,39.61351696380894],[-86.46223380791533,39.61365104878381],[-86.46231261319373,39.61370794237088],[-86.46239410066413,39.61375863721153],[-86.46239614305809,39.61385589440549],[-86.46242884213764,39.61389537544737],[-86.46251569762713,39.61395780803867],[-86.46256066190583,39.614049613476766],[-86.46255403013349,39.614138176617146],[-86.46256222383133,39.61419132771126],[-86.46262152651761,39.61423151021475],[-86.46262747840731,39.614320140656254],[-86.46253722711494,39.61434244205878],[-86.46258108622649,39.614459790902096],[-86.46278677619476,39.6147388600956],[-86.46293253702873,39.61493624924292],[-86.46272110339764,39.615010149063735],[-86.46279934818746,39.615104711151844],[-86.46279598464903,39.61540689156136],[-86.46391647514942,39.61539294649465],[-86.46408209806005,39.615279819375324],[-86.46417999698261,39.615377966917265],[-86.46493235560277,39.61539346414062],[-86.46571019925528,39.61529015676174]]]},"id":"25","properties":{"object":2}},{"type":"Feature","geometry":{"type":"Polygon","coordinates":[[[-86.47936363215051,39.608109605749135],[-86.47933986396261,39.60638703496599],[-86.47938277930685,39.606064662249175],[-86.47846832627556,39.606084487188156],[-86.4747218115059,39.6061178086863],[-86.47465207407151,39.60597728688379],[-86.47456087896501,39.60576237063425],[-86.4744696838585,39.6056342471681],[-86.47426047155534,39.60557638487988],[-86.47380449602281,39.605555719765235],[-86.47353627512132,39.60558878394573],[-86.47332169840013,39.605708641467636],[-86.47320234010859,39.60569314268907],[-86.47316076585923,39.605725173523325],[-86.47300117442285,39.60588946061245],[-86.47289254495774,39.606167404548515],[-86.47290863821183,39.60654763831197],[-86.47290327377829,39.606756352406656],[-86.47286840497891,39.60693716888583],[-86.47301592657244,39.60697746526944],[-86.47249148387013,39.60707798088029],[-86.47206233042775,39.607218500449065],[-86.47174046534596,39.60737968430911],[-86.47168145674763,39.60757806392947],[-86.4714504903945,39.60768179120086],[-86.47133515540686,39.60780577798922],[-86.47120640937416,39.607931830996435],[-86.47103206578818,39.60798969131635],[-86.47100792590705,39.60803515296238],[-86.4711608118209,39.6080454851505],[-86.47129224006262,39.60803515296239],[-86.47134588424292,39.6079752262409],[-86.47146658364859,39.60796282760243],[-86.47158996526329,39.607973159801325],[-86.47217352869708,39.60798025137274],[-86.4726616907378,39.60797405205419],[-86.47288967850407,39.60800091576379],[-86.47297819140155,39.60804844383986],[-86.47307284805184,39.60812730731952],[-86.47936363215051,39.608109605749135]]]},"id":"26","properties":{"object":2}},{"type":"Feature","geometry":{"type":"Polygon","coordinates":[[[-86.46239657073012,39.600733146830386],[-86.46241802840224,39.59764136091155],[-86.46228928236953,39.597500821908675],[-86.46000404028884,39.59756695794554],[-86.45987529425612,39.59779016660382],[-86.459853836584,39.598344051648695],[-86.4579441037654,39.59833578474031],[-86.4569892373561,39.59839365307842],[-86.45690340666762,39.598666460306944],[-86.45708579688063,39.59903846843236],[-86.45697850852004,39.59930300632816],[-86.45708579688063,39.59965021078302],[-86.45696777968398,39.59990647962135],[-86.45694632201186,39.60057608081993],[-86.45699192065771,39.60076244599759],[-86.4595292903858,39.60072937951265],[-86.45960975665625,39.60065084654769],[-86.45962584991034,39.599968846002106],[-86.45965399369136,39.598837158754904],[-86.45971032008069,39.59883095861784],[-86.4596888073898,39.59945098017584],[-86.45973172273402,39.59952951450136],[-86.45967271413569,39.599603915359175],[-86.45967807855372,39.599725849925534],[-86.45968076076274,39.59981471735564],[-86.45975049819712,39.59989738463008],[-86.45969685401683,39.599969718414286],[-86.45967628818278,39.60069436837571],[-86.45989891153101,39.600758434708304],[-86.46010275941615,39.60074810143286],[-86.46048095088724,39.60075016808808],[-86.46088864665751,39.600735701500305],[-86.46108713012461,39.60074810143286],[-86.46142943025151,39.600758106368104],[-86.46239657073012,39.600733146830386]]]},"id":"27","properties":{"object":2}},{"type":"Feature","geometry":{"type":"Polygon","coordinates":[[[-86.46044399620315,39.60796033301212],[-86.46059419990799,39.60750571471749],[-86.46056201339982,39.607059359305964],[-86.46059419990799,39.60645594834221],[-86.46042253853103,39.606331959136746],[-86.46051909805557,39.60613357594622],[-86.4606156575801,39.605819468065505],[-86.46050836921951,39.60563761548329],[-86.46054055572769,39.60537310178388],[-86.46033670784256,39.60529870712387],[-86.46008994461319,39.60523257847009],[-86.46003163210139,39.60522750597186],[-86.45998201123462,39.605328765454686],[-86.45999274007067,39.60540109356605],[-86.46000481001124,39.605431058047195],[-86.45994848362193,39.60545378971388],[-86.45992166153178,39.60551578513063],[-86.45988679281459,39.60554264979395],[-86.45982376090274,39.60554471630607],[-86.45974865905032,39.60553438374479],[-86.45973256579623,39.60548685394304],[-86.459692332661,39.605443457139046],[-86.45966014615283,39.605397993791385],[-86.45959845534549,39.60535976322595],[-86.45950860134349,39.60532773219539],[-86.45945227495417,39.605310166785266],[-86.45939326635585,39.60532463241747],[-86.45931548229441,39.60534943063707],[-86.45927390805468,39.60538766120822],[-86.45921221724734,39.6054579227434],[-86.45919880620227,39.60551888489999],[-86.45924365186768,39.60558304615763],[-86.4592463340767,39.6056367754217],[-86.4592651095398,39.60572356876018],[-86.45923426413613,39.60574216731856],[-86.45918061995583,39.60575456635471],[-86.45917861043448,39.60579264038004],[-86.45915178834434,39.60581123891986],[-86.45908473311896,39.6057978066416],[-86.45902572452063,39.60584326972676],[-86.45898951469893,39.60587736702104],[-86.45897929063274,39.60592131038123],[-86.45895246854259,39.605939908886505],[-86.45895783296062,39.60596883988477],[-86.45895246854259,39.60599053812555],[-86.45899270167781,39.606005003615614],[-86.4590087949319,39.606080430764855],[-86.45897392621471,39.60609799597963],[-86.45902757039501,39.606148625103074],[-86.45899806609584,39.60618065575389],[-86.45897526731922,39.606206486913095],[-86.4589363752885,39.60619718769688],[-86.45900315914228,39.60630331548256],[-86.45894640643965,39.60634138645892],[-86.45892226655852,39.60638478270019],[-86.45895847638022,39.60644264431288],[-86.458947739475,39.606509185241705],[-86.45896383272908,39.6065494816547],[-86.45892628180287,39.60656291378715],[-86.45891152965329,39.60659184452511],[-86.45893701063895,39.60660424340911],[-86.45893827076442,39.60665442068169],[-86.45888462658412,39.60666475307585],[-86.45889669652469,39.60674637893544],[-86.45885244007594,39.606789774922895],[-86.45882293577678,39.606832137646286],[-86.45878404374606,39.60686003503534],[-86.45872369404323,39.606855902089514],[-86.458683460908,39.606872433871324],[-86.45862981672771,39.60688483270506],[-86.45859360690602,39.606940627429516],[-86.45852532449634,39.60697119985139],[-86.4584731352552,39.60703896868874],[-86.45843312962778,39.607153841631835],[-86.45845504222683,39.607276131343674],[-86.45849886740626,39.607458717082345],[-86.45839876239113,39.607720565999195],[-86.45850700670684,39.607876436117785],[-86.45886297283388,39.60799806397054],[-86.45932814565305,39.60804294072428],[-86.45982934119526,39.60796737652186],[-86.46028456549712,39.60800635798307],[-86.46044399620315,39.60796033301212]]]},"id":"28","properties":{"object":2}},{"type":"Feature","geometry":{"type":"Polygon","coordinates":[[[-86.48468176701185,39.61839620746302],[-86.48578683712599,39.617982980526065],[-86.48581902363416,39.617594544955864],[-86.48573319294569,39.61694990239023],[-86.48562590458509,39.61637963665445],[-86.48531476833936,39.615933338453516],[-86.4851592002165,39.61577217450711],[-86.48506264069196,39.615586215641166],[-86.48497681000349,39.61543331575489],[-86.48460666515943,39.61540438871141],[-86.4833406625044,39.61539199140335],[-86.4817367015135,39.615408521146925],[-86.48133750754572,39.615414410663945],[-86.4810639222262,39.61552185389189],[-86.48092981177545,39.615711945348174],[-86.48057576018549,39.6162656870499],[-86.48035045462824,39.61669545367563],[-86.48021581013143,39.616886731309854],[-86.48020409849093,39.61708220398016],[-86.48036234882281,39.6171607183098],[-86.48045899076607,39.61726707715403],[-86.48042009873535,39.617356955152374],[-86.48045630855705,39.61739001369715],[-86.48050995273735,39.617406542963586],[-86.48060426833312,39.61740663007674],[-86.48071960332076,39.617435556283475],[-86.48080623048347,39.617488092210586],[-86.48098057406943,39.61751805146068],[-86.4811187078337,39.617521150692696],[-86.48124074834388,39.617513919151094],[-86.48134133118194,39.6174994560656],[-86.48150762814086,39.61748602605491],[-86.48158541220229,39.61746226526044],[-86.48166990178626,39.617450901399344],[-86.48175036805671,39.617439537536335],[-86.48178926008742,39.617417842883675],[-86.48179730671447,39.617365155841696],[-86.48180133002799,39.6173413950057],[-86.48182815211814,39.61735172580499],[-86.48184558647674,39.61740337977809],[-86.4818750907759,39.61743747137927],[-86.48190325397056,39.61746123218224],[-86.48188179629844,39.617480860665516],[-86.48184558647674,39.61748395989922],[-86.48186199430585,39.61760459960073],[-86.48182846669316,39.61761596343659],[-86.48180835012555,39.6175746403881],[-86.4817640936768,39.61754158193154],[-86.48169435624241,39.61752505269732],[-86.48153744701506,39.61754158193154],[-86.48129738930821,39.61759116961045],[-86.48117937211155,39.61760356652464],[-86.48100368742108,39.61760356652464],[-86.48088432911992,39.61758910345788],[-86.48078911069989,39.61756947500529],[-86.4807110345454,39.61752159192939],[-86.48061045170734,39.61749886422478],[-86.48046158910701,39.61749576499176],[-86.48023226023624,39.61750402961285],[-86.4802255547137,39.61769514870034],[-86.48024101711196,39.61788931477377],[-86.48022358275335,39.6179389022036],[-86.48018871403616,39.618028779329556],[-86.48016055084152,39.618084565073154],[-86.48015907549915,39.61835931091923],[-86.48017248654422,39.61842026171614],[-86.48019930863437,39.618494642276914],[-86.48025375990028,39.61856790890466],[-86.48035434273834,39.618613363604325],[-86.4805125930702,39.618637124003655],[-86.48069900659674,39.61864022318558],[-86.48095381645315,39.61864228930676],[-86.48129445699804,39.618634024821574],[-86.48141752602028,39.61863957759615],[-86.48148592235017,39.61861271801466],[-86.48156236530708,39.618625114745875],[-86.48173402668404,39.61860858577041],[-86.48217830132258,39.618611189093784],[-86.48236069153559,39.61860705684949],[-86.48253235291254,39.61858019725537],[-86.4826691455723,39.618534742533875],[-86.48310902785074,39.61828680716403],[-86.48330214689982,39.61817936822794],[-86.48354891012919,39.61802234179057],[-86.48368838499798,39.61799754811],[-86.48382125692716,39.61800682296966],[-86.4839178164517,39.61806467486941],[-86.48435501652112,39.61838699171148],[-86.4845320423161,39.61842831427498],[-86.48468176701185,39.61839620746302]]]},"id":"29","properties":{"object":2}}]}