{"type":"FeatureCollection","features":[{"type":"Feature","geometry":{"type":"Polygon","coordinates":[[[-86.48248145325307,39.59933463164803],[-86.48208046300535,39.599332564950586],[-86.48207639151153,39.59982205077276],[-86.48247469955024,39.59982411745559],[-86.48248145325307,39.59933463164803]]]},"id":"0","properties":{"object":0}},{"type":"Feature","geometry":{"type":"Polygon","coordinates":[[[-86.48195536987627,39.599332522171245],[-86.48165228025759,39.599329422124946],[-86.48165164378757,39.59988948343307],[-86.48195473340624,39.5998905167735],[-86.48195536987627,39.599332522171245]]]},"id":"1","properties":{"object":0}},{"type":"Feature","geometry":{"type":"Polygon","coordinates":[[[-86.48207818841084,39.60019941517879],[-86.48189982151135,39.60019838184299],[-86.48190116261586,39.600348215375256],[-86.48207952951535,39.60035028204242],[-86.48207818841084,39.60019941517879]]]},"id":"2","properties":{"object":0}},{"type":"Feature","geometry":{"type":"Polygon","coordinates":[[[-86.52200561366786,39.616951557409045],[-86.52200829587687,39.61675940317967],[-86.52207535110225,39.61675113846969],[-86.52207535110225,39.61668502075411],[-86.5219948848318,39.616685020754105],[-86.52200024924983,39.61654658658264],[-86.52192514739741,39.616546586582636],[-86.52191978297938,39.61647013774241],[-86.5209863742422,39.61647220392839],[-86.52098864337722,39.61615695344375],[-86.52087062618058,39.61615901963909],[-86.52086526176254,39.61606604078819],[-86.5209671857051,39.61606397459008],[-86.52098596116821,39.61602265061503],[-86.52097791454116,39.61595239980082],[-86.52094036361495,39.61587388410054],[-86.52086794397155,39.61581809657518],[-86.52078479549209,39.6157871034861],[-86.5206962825946,39.615774706246604],[-86.52061313411514,39.615776772453344],[-86.52055680772582,39.61577057383295],[-86.52054071447174,39.615731315890834],[-86.52054707649445,39.61568619285626],[-86.52054573538994,39.61556531950007],[-86.52054439428544,39.61546200877192],[-86.52042101267075,39.61545890944772],[-86.52044381144738,39.615477505390984],[-86.52044112923836,39.6155467235804],[-86.52042101267075,39.61557151813888],[-86.52039150837159,39.61556222018047],[-86.52038882616257,39.61551159794068],[-86.5202118003676,39.61551056483337],[-86.5202118003676,39.61556531950007],[-86.52014340403771,39.61557151813887],[-86.5201330690627,39.61603242120473],[-86.52035166909741,39.61604688459675],[-86.52037312676953,39.616058248688375],[-86.52035971572445,39.61623387532167],[-86.520369103456,39.61625763653783],[-86.52043481757687,39.61625970273017],[-86.52042408874081,39.616313423708945],[-86.52057295134114,39.61632065537597],[-86.52057429244564,39.616338217992805],[-86.52074997713612,39.6163371848978],[-86.52075265934513,39.616319622280734],[-86.52078082253979,39.61632582085198],[-86.5207821636443,39.61627313297877],[-86.52081300904797,39.61628449703324],[-86.52084653666066,39.616307225136616],[-86.5208720176463,39.61634235037256],[-86.52088973361067,39.61638867707908],[-86.5208950980287,39.616506449720156],[-86.5208414538484,39.616535376303126],[-86.52061614829115,39.61653950867113],[-86.52065369921736,39.616584964702895],[-86.52065638142638,39.61665934723599],[-86.52066442805344,39.61677298706272],[-86.52061078387312,39.61681431058985],[-86.52061078387312,39.616878362008094],[-86.52066174584441,39.616925883989765],[-86.52068477607985,39.61695116243162],[-86.52068377333731,39.617007186796116],[-86.52193002891768,39.61700420388642],[-86.52192868781317,39.61694841727205],[-86.52200561366786,39.616951557409045]]]},"id":"3","properties":{"object":0}},{"type":"Feature","geometry":{"type":"Polygon","coordinates":[[[-86.52104522223121,39.62142518406556],[-86.52102912897712,39.621391094428596],[-86.52080382341987,39.621394193487184],[-86.52079577679282,39.6214964623431],[-86.5209003829444,39.621498528379036],[-86.5209003829444,39.62146857085194],[-86.52094061607963,39.62146753783353],[-86.52094598049766,39.621536750032725],[-86.52103985781318,39.621535717015334],[-86.52104522223121,39.62142518406556]]]},"id":"4","properties":{"object":0}},{"type":"Feature","geometry":{"type":"Polygon","coordinates":[[[-86.52064689116266,39.6214035078411],[-86.52064823226716,39.62128884259597],[-86.52055167274264,39.621288842595966],[-86.52055435495164,39.62133016342692],[-86.52041219787385,39.62133016342692],[-86.52040683345582,39.62140454086048],[-86.52064689116266,39.6214035078411]]]},"id":"5","properties":{"object":0}},{"type":"Feature","geometry":{"type":"Polygon","coordinates":[[[-86.52134419681478,39.61819253990467],[-86.52110413910795,39.61819047377002],[-86.52109341027189,39.61856444313295],[-86.52134419681478,39.61856547619466],[-86.52134419681478,39.61819253990467]]]},"id":"6","properties":{"object":0}},{"type":"Feature","geometry":{"type":"Polygon","coordinates":[[[-86.52202928987279,39.61560078355815],[-86.52202928987279,39.615538797171524],[-86.52202660766376,39.615481976268356],[-86.52178923216594,39.615483009376106],[-86.52174363461269,39.61549334045272],[-86.52176106897129,39.61554912823979],[-86.52175034013523,39.615595618028046],[-86.52202928987279,39.61560078355815]]]},"id":"7","properties":{"object":0}},{"type":"Feature","geometry":{"type":"Polygon","coordinates":[[[-86.52167523828281,39.615626611202856],[-86.52167657938732,39.61560491598194],[-86.5216725560738,39.61557908832914],[-86.52158538428081,39.615581154541715],[-86.52158940759433,39.615466479650316],[-86.52143652168049,39.61546751275828],[-86.52144322720302,39.61574541824442],[-86.52155587998165,39.615746451348215],[-86.52155319777263,39.61571752443557],[-86.52158940759433,39.61570616028801],[-86.5215840431763,39.61562454499163],[-86.52167523828281,39.615626611202856]]]},"id":"8","properties":{"object":0}},{"type":"Feature","geometry":{"type":"Polygon","coordinates":[[[-86.52177679733262,39.62198978066234],[-86.52182105378137,39.621987714641065],[-86.52181971267686,39.62192986602046],[-86.52177143291459,39.62193089903197],[-86.5217727740191,39.621869951326715],[-86.52168023780808,39.6218720173515],[-86.52167621449456,39.622074487481314],[-86.52177947954164,39.622074487481314],[-86.52177679733262,39.62198978066234]]]},"id":"9","properties":{"object":0}},{"type":"Feature","geometry":{"type":"Polygon","coordinates":[[[-86.50686586861711,39.62812288304745],[-86.5065212047587,39.62810738925974],[-86.50649974708658,39.628435856816445],[-86.5068457520495,39.6284513505306],[-86.50686586861711,39.62812288304745]]]},"id":"10","properties":{"object":0}},{"type":"Feature","geometry":{"type":"Polygon","coordinates":[[[-86.48754929730585,39.629083144772046],[-86.48750101754358,39.62908211186732],[-86.48749699423006,39.629032532421796],[-86.48738702366045,39.62903356532725],[-86.48738434145145,39.62917197452178],[-86.48744335004976,39.62917197452178],[-86.48750504085712,39.629167842908046],[-86.48754795620134,39.629167842908046],[-86.48754929730585,39.629083144772046]]]},"id":"11","properties":{"object":0}},{"type":"Feature","geometry":{"type":"Polygon","coordinates":[[[-86.48754259178331,39.62883111555895],[-86.48739372918298,39.6288280168334],[-86.48739238807848,39.62900464396806],[-86.4875399095743,39.62900567687396],[-86.48754259178331,39.62883111555895]]]},"id":"12","properties":{"object":0}},{"type":"Feature","geometry":{"type":"Polygon","coordinates":[[[-86.48803111140916,39.62935943039883],[-86.48803513472268,39.629319147263516],[-86.48802708809563,39.62927473249737],[-86.48784603898713,39.62927473249737],[-86.48785274450967,39.629321213065886],[-86.48784603898713,39.62935736459758],[-86.48803111140916,39.62935943039883]]]},"id":"13","properties":{"object":0}},{"type":"Feature","geometry":{"type":"Polygon","coordinates":[[[-86.48101743867161,39.629066898382284],[-86.48103621413473,39.62899046337212],[-86.48102548529866,39.62889646885197],[-86.48063254167798,39.62889440303689],[-86.48064729382756,39.62898013431021],[-86.48063254167798,39.62906070095217],[-86.48101743867161,39.629066898382284]]]},"id":"14","properties":{"object":0}},{"type":"Feature","geometry":{"type":"Polygon","coordinates":[[[-86.5001664414377,39.61663503973643],[-86.50017314696024,39.61659061682874],[-86.50017046475122,39.61654309461687],[-86.49987273955057,39.616550326259926],[-86.4998781039686,39.616595782284605],[-86.49987005734155,39.616634006645874],[-86.5001664414377,39.61663503973643]]]},"id":"15","properties":{"object":0}},{"type":"Feature","geometry":{"type":"Polygon","coordinates":[[[-86.50003233098695,39.6163870975616],[-86.50003769540498,39.616205272735606],[-86.49987005734155,39.61620423963862],[-86.49986469292352,39.61638399827879],[-86.50003233098695,39.6163870975616]]]},"id":"16","properties":{"object":0}},{"type":"Feature","geometry":{"type":"Polygon","coordinates":[[[-86.49985262298296,39.61669702514136],[-86.49985530519197,39.6165368960651],[-86.4996273174257,39.616534829881026],[-86.49962463521669,39.61669702514136],[-86.49985262298296,39.61669702514136]]]},"id":"17","properties":{"object":0}},{"type":"Feature","geometry":{"type":"Polygon","coordinates":[[[-86.4872573895318,39.593835757907684],[-86.48724531959124,39.59376238428576],[-86.48726141284533,39.59368384342123],[-86.48721045087404,39.59368177655518],[-86.48714071343966,39.59367660938976],[-86.48711389134951,39.59367557595663],[-86.48710048030443,39.593765484581205],[-86.48711657355852,39.593833691046164],[-86.4872573895318,39.593835757907684]]]},"id":"18","properties":{"object":0}},{"type":"Feature","geometry":{"type":"Polygon","coordinates":[[[-86.4870589060647,39.593861593671555],[-86.48704415391512,39.59380888870303],[-86.48706292937823,39.59375411683054],[-86.48706024716921,39.59369727804913],[-86.48699989746638,39.59369831148192],[-86.48697307537623,39.59369107745194],[-86.48691272567339,39.59369004401905],[-86.48691674898693,39.5937613508539],[-86.48690333794184,39.59380785527188],[-86.48691943119593,39.59386262710189],[-86.4870589060647,39.593861593671555]]]},"id":"19","properties":{"object":0}},{"type":"Feature","geometry":{"type":"Polygon","coordinates":[[[-86.48686176370211,39.593860560241176],[-86.48684701155253,39.593789253508426],[-86.48686310480662,39.59372621416184],[-86.48686578701563,39.59369934491472],[-86.48679739068575,39.59370037834749],[-86.48676520417757,39.59368487685427],[-86.48672765325136,39.59368797715317],[-86.48672228883333,39.59370864580913],[-86.48670485447474,39.593789253508426],[-86.48671826551981,39.593861593671555],[-86.48686176370211,39.593860560241176]]]},"id":"20","properties":{"object":0}},{"type":"Feature","geometry":{"type":"Polygon","coordinates":[[[-86.48709426707738,39.59338307947913],[-86.48709158486837,39.593266300943164],[-86.48694674558158,39.59326940126081],[-86.48694272226804,39.5933810126041],[-86.48698563761228,39.59338204604161],[-86.48709426707738,39.59338307947913]]]},"id":"21","properties":{"object":0}},{"type":"Feature","geometry":{"type":"Polygon","coordinates":[[[-86.48687164372915,39.59336137728822],[-86.48687969035619,39.593313839132],[-86.48675899095052,39.593313839132],[-86.48674826211446,39.593362410726044],[-86.48675899095052,39.593406848537555],[-86.4867911774587,39.59340891541182],[-86.48681665844434,39.59338307947913],[-86.486844821639,39.593409948848915],[-86.4868810314607,39.5934078819747],[-86.48687164372915,39.59336137728822]]]},"id":"22","properties":{"object":0}},{"type":"Feature","geometry":{"type":"Polygon","coordinates":[[[-86.48666779584401,39.59340788197469],[-86.48665974921697,39.5933644776016],[-86.48666913694852,39.593313839132],[-86.48654575533384,39.59331177225491],[-86.48653502649778,39.59336344416382],[-86.48654441422933,39.59340891541182],[-86.48657794184201,39.593412015723096],[-86.48659939951413,39.5933810126041],[-86.48663292712682,39.5934078819747],[-86.48666779584401,39.59340788197469]]]},"id":"23","properties":{"object":0}},{"type":"Feature","geometry":{"type":"Polygon","coordinates":[[[-86.48649324075714,39.5932895706492],[-86.48634437815682,39.59328647033246],[-86.48634571926132,39.59339084758693],[-86.48645300762192,39.59338671383726],[-86.48642216221825,39.59341358320566],[-86.48649055854813,39.59341254976861],[-86.48649324075714,39.5932895706492]]]},"id":"24","properties":{"object":0}},{"type":"Feature","geometry":{"type":"Polygon","coordinates":[[[-86.48626257078186,39.59335984445845],[-86.48627598182694,39.59331230630118],[-86.48614991800324,39.59331333973972],[-86.48614053027168,39.59335984445844],[-86.48614857689873,39.59340428227162],[-86.4861807634069,39.593405315708786],[-86.48620892660156,39.593378446337205],[-86.48623977200523,39.593406349145965],[-86.48627195851341,39.593406349145965],[-86.48626257078186,39.59335984445845]]]},"id":"25","properties":{"object":0}},{"type":"Feature","geometry":{"type":"Polygon","coordinates":[[[-86.48609858113076,39.59326657392358],[-86.48594703632142,39.593266573923586],[-86.48594703632142,39.59338645277148],[-86.4859805639341,39.59338645277148],[-86.48598190503861,39.593405054643085],[-86.48602347927834,39.59340918839166],[-86.48609992223527,39.59341228870293],[-86.48609858113076,39.59326657392358]]]},"id":"26","properties":{"object":0}},{"type":"Feature","geometry":{"type":"Polygon","coordinates":[[[-86.48664560163348,39.59380589702506],[-86.48663487279742,39.59376145946954],[-86.48664560163348,39.59371185472271],[-86.4865047856602,39.5937118547227],[-86.48649271571963,39.59375835917389],[-86.4865034445557,39.59380279673142],[-86.48664560163348,39.59380589702506]]]},"id":"27","properties":{"object":0}},{"type":"Feature","geometry":{"type":"Polygon","coordinates":[[[-86.5178862452006,39.62107075264093],[-86.51789026851412,39.62103356375478],[-86.51788222188708,39.62099637484865],[-86.5177749335265,39.62099947392492],[-86.51778298015353,39.62103872887905],[-86.51777895684,39.62106765356785],[-86.5178862452006,39.62107075264093]]]},"id":"28","properties":{"object":0}},{"type":"Feature","geometry":{"type":"Polygon","coordinates":[[[-86.51878245711977,39.62097027464734],[-86.5188414657181,39.620969241621495],[-86.51884683013613,39.620941349917835],[-86.51882805467302,39.62091139214956],[-86.51878245711977,39.620912425176265],[-86.51878513932878,39.62086077382195],[-86.51868992090877,39.62086077382196],[-86.51869394422228,39.620924821495564],[-86.5186630988186,39.62092895360152],[-86.5186630988186,39.620956845310154],[-86.51866041660959,39.62098990213548],[-86.51868455649073,39.62099196818652],[-86.51868723869974,39.62101779381956],[-86.51874356508905,39.62101882684466],[-86.5187878215378,39.62101779381956],[-86.51878245711977,39.62097027464734]]]},"id":"29","properties":{"object":0}},{"type":"Feature","geometry":{"type":"Polygon","coordinates":[[[-86.5187372821678,39.62161367852163],[-86.51879360855712,39.62161057947287],[-86.51879226745261,39.62147835326276],[-86.51884188831939,39.62148041929922],[-86.51885261715545,39.621444263651966],[-86.5188445705284,39.6214039759085],[-86.51872521222724,39.62140294288914],[-86.51869704903258,39.62142566931175],[-86.51869704903258,39.62148041929922],[-86.5186997312416,39.6214969475888],[-86.51871314228667,39.6215227730334],[-86.51873862327231,39.62153826829552],[-86.51874264658584,39.621580621994276],[-86.5187372821678,39.62161367852163]]]},"id":"30","properties":{"object":0}},{"type":"Feature","geometry":{"type":"Polygon","coordinates":[[[-86.51798957341602,39.621682928912655],[-86.51799627893855,39.621647806386946],[-86.51799091452052,39.621615782892086],[-86.51787021511485,39.62161681590828],[-86.51787423842838,39.62164883940267],[-86.5178796028464,39.62168086288223],[-86.51798957341602,39.621682928912655]]]},"id":"31","properties":{"object":0}},{"type":"Feature","geometry":{"type":"Polygon","coordinates":[[[-86.51845701491185,39.62225212674648],[-86.51840739404507,39.622239730664944],[-86.51836313759632,39.62224179667868],[-86.51834302102871,39.62234199827133],[-86.51843421613522,39.622354394334586],[-86.51845701491185,39.62225212674648]]]},"id":"32","properties":{"object":0}},{"type":"Feature","geometry":{"type":"Polygon","coordinates":[[[-86.51865287362898,39.62211036687818],[-86.51855899631346,39.62211553192207],[-86.51855765520895,39.62219817257213],[-86.51865421473349,39.62220023858712],[-86.51865287362898,39.62211036687818]]]},"id":"33","properties":{"object":0}},{"type":"Feature","geometry":{"type":"Polygon","coordinates":[[[-86.52125989380355,39.623543645939144],[-86.52122770729535,39.62346720482749],[-86.52104129376882,39.62346823781603],[-86.52107213917249,39.62356120672312],[-86.52105470481389,39.623605625156856],[-86.52123441281789,39.623606658143366],[-86.52125989380355,39.623543645939144]]]},"id":"34","properties":{"object":0}}]}