{"type":"FeatureCollection","features":[{"type":"Feature","geometry":{"type":"Polygon","coordinates":[[[-86.31086895419381,39.70645943830933],[-86.31120691252968,39.70619015139226],[-86.31124312235139,39.70615507179312],[-86.31127262665055,39.706118960422415],[-86.31128896908781,39.70608189217564],[-86.31131042675993,39.70601379636004],[-86.31133659867166,39.705879971212795],[-86.3113520213735,39.70578247007983],[-86.31135511171624,39.70570887666896],[-86.31134572398469,39.70552935022146],[-86.31132560741707,39.705415856249296],[-86.31129046429295,39.70527860486868],[-86.31124953192581,39.70516182714049],[-86.31120661658157,39.705066388531684],[-86.31118046504368,39.7050276971662],[-86.31115632516254,39.70500602999201],[-86.31114157301296,39.70498745812304],[-86.31109986733787,39.70492305113208],[-86.31105762254589,39.70487558962211],[-86.31102208327644,39.704837929922526],[-86.31098117958896,39.70480027020234],[-86.31092753540868,39.7047559039303],[-86.31088998448246,39.70478427771223],[-86.30984082919387,39.70560455094504],[-86.3098824034336,39.705635503780385],[-86.30983546477586,39.705672647164526],[-86.31085316814635,39.70644549066208],[-86.31086895419381,39.70645943830933]]]},"id":"0","properties":{"object":0}},{"type":"Feature","geometry":{"type":"Polygon","coordinates":[[[-86.30871758717407,39.70476247846555],[-86.30927146333565,39.704337386267376],[-86.30845473069061,39.704561282241855],[-86.30853117364754,39.70460771219168],[-86.3084882583033,39.704648983232],[-86.30866260188927,39.704781050395084],[-86.30871624606957,39.70473565233629],[-86.30871758717407,39.70476247846555]]]},"id":"1","properties":{"object":0}},{"type":"Feature","geometry":{"type":"Polygon","coordinates":[[[-86.30691955572259,39.706155943092284],[-86.30758548530198,39.70564474742258],[-86.30703416469393,39.70523154905984],[-86.30700868370829,39.705205754880325],[-86.3069389462739,39.70523154905984],[-86.30672302844822,39.7053708374626],[-86.30630010248017,39.70569182997288],[-86.30633027733158,39.70570936989246],[-86.30687068783928,39.70612216904281],[-86.3069190312792,39.70615611016629],[-86.30691955572259,39.706155943092284]]]},"id":"2","properties":{"object":0}},{"type":"Feature","geometry":{"type":"Polygon","coordinates":[[[-86.30973518811042,39.70830750120883],[-86.3098101326192,39.70824524172979],[-86.30996301853305,39.708112149473436],[-86.31012234298531,39.707961292120544],[-86.31028667839372,39.70778838204002],[-86.31033580148232,39.707732771830436],[-86.30985257747034,39.70736925312475],[-86.30918116689442,39.70787854300172],[-86.30938561497851,39.70803487660345],[-86.30965955042599,39.70824033191418],[-86.30972613866717,39.70829139957034],[-86.30973518811042,39.70830750120883]]]},"id":"3","properties":{"object":0}},{"type":"Feature","geometry":{"type":"Polygon","coordinates":[[[-86.30746833198764,39.70912791192282],[-86.3081662700252,39.70855890644261],[-86.30714599486278,39.70778109389883],[-86.3071037500708,39.70781410921455],[-86.30702529545711,39.70785898938403],[-86.30693812366412,39.70792605165182],[-86.30687634261893,39.70797352102914],[-86.30678961879318,39.70804385261648],[-86.30676042122619,39.708117511320665],[-86.30678268255282,39.70813381729097],[-86.30669819296885,39.70820500618188],[-86.30667539419223,39.70818798275811],[-86.30657950521996,39.708209648933064],[-86.3064889806657,39.70827774258149],[-86.30643466593314,39.70833087621499],[-86.30746833198764,39.70912791192282]]]},"id":"4","properties":{"object":0}},{"type":"Feature","geometry":{"type":"Polygon","coordinates":[[[-86.30027829808807,39.714790124471115],[-86.3014531056366,39.71386578313501],[-86.30153893632507,39.71387609951293],[-86.30161403817749,39.713816264499584],[-86.30056859353195,39.71301870300284],[-86.29929552789223,39.71400766192114],[-86.29920433278572,39.714069560038105],[-86.30023688668605,39.71482446465659],[-86.30027829808807,39.714790124471115]]]},"id":"5","properties":{"object":0}},{"type":"Feature","geometry":{"type":"Polygon","coordinates":[[[-86.31377063046574,39.719784442981684],[-86.31470511651091,39.71905515685337],[-86.31424010097051,39.71869264292411],[-86.31329530559954,39.71943221689588],[-86.31377063046574,39.719784442981684]]]},"id":"6","properties":{"object":0}},{"type":"Feature","geometry":{"type":"Polygon","coordinates":[[[-86.31781621473337,39.72204012483585],[-86.31782694356944,39.72187714517791],[-86.31792350309397,39.72158213038706],[-86.31804152029062,39.721369636434126],[-86.31818021987635,39.721188843389506],[-86.31830762480456,39.72106712293831],[-86.31843206104571,39.72096238391464],[-86.31803515679043,39.72053568665298],[-86.31793486010919,39.720604462858304],[-86.31786445212255,39.72065965006992],[-86.31777996253858,39.72073082603464],[-86.31765072371272,39.72085373016774],[-86.31758635069636,39.720925937464415],[-86.3175032022169,39.72102909061423],[-86.31742347262927,39.721143113520704],[-86.31747979901859,39.72116271256932],[-86.31784759449862,39.721301500922024],[-86.31788581597708,39.72131439500395],[-86.31789587426088,39.72132677332037],[-86.3178875891426,39.721346648775885],[-86.31785607318669,39.72139770929284],[-86.31783863882808,39.72140389844382],[-86.31781449894694,39.72139667776762],[-86.31737327556401,39.721231633533606],[-86.3173238671044,39.721326816943765],[-86.31725815298354,39.72147277775696],[-86.31718654319488,39.72169549468603],[-86.31716303285526,39.721818985380516],[-86.31715833898949,39.72184889942245],[-86.3171523040192,39.72188500255925],[-86.31714327752421,39.721999033204625],[-86.31714327752421,39.72209909020519],[-86.31736455976794,39.72208052293769],[-86.31758181869814,39.722061439907584],[-86.31780527701007,39.7220426052445],[-86.31781621473337,39.72204012483585]]]},"id":"7","properties":{"object":0}},{"type":"Feature","geometry":{"type":"Polygon","coordinates":[[[-86.31563082208764,39.72223363753783],[-86.31631346960381,39.722177095015915],[-86.31631369384235,39.72203434889789],[-86.31631570549911,39.72193687059631],[-86.31632514464886,39.72180146284291],[-86.31634861397772,39.721676648909984],[-86.31639158261349,39.721492811069915],[-86.31648790502562,39.721227680634726],[-86.31640542709842,39.72120550278438],[-86.31637189948573,39.72115959976921],[-86.31634038352982,39.721142063777826],[-86.31629612708106,39.72117713575615],[-86.31628942155852,39.72118796680466],[-86.31631959640994,39.72120498702033],[-86.31632965469375,39.72122561757917],[-86.31630819702163,39.72128132005716],[-86.31629210376754,39.72129008803571],[-86.31627399885669,39.72128802498204],[-86.31623443627372,39.721278225476226],[-86.31619730851578,39.72139237552652],[-86.31614634654449,39.72157186069386],[-86.31606722137855,39.72155999818285],[-86.31605515143798,39.72154916719274],[-86.3160491164677,39.72152750520746],[-86.3160316821091,39.72150532745355],[-86.31600351891444,39.72148624426425],[-86.31599077842162,39.721470255642124],[-86.31592908761428,39.721523379114245],[-86.31595658025668,39.72152905249235],[-86.31597602627205,39.72154246229325],[-86.31598943731711,39.72156206122839],[-86.31598340234683,39.72159042809828],[-86.31596865019725,39.721599196037545],[-86.31591500601695,39.72159300690407],[-86.31587928544353,39.72178895109259],[-86.31581155966592,39.721786888053835],[-86.3157914430983,39.72177657285914],[-86.31578205536674,39.7217549109453],[-86.31575724493335,39.72172912294372],[-86.31574115167928,39.721714681658646],[-86.31571701179813,39.7217286071836],[-86.3156942130215,39.7217549109453],[-86.3156854958422,39.72176471038335],[-86.31570963572334,39.72177296254066],[-86.31572103511166,39.72178946685227],[-86.31572304676841,39.72181112875528],[-86.31571500014137,39.721829180335924],[-86.31569890688728,39.721838464004115],[-86.31564459215473,39.721834337929494],[-86.31563905028896,39.721965985656475],[-86.31562966255741,39.72203251845234],[-86.31562998774527,39.72214484981077],[-86.31563082208764,39.72223363753783]]]},"id":"8","properties":{"object":0}},{"type":"Feature","geometry":{"type":"Polygon","coordinates":[[[-86.31859732060232,39.72452885808318],[-86.31877971081533,39.72400899102244],[-86.31857854513922,39.723947101825566],[-86.318358604,39.7238501419721],[-86.31813061623373,39.723732552179655],[-86.31788117079535,39.72356751353623],[-86.31740105538168,39.72393884992846],[-86.31742560531734,39.72396127285802],[-86.31744840409398,39.72397674515928],[-86.31751344766258,39.72402109907028],[-86.31780281949703,39.72419578517488],[-86.31798248208648,39.724289443886285],[-86.3180937937606,39.72433895500241],[-86.31819571770316,39.72438330868042],[-86.31833586312419,39.72444107156716],[-86.31841767049914,39.72446789003386],[-86.31859732060232,39.72452885808318]]]},"id":"9","properties":{"object":0}},{"type":"Feature","geometry":{"type":"Polygon","coordinates":[[[-86.32284713199094,39.710148155115625],[-86.32287797739461,39.710134743099275],[-86.32299599459127,39.71008212670225],[-86.32313144614652,39.70997998887579],[-86.32325138656488,39.70988199628077],[-86.32333386449208,39.709818546858685],[-86.3233814737021,39.70978295325489],[-86.32344987003198,39.709738074336975],[-86.32348809151046,39.70971382939216],[-86.32351357249608,39.709693195389846],[-86.32355917004934,39.70966946627956],[-86.32361256870395,39.70961958554103],[-86.3236481079734,39.70959121374753],[-86.32379692064178,39.709473316843855],[-86.3239531593169,39.70935054401128],[-86.32412644990364,39.709215481784696],[-86.32413986094872,39.70920516470979],[-86.32415729530732,39.70919949031792],[-86.32417472966591,39.70918659397107],[-86.32417808242718,39.70905401938558],[-86.32386345926535,39.70881397586463],[-86.3238279199959,39.70884286383424],[-86.32379841569674,39.70886452980353],[-86.32375617090476,39.70888877504683],[-86.32370118561997,39.70891663127328],[-86.32361334327472,39.708940360642494],[-86.32354156349062,39.70894403134024],[-86.32345036838413,39.70893474593638],[-86.32339068923353,39.70891565926892],[-86.3233564910686,39.708903278725046],[-86.3233041879928,39.70886407365479],[-86.32329278860449,39.70886613708009],[-86.32316911696618,39.70876886378839],[-86.32260179128507,39.70833943048401],[-86.32260497833106,39.70832900886762],[-86.32257346237513,39.70830734273016],[-86.32250199754036,39.708236115232026],[-86.32246779937542,39.708261392417846],[-86.3223870529589,39.70832546936732],[-86.32233514032711,39.708365816828774],[-86.3222177195194,39.70845744391796],[-86.32225594099786,39.7084744672752],[-86.32234512444761,39.70853637035711],[-86.32235920604494,39.7085363703571],[-86.32252342527802,39.70866446545874],[-86.3227335153604,39.70882196110588],[-86.3227247981811,39.708830214811776],[-86.32279788837675,39.708883863875975],[-86.32284952090029,39.708954020281624],[-86.32287619258469,39.70901886782369],[-86.32289228583878,39.70911584852877],[-86.32288155700272,39.709183425428805],[-86.32283041299017,39.709213999108826],[-86.32261784792574,39.7093862940354],[-86.32241081772811,39.70954697790632],[-86.32237594901092,39.70959392035211],[-86.32228223462155,39.70972294158942],[-86.32284713199094,39.710148155115625]]]},"id":"10","properties":{"object":0}},{"type":"Feature","geometry":{"type":"Polygon","coordinates":[[[-86.32250107739024,39.70823646419109],[-86.32246956143432,39.70818642565335],[-86.32245011715679,39.70812210369218],[-86.32244005887298,39.70801893123865],[-86.32245300778406,39.707951191820435],[-86.32248385318772,39.70787897094027],[-86.32252756667573,39.70781680559129],[-86.32260102700397,39.70775751697157],[-86.32130350042816,39.70677687243551],[-86.32136803138718,39.70672699363431],[-86.32116080432488,39.70656957543249],[-86.32209552208512,39.70583755035796],[-86.32153494040101,39.705413496547244],[-86.32056307401582,39.7061736457554],[-86.31920476500618,39.70513332729492],[-86.31865877411238,39.70556165742633],[-86.318951134895,39.70576800952809],[-86.31900343797079,39.705732929714344],[-86.3190758576142,39.70570558808241],[-86.31914358339182,39.7056932069625],[-86.31919013079953,39.705689869823054],[-86.31924243387532,39.70569399686346],[-86.31929607805561,39.70570586210327],[-86.31933899339985,39.705722886139455],[-86.31938392040085,39.70574558484782],[-86.31952864121195,39.70585792554267],[-86.31969359706635,39.70597915695669],[-86.32001645201963,39.70622866537114],[-86.32008015448373,39.70628025295574],[-86.32012172872346,39.70633596750381],[-86.32015094326242,39.70640762540439],[-86.32015429602369,39.706464887472414],[-86.3201469199489,39.70651544313262],[-86.32012757149394,39.70655050099728],[-86.32009940829928,39.70658970738219],[-86.32006386902985,39.70661446929807],[-86.32056369977728,39.706990393292664],[-86.32061667340533,39.706958925194535],[-86.32066763537661,39.706936226885325],[-86.32073402004974,39.70692590946959],[-86.32079504030482,39.70692384598625],[-86.32086544829146,39.70693364753153],[-86.32094725566641,39.70695686171218],[-86.32101851397766,39.70698835963109],[-86.32104131275429,39.70697030416616],[-86.32107551091923,39.706994034204804],[-86.32108326012077,39.70698612200278],[-86.32173394218351,39.70748297904566],[-86.3218425716486,39.70757067632221],[-86.32188951030636,39.70762123117219],[-86.3219310845461,39.70768829367109],[-86.32193999086054,39.70776134938377],[-86.32192657981547,39.707833570387066],[-86.32187695894869,39.70791094994957],[-86.32183538470898,39.707954282466666],[-86.32236042111111,39.708347530004325],[-86.32250107739024,39.70823646419109]]]},"id":"11","properties":{"object":0}},{"type":"Feature","geometry":{"type":"Polygon","coordinates":[[[-86.32235863522791,39.708348333915474],[-86.3218346797226,39.70795411959403],[-86.321772318363,39.707989714141384],[-86.32171666252594,39.7080129279667],[-86.32161763028276,39.70803124808716],[-86.32155593947542,39.70803176394971],[-86.32147346154821,39.708017319796596],[-86.32139701859128,39.70798378871521],[-86.32134002164972,39.70795747970146],[-86.32127781209988,39.70790242661077],[-86.32057871659771,39.70738342494044],[-86.32058542212025,39.70737517106148],[-86.32055524726883,39.70735040941864],[-86.32058273991123,39.70733441751958],[-86.32055524726883,39.70730398131435],[-86.32051903744713,39.707246719942695],[-86.32049659177446,39.70717349018283],[-86.32049256846093,39.707125514351524],[-86.3205133555808,39.707055356086514],[-86.32052944883489,39.70702698323851],[-86.32056431755208,39.706991904064814],[-86.32006433162833,39.70661453761635],[-86.3199878886714,39.70665477571059],[-86.31995338316452,39.706668380500346],[-86.3198695641328,39.706674055100386],[-86.31976562853347,39.70666115828148],[-86.31968516226303,39.70663536463638],[-86.31959608458044,39.706585301185406],[-86.31937949620249,39.706423316756336],[-86.31904478580513,39.70616781176872],[-86.31893481523552,39.70608062858619],[-86.31889625454036,39.70602817695076],[-86.31886876189796,39.70594924764232],[-86.31887882018177,39.70587547703061],[-86.31890899503318,39.70581563507784],[-86.31895250009498,39.7057688348773],[-86.31866013931236,39.70556248277801],[-86.31756056972735,39.70642254164632],[-86.31785293050997,39.70661031974133],[-86.31820221472266,39.70635506283612],[-86.31825854111197,39.706315856317836],[-86.31836582947257,39.70628284028517],[-86.31848518777373,39.70628077678262],[-86.31858442950728,39.706307602311156],[-86.3186783068228,39.70636641208725],[-86.31902735168887,39.70663077368858],[-86.31930554402001,39.7068439523721],[-86.31935717654355,39.706897602980845],[-86.31938936305173,39.70695641225402],[-86.319410012468,39.70704139496339],[-86.31940236823286,39.70709659470868],[-86.31938493387428,39.7071486975135],[-86.31934939460481,39.70720647483523],[-86.31931272631083,39.70724597517399],[-86.31925707047375,39.70729395092156],[-86.31913461002313,39.70738939518286],[-86.31960399660073,39.70771129566478],[-86.31974481257402,39.707591614891776],[-86.31981149602065,39.70755627559744],[-86.3198845862163,39.70752687122273],[-86.31995767641196,39.70751191109748],[-86.32003009605536,39.707509847631684],[-86.320100504042,39.707515522162495],[-86.32018164086472,39.70753615681611],[-86.32026829334033,39.70757359908612],[-86.32029109211696,39.70755605964047],[-86.3203252902819,39.707580305343576],[-86.32033132525218,39.707571535622165],[-86.32064954816121,39.70781601206785],[-86.32079706965703,39.707928470365395],[-86.321059509424,39.70812798563414],[-86.32108767261866,39.708156358029434],[-86.32116411557558,39.708238895840175],[-86.32117882351719,39.70828792871646],[-86.32119146185758,39.708346137261756],[-86.32118274467828,39.70840339772092],[-86.32116917534341,39.708440918769135],[-86.32113430662622,39.70849663157244],[-86.32109072072973,39.708538416145394],[-86.32134579694969,39.70873493059599],[-86.32158366653555,39.70854498864667],[-86.32160378310316,39.70854189349427],[-86.3216480395519,39.70850423579574],[-86.32170973035925,39.708469673232436],[-86.32177381807959,39.7084447995242],[-86.32186836594737,39.708421585844164],[-86.32199711198008,39.70841487966849],[-86.32207955711547,39.708420575963224],[-86.32216203504268,39.70843656761051],[-86.32221727779995,39.708458021336355],[-86.32235863522791,39.708348333915474]]]},"id":"12","properties":{"object":0}},{"type":"Feature","geometry":{"type":"Polygon","coordinates":[[[-86.39792582274222,39.75312263679211],[-86.39781048775458,39.7531216057416],[-86.39781078029213,39.752991312217894],[-86.39804681468544,39.75298718800787],[-86.39805486131249,39.75287480318983],[-86.39808302450714,39.75287274108138],[-86.39808544936217,39.75268581817097],[-86.39804789843598,39.75268272499978],[-86.39805058064498,39.75259611614953],[-86.39783063950576,39.752596116149526],[-86.3978333654856,39.75250661734585],[-86.39797015814536,39.7525055862861],[-86.3979594293093,39.75247774766738],[-86.39796332849994,39.75242608510935],[-86.39783324136272,39.75242092980448],[-86.39783592357173,39.75232813425097],[-86.39812340229085,39.752100104608985],[-86.39802952497533,39.752019681428614],[-86.39799197404912,39.75199184261353],[-86.39796246974996,39.751984625141105],[-86.39787127464345,39.751913481444],[-86.39758293717435,39.75214031616397],[-86.39754940956166,39.75213928509874],[-86.39754806845716,39.75203514743212],[-86.39732678621343,39.75203617849889],[-86.39732544510892,39.752071234760166],[-86.39728387086919,39.752072265826406],[-86.39727984755568,39.752091856081975],[-86.39701430886319,39.752088762884114],[-86.39700971410832,39.752459343803686],[-86.39724440739711,39.7524675922867],[-86.39724574850162,39.75252017634256],[-86.39721490309795,39.752518114223456],[-86.39721165753608,39.752595892742036],[-86.3970547483087,39.75259486168363],[-86.3970534072042,39.75268353264961],[-86.39701585627799,39.752680439478326],[-86.397018538487,39.75287221583695],[-86.39705608941321,39.75287221583695],[-86.39705866827214,39.75299159868463],[-86.39729336156094,39.75298541236955],[-86.39729336156094,39.75312151117328],[-86.3971780265733,39.753119449072194],[-86.39718070878232,39.75333596934859],[-86.39792770399296,39.753338031443214],[-86.39792582274222,39.75312263679211]]]},"id":"13","properties":{"object":0}},{"type":"Feature","geometry":{"type":"Polygon","coordinates":[[[-86.4119655429007,39.75128501341328],[-86.4116946397902,39.75129326203689],[-86.41158735142962,39.7513015106595],[-86.41152566062226,39.75132625652145],[-86.41146665202395,39.751318007901794],[-86.41130571948305,39.751318007901794],[-86.41116356240525,39.751332442985564],[-86.41104822741761,39.75132831867622],[-86.410938256848,39.75133656729464],[-86.41089265929475,39.75134687806629],[-86.41080682860627,39.75136956175847],[-86.41075184332146,39.751378841448556],[-86.41075076176651,39.75141799943933],[-86.41066090776451,39.75142521697111],[-86.410771251102,39.752095177059225],[-86.41079941429666,39.752090021729614],[-86.41087988056711,39.75208795959765],[-86.4108959738212,39.75210548771732],[-86.41090133823923,39.75213951287809],[-86.41128630742953,39.75210274569085],[-86.41163633570598,39.7520635651803],[-86.41199038729594,39.75203160211573],[-86.41197965845988,39.75199035942985],[-86.41199843392299,39.75197180021314],[-86.41207085356639,39.75196767594208],[-86.4119655429007,39.75128501341328]]]},"id":"14","properties":{"object":0}},{"type":"Feature","geometry":{"type":"Polygon","coordinates":[[[-86.40571253243488,39.75129986647606],[-86.40569509807628,39.75125862335207],[-86.40567766371768,39.75119160322293],[-86.40563474837344,39.751199851857734],[-86.40559853855174,39.75119469646108],[-86.40550600234073,39.75121738020338],[-86.4055180722813,39.751251405802826],[-86.40553014222186,39.75130605294252],[-86.40554355326694,39.75133079880283],[-86.40571253243488,39.75129986647606]]]},"id":"15","properties":{"object":0}},{"type":"Feature","geometry":{"type":"Polygon","coordinates":[[[-86.40535848084491,39.75134007849815],[-86.40536518636745,39.75122975315059],[-86.40533165875476,39.75122872207173],[-86.40529947224658,39.75122769099287],[-86.40526058021587,39.75121634912434],[-86.40519218388599,39.7512194423614],[-86.40518503720284,39.75134402462784],[-86.40535848084491,39.75134007849815]]]},"id":"16","properties":{"object":0}},{"type":"Feature","geometry":{"type":"Polygon","coordinates":[[[-86.40589582259179,39.751227512813614],[-86.40603797966958,39.75114915077464],[-86.40600042874337,39.75110996972171],[-86.40597226554871,39.75107285080891],[-86.40594946677209,39.75105738458934],[-86.4059172802639,39.75107594405242],[-86.40588643486024,39.751091410267826],[-86.4058622949791,39.75110584539905],[-86.4058073096943,39.75112337376865],[-86.40585558945656,39.751188331805274],[-86.40589582259179,39.751227512813614]]]},"id":"17","properties":{"object":0}},{"type":"Feature","geometry":{"type":"Polygon","coordinates":[[[-86.40503233760658,39.7512222020846],[-86.40498808115784,39.751226326400285],[-86.40495053023163,39.75122013992666],[-86.40485799402062,39.75121498453155],[-86.40485262960259,39.75124179258193],[-86.40485262960259,39.751337682830574],[-86.40502429097954,39.751340776062186],[-86.40503233760658,39.7512222020846]]]},"id":"18","properties":{"object":0}},{"type":"Feature","geometry":{"type":"Polygon","coordinates":[[[-86.40475204676453,39.751211891294304],[-86.40469437927071,39.751212922373405],[-86.40465414613548,39.75121910884767],[-86.40462330073181,39.751224264242495],[-86.40457367986504,39.75121395345249],[-86.40457770317856,39.751240761503276],[-86.4045857498056,39.751335620676116],[-86.40475741118256,39.751335620676116],[-86.40475204676453,39.751211891294304]]]},"id":"19","properties":{"object":0}},{"type":"Feature","geometry":{"type":"Polygon","coordinates":[[[-86.40440215043493,39.75121248953844],[-86.40436459950872,39.75121661385471],[-86.40423048905798,39.75120733414275],[-86.40423183016249,39.75125579484696],[-86.4042345123715,39.75133106353274],[-86.40440751485296,39.751330032455414],[-86.40440215043493,39.75121248953844]]]},"id":"20","properties":{"object":0}},{"type":"Feature","geometry":{"type":"Polygon","coordinates":[[[-86.40407492093512,39.75136612015284],[-86.40407492093512,39.75121352061753],[-86.40400652460524,39.751214551696584],[-86.40397702030607,39.75120527198435],[-86.40397299699255,39.75122486248648],[-86.4039099650807,39.75122589356542],[-86.40392069391676,39.75136612015284],[-86.40407492093512,39.75136612015284]]]},"id":"21","properties":{"object":0}},{"type":"Feature","geometry":{"type":"Polygon","coordinates":[[[-86.40399158770902,39.7508553107829],[-86.4039526956783,39.7508553107829],[-86.40394867236478,39.75077385506363],[-86.40378908092839,39.750775917234925],[-86.40378639871938,39.75093573532267],[-86.40381187970502,39.75094707723738],[-86.40383870179517,39.75094089073869],[-86.40386820609433,39.75093573532267],[-86.40391112143857,39.75094501507122],[-86.40394867236478,39.75093573532267],[-86.40399158770902,39.75093676640591],[-86.40399158770902,39.7508553107829]]]},"id":"22","properties":{"object":0}},{"type":"Feature","geometry":{"type":"Polygon","coordinates":[[[-86.40367911035878,39.7508645905423],[-86.40365765268666,39.75086355945799],[-86.40365631158215,39.750787259175944],[-86.4036093729244,39.75078829026139],[-86.40360669071538,39.750747046831144],[-86.40355438763959,39.750747046831144],[-86.40355438763959,39.75079035243227],[-86.40345916921956,39.75079138351767],[-86.40345514590604,39.75093573532267],[-86.40349269683226,39.75092542448948],[-86.40356109316212,39.75092542448949],[-86.40356109316212,39.75094810832046],[-86.40362546617848,39.75094913940349],[-86.40368045146329,39.75094707723738],[-86.40367911035878,39.7508645905423]]]},"id":"23","properties":{"object":0}},{"type":"Feature","geometry":{"type":"Polygon","coordinates":[[[-86.32109467119118,39.708542403761655],[-86.31658574205562,39.71207944859726],[-86.31266961961296,39.71514956512349],[-86.31231825023201,39.71541984868481],[-86.31258438059028,39.715597286172084],[-86.32134544590036,39.70873363936154],[-86.32109467119118,39.708542403761655]]]},"id":"24","properties":{"object":0}},{"type":"Feature","geometry":{"type":"Polygon","coordinates":[[[-86.31913271441228,39.70739134118845],[-86.31113269313019,39.713662163944996],[-86.3105399249379,39.71409751503644],[-86.31101481610673,39.71446349067688],[-86.31168229746854,39.71391310966604],[-86.31960254915754,39.70770995218787],[-86.31913271441228,39.70739134118845]]]},"id":"25","properties":{"object":0}},{"type":"Feature","geometry":{"type":"Polygon","coordinates":[[[-86.3175620655414,39.70642443366716],[-86.3118186166834,39.7109321786859],[-86.30970463317077,39.71258674394827],[-86.30934521716277,39.71287560730246],[-86.30968317549865,39.7131025705179],[-86.31055002355373,39.71237079301437],[-86.31784767060138,39.706608435253514],[-86.3175620655414,39.70642443366716]]]},"id":"26","properties":{"object":0}},{"type":"Feature","geometry":{"type":"Polygon","coordinates":[[[-86.28958526068372,39.73522553909715],[-86.29013336618702,39.73479952201629],[-86.2901206256942,39.73478508346871],[-86.28910841517647,39.73402170397273],[-86.28902408902984,39.734088153302196],[-86.28854143543967,39.733717734003996],[-86.2885119311405,39.733696075841614],[-86.28730799645584,39.7327820118274],[-86.28728787988823,39.732770666922505],[-86.28665628822864,39.73228606792141],[-86.28652687164367,39.732192213886],[-86.28630641657621,39.73202207168683],[-86.28623131472378,39.731964315151295],[-86.28611732084065,39.73187922730989],[-86.28570429651543,39.73156577914119],[-86.28553397624299,39.73143685738302],[-86.28533181186371,39.731282415301926],[-86.28522854681663,39.731205061958],[-86.28505048046524,39.73106967509838],[-86.28485666670444,39.73092150199542],[-86.28471316852215,39.73081320672262],[-86.28447222340421,39.7306311511622],[-86.28437700498418,39.730557922640315],[-86.2840762985117,39.730327920992124],[-86.28393682364293,39.73022065618011],[-86.28371500279042,39.73005246711369],[-86.28365264143082,39.73000502289324],[-86.28348462967762,39.72987773771375],[-86.282812327322,39.72936659952838],[-86.28261803062655,39.72921757825746],[-86.28255432816245,39.729172196280295],[-86.28238740194254,39.72904644721991],[-86.282290842418,39.72897115419092],[-86.28219495344572,39.72889792390578],[-86.28136595038517,39.728264965250716],[-86.28130090681655,39.72821751980013],[-86.28032771360482,39.72747715614992],[-86.28024791788663,39.72741784865391],[-86.27890474579644,39.726394492366275],[-86.27866871140313,39.72621501975158],[-86.27791784663293,39.725645421984936],[-86.27733625429657,39.7252019846164],[-86.27411410830523,39.722744649941646],[-86.27316997073198,39.72204322293025],[-86.26965030909673,39.71923123434323],[-86.26912459612981,39.719660360977464],[-86.27004727603094,39.72034530757276],[-86.2709693261847,39.720943223973876],[-86.27246190890583,39.72207803498737],[-86.27257456168446,39.722161587654696],[-86.27372084214883,39.72303407708271],[-86.2751632624412,39.724129784645065],[-86.27613954914356,39.724869417564555],[-86.27680830475295,39.725380953327324],[-86.27690218206847,39.72545315588349],[-86.27753825104458,39.72593710541133],[-86.27756842589599,39.72596237611076],[-86.27824552522814,39.726473169172166],[-86.2783635424248,39.72656599954569],[-86.27938925965834,39.72734283320456],[-86.2798842653297,39.72772206350385],[-86.28002508130298,39.72782933220341],[-86.28064802440778,39.72830326933459],[-86.28096707050928,39.728545081809834],[-86.28260071069958,39.72978838069102],[-86.28394565665617,39.73080824138824],[-86.28408110821142,39.7309108640631],[-86.28416962110892,39.73097996668273],[-86.28486589258883,39.731508429315575],[-86.28565657705113,39.73211137220627],[-86.2870102922006,39.73313878751207],[-86.28808651484086,39.7339568160984],[-86.28812970415228,39.734056770816544],[-86.2881398391357,39.734171325546185],[-86.28813136147852,39.73426362022107],[-86.2881085627019,39.734331172482214],[-86.28807838785048,39.734379129390774],[-86.2880522363126,39.734405943991746],[-86.28782198020845,39.734575362602975],[-86.28811509351796,39.734800825455686],[-86.28856347251721,39.73445575118817],[-86.28861376393624,39.73449081639456],[-86.28958526068372,39.73522553909715]]]},"id":"27","properties":{"object":0}},{"type":"Feature","geometry":{"type":"Polygon","coordinates":[[[-86.27720467221147,39.68301953673273],[-86.27720400165921,39.68300560339417],[-86.2772187538088,39.68300715154303],[-86.27721473049527,39.68286936615792],[-86.27717919122583,39.68287607481597],[-86.2771389580906,39.68287246246172],[-86.27713828753835,39.68288639582714],[-86.27712487649327,39.68288639582714],[-86.27712353538877,39.682878139018335],[-86.27710744213468,39.68287143036045],[-86.2770926899851,39.68288071927121],[-86.27709738385087,39.682893620534045],[-86.277076596731,39.682900845240184],[-86.27707994949228,39.68299012190358],[-86.27713225256808,39.682988573754336],[-86.27713225256808,39.68300560339417],[-86.27715438079244,39.68300560339417],[-86.2771563924492,39.683020052782254],[-86.27720467221147,39.68301953673273]]]},"id":"28","properties":{"object":0}},{"type":"Feature","geometry":{"type":"Polygon","coordinates":[[[-86.27700082432634,39.68298238115699],[-86.2769941188038,39.68294161321062],[-86.27698808383352,39.68288071927121],[-86.2768579966963,39.68289516868542],[-86.27686067890532,39.68291323044891],[-86.27684056233771,39.682923035404286],[-86.27682715129262,39.68293903296003],[-86.27682916294938,39.68295141816194],[-86.27683251571065,39.68300663549343],[-86.27681642245656,39.68300611944379],[-86.27681977521783,39.68302263302981],[-86.2768331862629,39.68302108488128],[-86.27683720957643,39.68303605031553],[-86.27691968750364,39.68303347006849],[-86.27700618874437,39.68302521327726],[-86.27700082432634,39.68298238115699]]]},"id":"29","properties":{"object":0}},{"type":"Feature","geometry":{"type":"Polygon","coordinates":[[[-86.27655126945884,39.682592693440505],[-86.27654121117503,39.68248690255308],[-86.27644733385952,39.682495675462135],[-86.2764446516505,39.68248638649959],[-86.27643258170993,39.682485354392576],[-86.27642051176936,39.68249257914141],[-86.27640240685851,39.68250806074355],[-86.27638966636569,39.68250857679689],[-86.27640173630625,39.68260972317795],[-86.27647147374064,39.682605594757135],[-86.27647750871094,39.682642750535614],[-86.2765184123984,39.6826489431634],[-86.27655864553363,39.68263913816916],[-86.27655126945884,39.682592693440505]]]},"id":"30","properties":{"object":0}},{"type":"Feature","geometry":{"type":"Polygon","coordinates":[[[-86.27681406099451,39.6825849651229],[-86.27680601436747,39.68256999959091],[-86.2767952855314,39.68246885315164],[-86.27663502354277,39.68248072238433],[-86.27664441127432,39.6825772243309],[-86.27664843458784,39.68259993065167],[-86.2766765977825,39.68260147880964],[-86.27670543152941,39.68259683433564],[-86.27670341987265,39.68258393301735],[-86.27673225361956,39.682581868806196],[-86.27673694748533,39.68262470117491],[-86.27677852172508,39.68262418512242],[-86.27681607265127,39.68261850854491],[-86.27681406099451,39.6825849651229]]]},"id":"31","properties":{"object":0}},{"type":"Feature","geometry":{"type":"Polygon","coordinates":[[[-86.27706685919416,39.68255606616165],[-86.27705881256712,39.682493623721896],[-86.27689318616045,39.68250549295034],[-86.27689788002623,39.68256587116771],[-86.27690726775778,39.68261438012464],[-86.27695219475878,39.6826133480195],[-86.27699443955076,39.682607155388524],[-86.27707021195545,39.68260302696755],[-86.27706685919416,39.68255606616165]]]},"id":"32","properties":{"object":0}},{"type":"Feature","geometry":{"type":"Polygon","coordinates":[[[-86.2767356336282,39.683022241118486],[-86.27676983179315,39.68301914482137],[-86.27676647903188,39.68299282629047],[-86.27676245571836,39.68295102625017],[-86.2767356336282,39.68294741389985],[-86.27673093976243,39.682917999039994],[-86.27670009435876,39.68292315954263],[-86.27669271828397,39.682902517529755],[-86.27661493422254,39.682907161983195],[-86.2766357213424,39.683045979391565],[-86.27673965694173,39.683039270749994],[-86.2767356336282,39.683022241118486]]]},"id":"33","properties":{"object":0}},{"type":"Feature","geometry":{"type":"Polygon","coordinates":[[[-86.27656399783643,39.68291135534361],[-86.27646341499837,39.682919612148446],[-86.27643189904245,39.68292735290208],[-86.27639568922075,39.682925288701206],[-86.27641178247484,39.68303159496645],[-86.276576067777,39.683019209778905],[-86.27656399783643,39.68291135534361]]]},"id":"34","properties":{"object":0}},{"type":"Feature","geometry":{"type":"Polygon","coordinates":[[[-86.27733050326412,39.68255178185684],[-86.27731843332356,39.682550233697754],[-86.27731373945778,39.68251101365624],[-86.27730569283074,39.68244083036845],[-86.27722857932156,39.68244341063764],[-86.27723059097832,39.682461988573024],[-86.27721919159,39.68246044041192],[-86.27721986214226,39.68243102534461],[-86.27718633452957,39.682438250099146],[-86.2771541480214,39.68243618588367],[-86.2771554891259,39.68246766516338],[-86.27713939587181,39.68246714910973],[-86.2771454308421,39.68252752736064],[-86.27714811305111,39.68257706845015],[-86.27716554740971,39.68258171292548],[-86.27718231121605,39.68258274503105],[-86.27721315661972,39.682574488185956],[-86.27724266091889,39.68256674739276],[-86.27724668423241,39.68258480924218],[-86.27728490571087,39.682587389506],[-86.27732916215962,39.68258016476709],[-86.27733050326412,39.68255178185684]]]},"id":"35","properties":{"object":0}},{"type":"Feature","geometry":{"type":"Polygon","coordinates":[[[-86.27631319732765,39.68257326913187],[-86.27619450957874,39.68258771861043],[-86.2761241015921,39.682592363085014],[-86.27613348932366,39.68265583753998],[-86.2762038973103,39.68265067701737],[-86.2762052384148,39.6826651264797],[-86.27632459671597,39.68265841780112],[-86.27631319732765,39.68257326913187]]]},"id":"36","properties":{"object":0}}]}