{"type":"FeatureCollection","features":[{"type":"Feature","geometry":{"type":"Polygon","coordinates":[[[-86.50062030113857,39.62509458577077],[-86.50063102997463,39.623669080391196],[-86.50064980543773,39.62351413238486],[-86.5000328973643,39.62351413238487],[-86.5000328973643,39.62334885412904],[-86.49479722536724,39.623338524224934],[-86.49479722536724,39.62350380250546],[-86.49440564436786,39.62351257466244],[-86.49441209966679,39.62507614271535],[-86.50062030113857,39.62509458577077]]]},"id":"0","properties":{"object":1}},{"type":"Feature","geometry":{"type":"Polygon","coordinates":[[[-86.49279280033954,39.62507333739061],[-86.49279702139526,39.62364416099265],[-86.49281847906738,39.62364622696446],[-86.49281713796287,39.623503674764315],[-86.49262133670479,39.623506773728295],[-86.49246845079094,39.623498509824],[-86.49247249175211,39.62332839099616],[-86.48974169834828,39.62332943360755],[-86.48974169834828,39.62349884386226],[-86.48950347924355,39.62349057275378],[-86.4895053662588,39.6250645173591],[-86.49279280033954,39.62507333739061]]]},"id":"1","properties":{"object":1}},{"type":"Feature","geometry":{"type":"Polygon","coordinates":[[[-86.47543716069391,39.62183373425361],[-86.47528159257106,39.62183580027946],[-86.47529267199137,39.621519615824184],[-86.47325245878777,39.62151301489917],[-86.47318808577141,39.62149855264936],[-86.47319429784925,39.621816843055974],[-86.47297569781453,39.621817876069166],[-86.4729787593777,39.62443095404106],[-86.47319870051692,39.62443301998939],[-86.47320406493495,39.62461895508634],[-86.47542045615921,39.62462379038648],[-86.47543716069391,39.62183373425361]]]},"id":"2","properties":{"object":1}},{"type":"Feature","geometry":{"type":"Polygon","coordinates":[[[-86.47099895863646,39.623168592775635],[-86.47097741590457,39.62186955733936],[-86.47050937043147,39.62186955733936],[-86.47050534711795,39.62170530817059],[-86.46758551377832,39.62172351535937],[-86.46758417267381,39.62188879749705],[-86.46716069092496,39.621885676153205],[-86.4671499620889,39.62193732674261],[-86.46712448110327,39.621938359754026],[-86.46713712159196,39.62325945411086],[-86.46767757073505,39.62325245814574],[-86.46764940754039,39.623361955186894],[-86.4679940713988,39.62335885621639],[-86.46799138918979,39.623340262390606],[-86.47053477098612,39.62332740519855],[-86.47053074767258,39.623169357448205],[-86.47099895863646,39.623168592775635]]]},"id":"3","properties":{"object":1}},{"type":"Feature","geometry":{"type":"Polygon","coordinates":[[[-86.46068870266836,39.62483922199153],[-86.46113394936484,39.624544825461044],[-86.46126537760657,39.624646056690004],[-86.46511906492172,39.62216368210764],[-86.46499836551605,39.62207690937925],[-86.46556295482188,39.621712467867155],[-86.46428188963547,39.62050590105393],[-86.4637088308261,39.62087261429181],[-86.46355594491226,39.62071249487583],[-86.45971856101035,39.62314577901722],[-86.45986340029715,39.62327593605867],[-86.45941997557983,39.6235980008427],[-86.46068870266836,39.62483922199153]]]},"id":"4","properties":{"object":1}},{"type":"Feature","geometry":{"type":"Polygon","coordinates":[[[-86.47129014258594,39.61975943575583],[-86.47127404933185,39.61847431719952],[-86.47122174625606,39.61847535026261],[-86.47122318182537,39.61830065487056],[-86.46784309715927,39.6183154431818],[-86.46784041495026,39.61848796489927],[-86.46740455598534,39.61848899796213],[-86.46739920052894,39.619844362613186],[-86.46785249385246,39.61984229652787],[-86.46786322268852,39.619945600718204],[-86.47083872454401,39.619925094618125],[-86.470836042335,39.61976187387842],[-86.47129014258594,39.61975943575583]]]},"id":"5","properties":{"object":1}},{"type":"Feature","geometry":{"type":"Polygon","coordinates":[[[-86.47359006464525,39.62040930585093],[-86.47460393965288,39.620398975508046],[-86.4746066218619,39.62041653709004],[-86.47486679613634,39.62041033888515],[-86.47487216055437,39.62027397823701],[-86.47485070288225,39.620275011273236],[-86.47485172306928,39.62020383507493],[-86.47502606665525,39.62020383507493],[-86.47501212750359,39.61885899259289],[-86.47484717164917,39.61886105870757],[-86.47485206535696,39.61812368721834],[-86.47356460502981,39.61812781949152],[-86.47356178294571,39.61884165489054],[-86.47357519399078,39.6193829749612],[-86.4735686227469,39.61957377325487],[-86.47357264606042,39.61971220137183],[-86.47354448286576,39.61984236487106],[-86.47353359418733,39.62001396539092],[-86.47354298191888,39.62008834423901],[-86.47356898472533,39.620209693958344],[-86.4735810546659,39.62032022884943],[-86.47358106092271,39.620379774623686],[-86.47359006464525,39.62040930585093]]]},"id":"6","properties":{"object":1}},{"type":"Feature","geometry":{"type":"Polygon","coordinates":[[[-86.49257444137223,39.608273320332486],[-86.49257712358124,39.60809973993874],[-86.49272196286805,39.60810180637455],[-86.49273851911622,39.60446925396797],[-86.49245956937867,39.60447132051216],[-86.49245688716965,39.60427706509097],[-86.49009023894743,39.60427496685777],[-86.49008797188598,39.60473174597061],[-86.49026097436744,39.60473691231133],[-86.49026633878547,39.604844372110826],[-86.49010677500898,39.604844193682034],[-86.49008704090215,39.608155729448214],[-86.49033916854955,39.60815779588238],[-86.49033112192251,39.60826111751111],[-86.49038208389379,39.60826731680394],[-86.49257444137223,39.608273320332486]]]},"id":"7","properties":{"object":1}},{"type":"Feature","geometry":{"type":"Polygon","coordinates":[[[-86.48789902574683,39.60649770698799],[-86.48789366132878,39.60479490351427],[-86.48771127111577,39.60478663737586],[-86.48773272878789,39.60462544747967],[-86.48164534744431,39.60459345572941],[-86.48164534744431,39.604762911842286],[-86.48136639770676,39.60476704491305],[-86.48132884678056,39.6063871896428],[-86.48132080015351,39.606467782587316],[-86.48139590200593,39.60646984907183],[-86.48139321979691,39.606448150981265],[-86.48148709711243,39.60644608449609],[-86.48148977932145,39.60646468286043],[-86.48156622227837,39.606465716102726],[-86.48156890448739,39.60644711773868],[-86.48175263580491,39.60645745016377],[-86.48182907876183,39.60645745016377],[-86.48192161497285,39.606454350436415],[-86.48192295607736,39.606320028784054],[-86.48199910981126,39.60631936090299],[-86.48200447422929,39.60649604548566],[-86.48720891904867,39.60652084014775],[-86.48721160125768,39.606343122384196],[-86.48730011415518,39.606341055895896],[-86.48730011415518,39.606481576960185],[-86.48789902574683,39.60649770698799]]]},"id":"8","properties":{"object":1}},{"type":"Feature","geometry":{"type":"Polygon","coordinates":[[[-86.48921669389941,39.60838734440317],[-86.48879290487506,39.60838941083041],[-86.48878485824801,39.60852786131467],[-86.48859978582598,39.60852579489156],[-86.48859442140795,39.608354281559045],[-86.48666879138646,39.60834350627822],[-86.4866741558045,39.60837863555508],[-86.48624768457113,39.60837036984448],[-86.48622361541588,39.60988110085718],[-86.48599696875412,39.609876968091704],[-86.48599428654511,39.61004331170782],[-86.48890582443077,39.61006707504892],[-86.48888973117668,39.60989763191668],[-86.48919550300438,39.609901764680934],[-86.48921669389941,39.60838734440317]]]},"id":"9","properties":{"object":1}},{"type":"Feature","geometry":{"type":"Polygon","coordinates":[[[-86.48567472449453,39.60988888617665],[-86.48571227542074,39.60841347338619],[-86.48530055633695,39.608428971583095],[-86.48529385081443,39.60856638877727],[-86.48516573228127,39.60856440780705],[-86.48516439117677,39.60838359564764],[-86.4829045548716,39.60838232588838],[-86.4829045548716,39.608420554785006],[-86.48250088241487,39.608407123012924],[-86.48250034783797,39.609862694771074],[-86.48268876022631,39.609866495392545],[-86.4826874191218,39.610023540331504],[-86.4854042408092,39.61003969582094],[-86.48540692301822,39.609882650918635],[-86.48567472449453,39.60988888617665]]]},"id":"10","properties":{"object":1}},{"type":"Feature","geometry":{"type":"Polygon","coordinates":[[[-86.49286490589073,39.61783887107798],[-86.49286408874983,39.61634898841338],[-86.49250467274182,39.61635105460299],[-86.49249930832379,39.61618575924027],[-86.48830255588216,39.61618575449066],[-86.48830523809117,39.616346917474104],[-86.48806115707082,39.616347950568944],[-86.48805829906028,39.616751375656364],[-86.48787322663826,39.61675137565637],[-86.48785762884457,39.617447722843806],[-86.48807622887928,39.617449789000595],[-86.4880597236827,39.61782618144043],[-86.48816269728869,39.6178326380606],[-86.48873568712355,39.61783804788648],[-86.48873568712355,39.617993008601445],[-86.49254080845671,39.617997559280184],[-86.49253544403867,39.617840532430336],[-86.49286490589073,39.61783887107798]]]},"id":"11","properties":{"object":1}},{"type":"Feature","geometry":{"type":"Polygon","coordinates":[[[-86.49832271704224,39.621603469430354],[-86.49834828261103,39.620022181062915],[-86.49790437701907,39.62002734626268],[-86.49790705922808,39.61985999359458],[-86.49422837958106,39.61984246507298],[-86.49423374399909,39.62000568562265],[-86.49394138321647,39.61999948738097],[-86.49392392604393,39.62157627300436],[-86.49398561685128,39.621578339037924],[-86.49422753214193,39.62158362150487],[-86.49422753214193,39.62174477191969],[-86.49797647137432,39.6217423976932],[-86.49797915358333,39.6216008745877],[-86.49832271704224,39.621603469430354]]]},"id":"12","properties":{"object":1}},{"type":"Feature","geometry":{"type":"Polygon","coordinates":[[[-86.49305130784671,39.620009149905634],[-86.49271871392887,39.620013282066246],[-86.4927240783469,39.61982320242278],[-86.48951615636508,39.61981080590616],[-86.48951079194705,39.6199843569368],[-86.48925866429965,39.61998848909889],[-86.48925499040553,39.621554780526886],[-86.48952052909799,39.62155684656109],[-86.48951248247094,39.621717997038246],[-86.49270319075029,39.62173549520141],[-86.49270319075029,39.621574344764994],[-86.493011644787,39.621574344764994],[-86.49305130784671,39.620009149905634]]]},"id":"13","properties":{"object":1}},{"type":"Feature","geometry":{"type":"Polygon","coordinates":[[[-86.4868172544821,39.622362329305375],[-86.48820127433379,39.621498731688],[-86.48792232459624,39.62123841067514],[-86.48807789271912,39.62114750469394],[-86.48592228426364,39.619103605607556],[-86.48577476276782,39.619200712587215],[-86.48552263512042,39.6189445151549],[-86.48412362877502,39.61982291499593],[-86.48437678551196,39.62008274525051],[-86.48420110082148,39.620183983006804],[-86.48635269932448,39.622178844053906],[-86.4865176551789,39.62207244416898],[-86.4868172544821,39.622362329305375]]]},"id":"14","properties":{"object":1}},{"type":"Feature","geometry":{"type":"Polygon","coordinates":[[[-86.48159098294087,39.62654675036408],[-86.4840994715455,39.626549162622275],[-86.48410215375453,39.62661733679757],[-86.48427113292246,39.62661527091446],[-86.48428924945142,39.622805134253966],[-86.48411222365644,39.62280926624766],[-86.48410685923841,39.62272249432873],[-86.48158558276441,39.62271836232986],[-86.48157242294337,39.62324357105783],[-86.48141149040248,39.623243571057834],[-86.48140076156642,39.623309682508115],[-86.48121300693538,39.62330141858028],[-86.48120224755415,39.62392725301126],[-86.48131758254179,39.623923121084324],[-86.4813202647508,39.62397477015306],[-86.4815723923982,39.6239850999622],[-86.48157507460722,39.62412971712798],[-86.48134440463194,39.62413384904257],[-86.48134707029573,39.624307595885284],[-86.48157505806199,39.62431172778923],[-86.48159098294087,39.62654675036408]]]},"id":"15","properties":{"object":1}},{"type":"Feature","geometry":{"type":"Polygon","coordinates":[[[-86.48475589895062,39.6279635237129],[-86.48475589895062,39.62791600931013],[-86.48490610265546,39.62791600931013],[-86.48489752703236,39.62668987091107],[-86.4842564790778,39.62668987091107],[-86.4842564790778,39.62683861417721],[-86.48392388515995,39.626834482424115],[-86.48392167335392,39.62796174800021],[-86.48475589895062,39.6279635237129]]]},"id":"16","properties":{"object":1}},{"type":"Feature","geometry":{"type":"Polygon","coordinates":[[[-86.48354750519636,39.62796174800021],[-86.48355606395852,39.626830822439906],[-86.48278626997124,39.62684321769903],[-86.4827808065791,39.62796151698645],[-86.48354750519636,39.62796174800021]]]},"id":"17","properties":{"object":1}},{"type":"Feature","geometry":{"type":"Polygon","coordinates":[[[-86.48241870836209,39.62795945114346],[-86.48241699518913,39.62683152172011],[-86.48158360667173,39.62683347555921],[-86.48158112343715,39.627961247101524],[-86.48241870836209,39.62795945114346]]]},"id":"18","properties":{"object":1}}]}