{"type":"FeatureCollection","features":[{"type":"Feature","geometry":{"type":"Polygon","coordinates":[[[-86.26771603515587,39.90464857138993],[-86.2662810533329,39.90464034115868],[-86.266297146587,39.90535953140815],[-86.26656000307045,39.905347186189],[-86.2665586244757,39.90578724665473],[-86.26649693366836,39.9057893041782],[-86.2664137851889,39.905772843988764],[-86.26634672996353,39.90573580854809],[-86.26633600112747,39.9063756958468],[-86.26640842077087,39.906297510580956],[-86.26647011157822,39.90627076296954],[-86.26655326005768,39.90627076296954],[-86.26655057784866,39.90652383610574],[-86.26773074981521,39.90652795110838],[-86.26771603515587,39.90464857138993]]]},"id":"0","properties":{"object":1}},{"type":"Feature","geometry":{"type":"Polygon","coordinates":[[[-86.26787213711467,39.90376005104409],[-86.26764146713938,39.90376107983626],[-86.26764683155741,39.90361293360342],[-86.26661149887767,39.90360264565869],[-86.2666168632957,39.903761079836244],[-86.26614428494952,39.90376519500481],[-86.26615099047206,39.90360058806957],[-86.26524574492953,39.90359132891771],[-86.26525245045207,39.90376005104409],[-86.26483536724068,39.90376377081242],[-86.2648388481061,39.90443431468366],[-86.26787800274776,39.90444045671378],[-86.26787213711467,39.90376005104409]]]},"id":"1","properties":{"object":1}},{"type":"Feature","geometry":{"type":"Polygon","coordinates":[[[-86.25451124467757,39.903889447461395],[-86.25123147935284,39.904006449788675],[-86.25125025481593,39.90429402414005],[-86.25110541552912,39.90430842711689],[-86.25113491982829,39.904744630124185],[-86.25126903027903,39.90473639990446],[-86.25128667313093,39.90502305034498],[-86.25228857450503,39.90498189940373],[-86.25230734996813,39.90513210021971],[-86.2528947537424,39.90511152478492],[-86.25288938932437,39.9049592663755],[-86.25313615255374,39.904957208827135],[-86.25321251637541,39.90616120480179],[-86.25466090924346,39.906105651948174],[-86.25451124467757,39.903889447461395]]]},"id":"2","properties":{"object":1}},{"type":"Feature","geometry":{"type":"Polygon","coordinates":[[[-86.24510143327176,39.91057897668188],[-86.24531064557492,39.91057794799209],[-86.24535106416499,39.9078350915588],[-86.24512039418971,39.90783714902075],[-86.24512575860774,39.907569678447786],[-86.24368273015773,39.9075655635077],[-86.2436815292405,39.908812544884164],[-86.24349109240045,39.90881048745152],[-86.24348684944113,39.91057043256302],[-86.24367192186315,39.91057043256301],[-86.24366620941042,39.91072550784178],[-86.2451025323379,39.91073682340435],[-86.24510143327176,39.91057897668188]]]},"id":"3","properties":{"object":1}},{"type":"Feature","geometry":{"type":"Polygon","coordinates":[[[-86.23613388141503,39.907711395860076],[-86.23418659767022,39.907711395860076],[-86.23418123325219,39.908361551938135],[-86.2352997144114,39.90835537959933],[-86.23529703220238,39.90851380278626],[-86.23587907155861,39.90851586022786],[-86.23588443597664,39.90835537959933],[-86.236128516997,39.908361551938135],[-86.23613388141503,39.907711395860076]]]},"id":"4","properties":{"object":1}},{"type":"Feature","geometry":{"type":"Polygon","coordinates":[[[-86.24604104477297,39.89613811809403],[-86.24657748657594,39.89612988684054],[-86.24656675773988,39.89595908810763],[-86.24709783512483,39.89593439427969],[-86.24711124616991,39.89610519307415],[-86.24881354703004,39.89604439332499],[-86.248805500403,39.8958756522002],[-86.24913809432084,39.89587359437903],[-86.24915418757493,39.89603616206027],[-86.24978182448442,39.89602381516129],[-86.24970409438252,39.8945582811773],[-86.24900940224767,39.89458503336094],[-86.24899330899358,39.89441217291304],[-86.24660439307783,39.894502718916314],[-86.24661512191389,39.89465294270334],[-86.24597675616835,39.89468381056398],[-86.24604104477297,39.89613811809403]]]},"id":"5","properties":{"object":1}},{"type":"Feature","geometry":{"type":"Polygon","coordinates":[[[-86.2542542761154,39.88796717796055],[-86.25393777545165,39.88797541019433],[-86.25394313986968,39.888158577140146],[-86.25199253521305,39.888223925173676],[-86.25198717079502,39.88803870034608],[-86.25120396576267,39.88805722285135],[-86.25121469459873,39.88823421542719],[-86.25116105041843,39.888244505679175],[-86.25121188275409,39.889242051042224],[-86.25431519858432,39.889157672158234],[-86.2542542761154,39.88796717796055]]]},"id":"6","properties":{"object":1}},{"type":"Feature","geometry":{"type":"Polygon","coordinates":[[[-86.25574430254522,39.88929711435176],[-86.25162389030385,39.88942395866668],[-86.25168665518443,39.89066013016489],[-86.25295811221368,39.89062308655593],[-86.25294604227311,39.89048314385246],[-86.253526667968,39.89047330076075],[-86.25353337349054,39.890610156515535],[-86.25504693995438,39.89057414186973],[-86.25504828105889,39.89042596712784],[-86.25580064068758,39.89040641626992],[-86.25574430254522,39.88929711435176]]]},"id":"7","properties":{"object":1}},{"type":"Feature","geometry":{"type":"Polygon","coordinates":[[[-86.25909680163667,39.89046880373379],[-86.25927114522264,39.89046674575028],[-86.25928127672744,39.888699809024246],[-86.25909888651442,39.888699809024246],[-86.2591189925001,39.88769209230827],[-86.25653497981384,39.88769242457036],[-86.25654015833936,39.888712724996886],[-86.25636045033536,39.88871066696069],[-86.2563603315332,39.88914043503701],[-86.25653534567142,39.88914146404868],[-86.25653387069777,39.889925376022475],[-86.25635148048475,39.889926405022365],[-86.25635548045986,39.89038544249997],[-86.25653787067287,39.890383384513974],[-86.25654050841406,39.89054029723936],[-86.2591047002323,39.89054235522065],[-86.25909680163667,39.89046880373379]]]},"id":"8","properties":{"object":1}}]}