{"type":"FeatureCollection","features":[{"type":"Feature","geometry":{"type":"Polygon","coordinates":[[[-86.37001349412637,39.75411761388961],[-86.37000812970834,39.75372788132461],[-86.37029780828195,39.753719632992535],[-86.37073769056039,39.75372169507565],[-86.37068288221073,39.749637216647436],[-86.37051926746082,39.74963515444204],[-86.37048708095264,39.74960215914752],[-86.3703341950388,39.74960215914752],[-86.3703181017847,39.7496434032632],[-86.3702456821413,39.74967846074214],[-86.37018667354297,39.74968877176197],[-86.37002305879307,39.74969495837311],[-86.36995063914966,39.74969495837311],[-86.36994259252262,39.74939387598607],[-86.36891530646992,39.74939593819867],[-86.36815355910969,39.74939387598607],[-86.36786388053608,39.7494021248361],[-86.36779414310169,39.749400062623685],[-86.36779414310169,39.74943924464913],[-86.36766807927799,39.749437182437816],[-86.36768417253208,39.74973826463562],[-86.36789338483524,39.749734140230814],[-86.36789082730246,39.74981665196702],[-86.36770575488043,39.749818714166985],[-86.36733829224539,39.74980221656565],[-86.36733941640462,39.7498668991967],[-86.36738635506238,39.749886490079454],[-86.36741585936154,39.74992773402491],[-86.36743061151112,39.749966915750264],[-86.36742390598859,39.74999991087009],[-86.36738501395787,39.75001950171502],[-86.36723310450488,39.7500183429916],[-86.3672438380466,39.75115437649231],[-86.36726357107156,39.75179820180187],[-86.36738561158174,39.75179407752043],[-86.36742450361245,39.75179510859082],[-86.36745400791162,39.751811605714884],[-86.36745937232965,39.75184563102082],[-86.36743299088054,39.751900810888415],[-86.36738471111829,39.75194205362793],[-86.3672988804298,39.75197092353089],[-86.3672988804298,39.75205134676818],[-86.36736057123714,39.7520637195656],[-86.36741689762646,39.752082278757534],[-86.36745723774717,39.752138210741265],[-86.36746528437422,39.75218151546787],[-86.36744516780661,39.752211416334596],[-86.36726948311613,39.75221657165514],[-86.367303932406,39.75359587953877],[-86.36745413611084,39.75359587953877],[-86.36748681341308,39.753627415214325],[-86.36767456804412,39.75363153938602],[-86.36772955332893,39.75360679435219],[-86.36778856192726,39.75360267017902],[-86.36795083557266,39.75360473226565],[-86.36795720570387,39.75413356167751],[-86.37001349412637,39.75411761388961]]]},"id":"0","properties":{"object":1}},{"type":"Feature","geometry":{"type":"Polygon","coordinates":[[[-86.36512257731763,39.753616487367886],[-86.36511721289959,39.753259745525966],[-86.36586554921475,39.7532350003586],[-86.36582164502684,39.749938255711285],[-86.36560706830565,39.74994650449613],[-86.36561091081526,39.74988199061086],[-86.36564309732344,39.74982631124167],[-86.36572356359389,39.749793316038684],[-86.36582816974547,39.74979125383799],[-86.36582548753645,39.74970257914902],[-86.36575575010207,39.749706703555695],[-86.3657074703398,39.749696392538546],[-86.36563773290541,39.74966958388677],[-86.36561091081526,39.74963246419787],[-86.36544997827437,39.74963452640333],[-86.36542315618422,39.749679894907935],[-86.3653641475859,39.74970876575893],[-86.36528636352446,39.749727325585326],[-86.36513884202864,39.749725263382636],[-86.36506642238525,39.74972320117989],[-86.36506105796721,39.749475736401976],[-86.362861646575,39.749504607338544],[-86.3628428711119,39.74959946890204],[-86.36278386251357,39.74959534448897],[-86.36279995576766,39.74982837344132],[-86.36299843923476,39.749822186842174],[-86.3630064858618,39.749910861377174],[-86.36229476746132,39.74989419654032],[-86.36229208525229,39.7499931819569],[-86.36239132698584,39.7499931819569],[-86.3624905687194,39.75002205267661],[-86.36253348406363,39.750063296540944],[-86.36254689510871,39.75011278914552],[-86.36248520430136,39.750137535434455],[-86.36233500059654,39.750135473244065],[-86.36238382573684,39.752863701740274],[-86.36249513741096,39.752864732794656],[-86.36255414600929,39.752868857012],[-86.36258633251747,39.75288947809504],[-86.3625798024718,39.75293453048835],[-86.3625449337546,39.75297577260894],[-86.36245745175535,39.75300961321215],[-86.36241453641111,39.75302095478543],[-86.36235150449926,39.753017861629246],[-86.36234999153083,39.75310375998863],[-86.36245057436889,39.753100666836175],[-86.36250019523567,39.75310891524239],[-86.36252567622131,39.75311613259699],[-86.36269733759826,39.75311922574873],[-86.3627952382273,39.75311613259701],[-86.36282742473549,39.75311407049576],[-86.36287436339325,39.7530975736836],[-86.36298031064933,39.753101697887],[-86.36305809471077,39.75310375998863],[-86.36305380658833,39.75363091183271],[-86.36512257731763,39.753616487367886]]]},"id":"1","properties":{"object":1}},{"type":"Feature","geometry":{"type":"Polygon","coordinates":[[[-86.3699017550296,39.74308903226983],[-86.3695465410211,39.743092601263015],[-86.3695465410211,39.74315447327264],[-86.3694392526605,39.7431524108732],[-86.3694392526605,39.74309878846649],[-86.36944193486953,39.74293173377805],[-86.36833552365087,39.742941014604696],[-86.36621389632009,39.74295751384897],[-86.36620853190206,39.74318231565885],[-86.36609587912343,39.74317819086159],[-86.3660905147054,39.74311631887328],[-86.36573109869741,39.743120443674215],[-86.36573775996938,39.744895156174],[-86.36574982990994,39.74492093551037],[-86.36575385322347,39.744971462981646],[-86.36573910107388,39.74499002408424],[-86.36573910107388,39.7450426138478],[-86.3657967685677,39.74504158267635],[-86.36579274525418,39.74501477221328],[-86.36590221479004,39.7450190913497],[-86.36590087368555,39.745040745953965],[-86.36604303076332,39.745042808296866],[-86.36604303076332,39.74502321603674],[-86.36611947372025,39.74502321603675],[-86.3661105088817,39.74481333755858],[-86.36631301566233,39.74481024403389],[-86.36631838008034,39.74491026792834],[-86.36724960951177,39.74490329932627],[-86.36951071171133,39.74488061350498],[-86.36951607612936,39.74477337133957],[-86.36957776693671,39.74476718428647],[-86.36957240251867,39.74499610488109],[-86.36978161482183,39.74499610488109],[-86.36993986515373,39.74499816722532],[-86.3699017550296,39.74308903226983]]]},"id":"2","properties":{"object":1}},{"type":"Feature","geometry":{"type":"Polygon","coordinates":[[[-86.36595094531596,39.74784097126911],[-86.36591103471451,39.74598665271249],[-86.3655360387887,39.74597513086251],[-86.36439073553935,39.74597925549233],[-86.36294885389043,39.7459974319729],[-86.36294885389043,39.74616241691953],[-86.36288448087407,39.74617066615648],[-86.36285765878392,39.746001556601385],[-86.3624580096407,39.74600980585759],[-86.36250924738216,39.74787457108588],[-86.36288743885326,39.74786425979452],[-86.3628928032713,39.74782095235401],[-86.36294644745159,39.74782713913291],[-86.36294376524258,39.74793643880154],[-86.3655052748518,39.74791375397893],[-86.3655052748518,39.747798267493366],[-86.36558842333126,39.74780032975375],[-86.36559378774929,39.747843637207204],[-86.36595094531596,39.74784097126911]]]},"id":"3","properties":{"object":1}},{"type":"Feature","geometry":{"type":"Polygon","coordinates":[[[-86.36052956587532,39.74647064783063],[-86.36052688366631,39.746033438814244],[-86.36077096468667,39.74602518956084],[-86.36073288711748,39.74347182462501],[-86.36047807726108,39.743486261352786],[-86.36046476001708,39.74306343194331],[-86.35843969221084,39.74307374395315],[-86.35845333875623,39.74350170608993],[-86.3582682663342,39.74350789325668],[-86.35829949531458,39.74605892223283],[-86.35850334319971,39.74606304685763],[-86.35850255685976,39.746487583968104],[-86.36052956587532,39.74647064783063]]]},"id":"4","properties":{"object":1}},{"type":"Feature","geometry":{"type":"Polygon","coordinates":[[[-86.35618279614431,39.74303261888268],[-86.35587970652563,39.743036743688634],[-86.35587165989858,39.74281400381349],[-86.35471562781316,39.742818128632535],[-86.35440985598547,39.742805754174675],[-86.35355691351874,39.742847002358936],[-86.35356764235479,39.74322235970126],[-86.35334233679754,39.74322648449585],[-86.35349213610779,39.74770136760787],[-86.35632991324555,39.74764362421127],[-86.35618279614431,39.74303261888268]]]},"id":"5","properties":{"object":1}},{"type":"Feature","geometry":{"type":"Polygon","coordinates":[[[-86.3647840120469,39.73860529520904],[-86.36478937646493,39.73825672582052],[-86.3647314242319,39.736144257103405],[-86.36448734321155,39.73615250753971],[-86.36448466100254,39.736111255348405],[-86.36245691098729,39.73613188144714],[-86.36227318018388,39.736137747253245],[-86.36230872053883,39.73815545906816],[-86.36232130114062,39.7386419068118],[-86.3647840120469,39.73860529520904]]]},"id":"6","properties":{"object":1}},{"type":"Feature","geometry":{"type":"Polygon","coordinates":[[[-86.35259122556373,39.747824541630386],[-86.35244620961296,39.743236386865085],[-86.35220212859261,39.74323844926198],[-86.35217145519928,39.74288270364608],[-86.34985939102845,39.742936326220935],[-86.34968772965149,39.74294457584416],[-86.34982588350998,39.74765006486201],[-86.35002973139511,39.74764181580218],[-86.35004046023117,39.747749053502986],[-86.35231765568481,39.74770780825318],[-86.35240885079132,39.74770368372684],[-86.35259122556373,39.747824541630386]]]},"id":"7","properties":{"object":1}},{"type":"Feature","geometry":{"type":"Polygon","coordinates":[[[-86.3484040745459,39.74805462871854],[-86.348602558013,39.74805050421297],[-86.34860792243103,39.74709773680902],[-86.3485684164019,39.74596245047212],[-86.34832969979958,39.74597482436309],[-86.3483119257714,39.74573550699902],[-86.34646120155112,39.74577056646652],[-86.34646388376014,39.74592936500764],[-86.3462761291291,39.74592936500764],[-86.3463666836998,39.748197728424365],[-86.34654223773053,39.74819128986003],[-86.34655368914373,39.74845932973938],[-86.34840441336401,39.748430458364766],[-86.3484040745459,39.74805462871854]]]},"id":"8","properties":{"object":1}},{"type":"Feature","geometry":{"type":"Polygon","coordinates":[[[-86.35758831910445,39.73912400840193],[-86.35749175957991,39.73897138175138],[-86.3574703019078,39.73850937469489],[-86.35773315839126,39.73851349977162],[-86.35767829656395,39.73670943477168],[-86.3574208044985,39.736730060691414],[-86.35741007566244,39.73647017365178],[-86.35548424958975,39.73649079964311],[-86.35529113054068,39.73649079964311],[-86.3553823256472,39.73862968143503],[-86.35538769006521,39.738691557451716],[-86.35533672809393,39.738695682517516],[-86.35534209251196,39.738988561558415],[-86.35553789377005,39.73899062408249],[-86.35559153795035,39.738992686606444],[-86.35561299562247,39.7390277495047],[-86.35561567783148,39.7390689999504],[-86.35572028398306,39.73918037603043],[-86.35758831910445,39.73912400840193]]]},"id":"9","properties":{"object":1}},{"type":"Feature","geometry":{"type":"Polygon","coordinates":[[[-86.35426291348743,39.74056910357192],[-86.35423072697925,39.740210231679114],[-86.35448821904468,39.740210231679114],[-86.35445066811847,39.7384282194289],[-86.35418244721698,39.73843234451047],[-86.35416025495576,39.73806307720267],[-86.35245437002229,39.73808370271729],[-86.35244900560427,39.73820333058043],[-86.35226125097321,39.73821158077025],[-86.35232025957154,39.74018334780853],[-86.3524919209485,39.740179222831735],[-86.35251874303864,39.74059996918928],[-86.35426291348743,39.74056910357192]]]},"id":"10","properties":{"object":1}},{"type":"Feature","geometry":{"type":"Polygon","coordinates":[[[-86.35405702263088,39.73160151557098],[-86.35346157222958,39.73161389204067],[-86.35346157222958,39.731399366251615],[-86.35072032915893,39.73141710552526],[-86.35072301136795,39.731644007723396],[-86.35033671345354,39.73163982900239],[-86.35037962879778,39.73328175366082],[-86.35064784969927,39.73327350288092],[-86.35066930737139,39.73339313909294],[-86.35350172009112,39.733364261405605],[-86.35349099125506,39.7332363743591],[-86.35397378887774,39.73324875053526],[-86.35407034840227,39.73325287592681],[-86.35405702263088,39.73160151557098]]]},"id":"11","properties":{"object":1}},{"type":"Feature","geometry":{"type":"Polygon","coordinates":[[[-86.34782385971823,39.73381356432957],[-86.34781313088217,39.73364236176491],[-86.34781044867316,39.733413403453625],[-86.34805989411154,39.73340927807166],[-86.34798964880984,39.73158594673933],[-86.34794405125659,39.73161688791637],[-86.34782335185092,39.731623076150115],[-86.34776702546161,39.73160863693719],[-86.34609869145434,39.731612762426906],[-86.34610137366336,39.73170352313818],[-86.34591898345035,39.73170971136415],[-86.34595573269837,39.7334640679708],[-86.34614348732941,39.73346819334947],[-86.34613812291138,39.73383535106265],[-86.34625882231705,39.73383328838434],[-86.34633392416947,39.73381059891872],[-86.34772330843919,39.733798222843454],[-86.34782385971823,39.73381356432957]]]},"id":"12","properties":{"object":1}},{"type":"Feature","geometry":{"type":"Polygon","coordinates":[[[-86.35401532494959,39.72628287465346],[-86.35402068936762,39.725107009191966],[-86.35366663777765,39.72510288331292],[-86.35366663777765,39.72524728893205],[-86.35353789174493,39.72524316306141],[-86.35353789174493,39.72502861744821],[-86.35242209279474,39.72503686921489],[-86.35242745721277,39.72526379241211],[-86.35223970258173,39.72525966654246],[-86.35223970258173,39.72512351270562],[-86.35186419331966,39.72511526094929],[-86.35188565099176,39.72628700046189],[-86.3520734056228,39.72629937788566],[-86.35226116025385,39.7262663714173],[-86.3522718890899,39.726398397195894],[-86.35372564637598,39.726381893987394],[-86.35372564637598,39.72626224560765],[-86.35387048566278,39.7262539939876],[-86.35401532494959,39.72628287465346]]]},"id":"13","properties":{"object":1}},{"type":"Feature","geometry":{"type":"Polygon","coordinates":[[[-86.35400693500414,39.72436192098504],[-86.35399084175005,39.723033360822875],[-86.35363679016008,39.72303748682572],[-86.35364215457811,39.72319014875801],[-86.3534973152913,39.723186022764295],[-86.35350267970934,39.722963218736474],[-86.35239224517717,39.72296734474353],[-86.35240297401323,39.72319014875801],[-86.35220449054613,39.723186022764295],[-86.35220449054613,39.723041612828354],[-86.35185043895616,39.72304573883072],[-86.35187726104631,39.72437017283152],[-86.3520381935872,39.724374298754405],[-86.35213475311174,39.72432891358923],[-86.35224740589037,39.724324787663654],[-86.3522527703084,39.724456817160004],[-86.35370652759447,39.72444031348679],[-86.35370116317644,39.724324787663654],[-86.35400693500414,39.72436192098504]]]},"id":"14","properties":{"object":1}},{"type":"Feature","geometry":{"type":"Polygon","coordinates":[[[-86.34629763015324,39.73943421111263],[-86.34627617248113,39.739013457637796],[-86.34652830012853,39.73900727006754],[-86.34640611893916,39.73539525141866],[-86.34617544896388,39.735403501944596],[-86.34614228914486,39.73492916933039],[-86.3441145391296,39.73497867280596],[-86.34410917471158,39.73511480718047],[-86.34391069124447,39.73511480718047],[-86.34407385041067,39.73892036376454],[-86.34424551178762,39.738924488816664],[-86.34427233387777,39.739485493603155],[-86.34629763015324,39.73943421111263]]]},"id":"15","properties":{"object":1}},{"type":"Feature","geometry":{"type":"Polygon","coordinates":[[[-86.35201917742239,39.71152553846696],[-86.35197626207815,39.71021323809841],[-86.35102139566885,39.71020911132834],[-86.35102139566885,39.70999451894333],[-86.34974466417776,39.71001515285551],[-86.3497339353417,39.71023387194518],[-86.34870933149801,39.71024625225026],[-86.34870396707998,39.71002340641864],[-86.3469766244744,39.71006467421955],[-86.34698735331045,39.71028339315223],[-86.34662793730246,39.71027513962019],[-86.34668158148277,39.711599818873374],[-86.34700881098257,39.711599818873374],[-86.34701953981863,39.71171949269329],[-86.34906874750601,39.71168647924649],[-86.34906874750601,39.71155855199081],[-86.34978221510397,39.71155029861133],[-86.34979830835806,39.71167409919985],[-86.35111795519339,39.7116410857313],[-86.35112331961142,39.711529665158295],[-86.35201917742239,39.71152553846696]]]},"id":"16","properties":{"object":1}},{"type":"Feature","geometry":{"type":"Polygon","coordinates":[[[-86.33459913909809,39.71763458145133],[-86.33459377468006,39.71619035223055],[-86.33412707031147,39.71619035223055],[-86.33412707031147,39.716017042691824],[-86.3302432316579,39.71603354838094],[-86.33024859607593,39.716210984289454],[-86.32978725612537,39.71621511070053],[-86.3297926205434,39.71765108675335],[-86.33026468933002,39.71763458145133],[-86.33026468933002,39.717787255344355],[-86.3341324347295,39.7177707500749],[-86.33412170589344,39.71762632879882],[-86.33459913909809,39.71763458145133]]]},"id":"17","properties":{"object":1}},{"type":"Feature","geometry":{"type":"Polygon","coordinates":[[[-86.33422085215426,39.71507215182037],[-86.3342128055272,39.714921535161444],[-86.33458295037126,39.71492772489362],[-86.33457477477394,39.713493733967034],[-86.33411075261436,39.713499923827364],[-86.33411075261436,39.713310101191745],[-86.33022745287418,39.71333433835109],[-86.33023281729221,39.7135117812032],[-86.32977147734165,39.71352622420596],[-86.32977681271576,39.71494369002865],[-86.33042322508835,39.71493956354153],[-86.33042054287934,39.71507780072532],[-86.33422085215426,39.71507215182037]]]},"id":"18","properties":{"object":1}},{"type":"Feature","geometry":{"type":"Polygon","coordinates":[[[-86.332681799994,39.711866888842486],[-86.332681799994,39.711458347198985],[-86.33289101229717,39.711458347198985],[-86.3328706084711,39.70855229503674],[-86.3326560317499,39.70855435847137],[-86.33265334954089,39.7081396068702],[-86.33061487068957,39.708151987551105],[-86.33062857798225,39.70842544313677],[-86.33041400126106,39.70842750657517],[-86.33043458545495,39.71148780861849],[-86.33064379775813,39.71148574527161],[-86.33065099298031,39.711869741026945],[-86.332681799994,39.711866888842486]]]},"id":"19","properties":{"object":1}},{"type":"Feature","geometry":{"type":"Polygon","coordinates":[[[-86.36754318273317,39.69626691359287],[-86.36752708947908,39.695965597836114],[-86.36779531038057,39.695957342591406],[-86.36777385270847,39.69427325202242],[-86.36750563180696,39.69427325202241],[-86.36749654979198,39.69392997319451],[-86.36601597041576,39.6939464841679],[-86.36602669925182,39.69428908597486],[-86.36582821578472,39.69428908597486],[-86.36584967345684,39.69597317615753],[-86.36604815692394,39.69597317615753],[-86.36605352134197,39.69627449188118],[-86.36754318273317,39.69626691359287]]]},"id":"20","properties":{"object":1}},{"type":"Feature","geometry":{"type":"Polygon","coordinates":[[[-86.35999897293748,39.692016469501255],[-86.35998287968339,39.690794612641426],[-86.3595161753148,39.690794612641426],[-86.35951081089678,39.690571703989896],[-86.35692516140641,39.69059647165337],[-86.35693052582444,39.69081938022496],[-86.35642090611161,39.69081112436474],[-86.35645309261979,39.692053620215674],[-86.35698953442277,39.69204536450306],[-86.3569948988408,39.69216094438939],[-86.35970392994584,39.69214443298891],[-86.35970392994584,39.69201234164286],[-86.35999897293748,39.692016469501255]]]},"id":"21","properties":{"object":1}},{"type":"Feature","geometry":{"type":"Polygon","coordinates":[[[-86.33945561561534,39.717471827290886],[-86.33968092117259,39.71746770095505],[-86.339643248639,39.714394745449624],[-86.33942330749979,39.71438649240947],[-86.33942330749979,39.7139944718651],[-86.33737409981241,39.714002724952145],[-86.33736337097635,39.71434935371658],[-86.33714879425516,39.71435760676117],[-86.33716496059976,39.71727169811004],[-86.33739026615702,39.71727582445762],[-86.33737417290293,39.717828752801374],[-86.33946093151651,39.717820500172124],[-86.33945561561534,39.717471827290886]]]},"id":"22","properties":{"object":1}},{"type":"Feature","geometry":{"type":"Polygon","coordinates":[[[-86.34299418882699,39.71779426096789],[-86.34299418882699,39.71742701782641],[-86.34320876554818,39.71742289148786],[-86.34318196865888,39.71427180075183],[-86.34293520542951,39.71428418033228],[-86.34294593426557,39.71394993088074],[-86.34085917565199,39.713958183973126],[-86.34087795111509,39.714436861641616],[-86.3406633743939,39.7144409881588],[-86.34068933560452,39.71737398306194],[-86.34090927674374,39.71737398306194],[-86.34090706522797,39.71780864613702],[-86.34299418882699,39.71779426096789]]]},"id":"23","properties":{"object":1}},{"type":"Feature","geometry":{"type":"Polygon","coordinates":[[[-86.35081535653839,39.74090995831503],[-86.35080730991135,39.740561400583],[-86.3510513909317,39.74055727562887],[-86.35095325325064,39.738164465715585],[-86.3507494053655,39.738164465715585],[-86.35073901181215,39.73771203814041],[-86.35095358853334,39.737705850453274],[-86.35088288870863,39.73551060036855],[-86.35064685431531,39.73553535190198],[-86.35064148989728,39.73512282518422],[-86.34857618895582,39.73515995268993],[-86.34858691779188,39.735572479185485],[-86.34842598525098,39.73558072969022],[-86.34845338949945,39.73661092159012],[-86.34865187296656,39.73661092159012],[-86.34864650854853,39.73671405127444],[-86.34845875391748,39.736718176458616],[-86.34849094042566,39.73774533963035],[-86.34870015272882,39.737732964261575],[-86.34870957397243,39.738301044071775],[-86.34850572608731,39.738301044071775],[-86.34858014364406,39.740713971863165],[-86.34877326269314,39.7406933471357],[-86.34877862711116,39.740940843457736],[-86.35081535653839,39.74090995831503]]]},"id":"24","properties":{"object":1}},{"type":"Feature","geometry":{"type":"Polygon","coordinates":[[[-86.35779718391018,39.73532821558189],[-86.35775963298397,39.73455678629301],[-86.35517398349361,39.7346145406564],[-86.35521153441982,39.73538596929892],[-86.35544756881313,39.73538596929892],[-86.3554582976492,39.7354891008161],[-86.35761479369717,39.73544372296755],[-86.3576201581152,39.73533646611586],[-86.35779718391018,39.73532821558189]]]},"id":"25","properties":{"object":1}},{"type":"Feature","geometry":{"type":"Polygon","coordinates":[[[-86.3545709405129,39.7345417158729],[-86.35355706550527,39.73453759055846],[-86.35355170108724,39.73463247272779],[-86.35335858203817,39.73462009680008],[-86.3533897495595,39.73745417751661],[-86.35357750419054,39.73745830265646],[-86.35358286860857,39.73763980856608],[-86.35462893012438,39.73763155830785],[-86.3545709405129,39.7345417158729]]]},"id":"26","properties":{"object":1}},{"type":"Feature","geometry":{"type":"Polygon","coordinates":[[[-86.34122028183896,39.70561636253073],[-86.34076967072446,39.70559160025669],[-86.3407589418884,39.7054141370326],[-86.3375510199066,39.70544715348093],[-86.33754565548855,39.70562048957554],[-86.33711650204617,39.70560398139481],[-86.33715405297238,39.707064940096615],[-86.33765294384915,39.70704843226147],[-86.33764757943112,39.70720938348556],[-86.34082331490475,39.707176367880464],[-86.34082867932278,39.70703605138253],[-86.3410110695358,39.70704843226148],[-86.34122564625699,39.70704843226148],[-86.34122028183896,39.70561636253073]]]},"id":"27","properties":{"object":1}},{"type":"Feature","geometry":{"type":"Polygon","coordinates":[[[-86.34451140546977,39.70283571941079],[-86.3445006766337,39.70229092537556],[-86.34477962637125,39.70229917986275],[-86.34475816869913,39.70119306978356],[-86.34457577848612,39.70119306978356],[-86.344554320814,39.70049142360307],[-86.34474743986307,39.700499678305476],[-86.34472598219095,39.69884871817365],[-86.34445776128946,39.69884046327376],[-86.34445776128946,39.69833691251344],[-86.34235490942179,39.69835342243268],[-86.34236563825785,39.69886522797045],[-86.34215106153665,39.69888173776332],[-86.34220470571695,39.70224965292491],[-86.34244074011026,39.70226616190811],[-86.34244074011026,39.70281095613885],[-86.34451140546977,39.70283571941079]]]},"id":"28","properties":{"object":1}},{"type":"Feature","geometry":{"type":"Polygon","coordinates":[[[-86.34881943269401,39.70184382827548],[-86.34881943269401,39.70127426258616],[-86.3490876535955,39.70128251719494],[-86.34906083150535,39.69873592355419],[-86.3488355259481,39.69874417846657],[-86.34881406827598,39.698314921712914],[-86.34659319921165,39.69834794155797],[-86.34657978816658,39.698634800797215],[-86.34639739795357,39.69862654587177],[-86.3464204597682,39.701452872150014],[-86.34661089660825,39.701452872150014],[-86.34660821439924,39.70178305487643],[-86.34667526962461,39.701789245787445],[-86.34667795183363,39.701849091232134],[-86.34881943269401,39.70184382827548]]]},"id":"29","properties":{"object":1}},{"type":"Feature","geometry":{"type":"Polygon","coordinates":[[[-86.32948484426213,39.67500270624195],[-86.32864799504948,39.67316946122248],[-86.32839050298405,39.67308688147286],[-86.32722105985356,39.67334287837538],[-86.32191028600407,39.674664137626564],[-86.32191028600407,39.674862324334505],[-86.32237162595463,39.674804519936764],[-86.3231226444788,39.67645605510502],[-86.32399168019963,39.67622484255865],[-86.32406678205204,39.67637347928446],[-86.32948484426213,39.67500270624195]]]},"id":"30","properties":{"object":1}},{"type":"Feature","geometry":{"type":"Polygon","coordinates":[[[-86.32302794030576,39.68246833325749],[-86.32302794030576,39.68229287479585],[-86.32323715260893,39.6822887463561],[-86.32321678582095,39.68011755998386],[-86.32314973059557,39.680120656411056],[-86.32303976002596,39.68009382070414],[-86.32303439560793,39.68001021708873],[-86.3230102557268,39.67999576707089],[-86.3225408691492,39.680000927791895],[-86.32252611699961,39.68002260281591],[-86.3221626776781,39.68002260281591],[-86.32214792552851,39.680001959936035],[-86.32202856722735,39.680000927791895],[-86.32167988005541,39.68000402422432],[-86.32165708127879,39.6800277635349],[-86.32166110459231,39.68005872784086],[-86.32168792668246,39.680057695697535],[-86.32147474324454,39.68007088762711],[-86.32147354338906,39.68010787430992],[-86.32147883480604,39.68230226618942],[-86.32170881739032,39.68229635163088],[-86.32171418180835,39.682475938512496],[-86.32302794030576,39.68246833325749]]]},"id":"31","properties":{"object":1}},{"type":"Feature","geometry":{"type":"Polygon","coordinates":[[[-86.35188082573764,39.67860484665793],[-86.35244408963077,39.67838602732545],[-86.35252992031924,39.67850163007806],[-86.35473469612948,39.67771305031652],[-86.35464350102298,39.677585060081896],[-86.35503510353915,39.67745294088124],[-86.35502437470309,39.67736210878415],[-86.35500291703097,39.67724237538281],[-86.35438064453952,39.676230826294244],[-86.35389784691684,39.67639597817774],[-86.3538012873923,39.67621843988705],[-86.35275522587649,39.676594159916675],[-86.35288397190921,39.67673453830439],[-86.35271231053225,39.67680059862341],[-86.35262647984378,39.67663131892942],[-86.35158041832797,39.6770524530101],[-86.35168234227054,39.677201087954906],[-86.35115126488559,39.67739513865145],[-86.35188082573764,39.67860484665793]]]},"id":"32","properties":{"object":1}},{"type":"Feature","geometry":{"type":"Polygon","coordinates":[[[-86.35527087458186,39.68072898766538],[-86.35524405249171,39.67956060290645],[-86.35512603529506,39.67955234569999],[-86.35513676413112,39.67948215940534],[-86.3540531516891,39.679494545227236],[-86.35404778727107,39.679296371810494],[-86.35301781900935,39.67930050042914],[-86.35303927668147,39.67950280244058],[-86.35277105577998,39.67950280244058],[-86.35277105577998,39.67928811457247],[-86.3517840028625,39.67931288628363],[-86.35178936728053,39.67952344546965],[-86.35163379915767,39.67951931686435],[-86.35164452799373,39.67930875766572],[-86.35078622110898,39.67932527213584],[-86.35079694994502,39.67955234569999],[-86.35051800020747,39.67956473150929],[-86.35053945787959,39.6807991726929],[-86.35080231436305,39.68079091563454],[-86.35079158552699,39.68091477140629],[-86.35160161264949,39.68090238583913],[-86.35159088381343,39.68077440151486],[-86.35192347773128,39.68077440151486],[-86.3519288421493,39.68089825731623],[-86.3526476741653,39.680885871746106],[-86.3526476741653,39.680762015922504],[-86.35527087458186,39.68072898766538]]]},"id":"33","properties":{"object":1}},{"type":"Feature","geometry":{"type":"Polygon","coordinates":[[[-86.36374665506892,39.674762999624235],[-86.36373056181483,39.67467216398973],[-86.3636876464706,39.673400452564294],[-86.35906351812892,39.673474774006024],[-86.35911716230922,39.67486209290745],[-86.35975016363675,39.674845577370135],[-86.35976625689082,39.67496531492632],[-86.36320484884791,39.674915768376515],[-86.36321557768399,39.67478364406996],[-86.36374665506892,39.674762999624235]]]},"id":"34","properties":{"object":1}},{"type":"Feature","geometry":{"type":"Polygon","coordinates":[[[-86.36216799272576,39.67907169752824],[-86.36215458168068,39.678951967090576],[-86.36254081977883,39.67893545253114],[-86.36252398997901,39.678050161544135],[-86.36182795673965,39.67807390152635],[-86.36182527453063,39.67786333792103],[-86.35930192469318,39.67791963633562],[-86.35930728911121,39.678081687662576],[-86.3593046069022,39.67813123194141],[-86.35858721322019,39.6781372492239],[-86.35859391874273,39.67826523843528],[-86.35861939972837,39.678264206265155],[-86.35863549298246,39.679024911453176],[-86.35906464642484,39.679017686341545],[-86.35906732863387,39.67913019156541],[-86.36216799272576,39.67907169752824]]]},"id":"35","properties":{"object":1}},{"type":"Feature","geometry":{"type":"Polygon","coordinates":[[[-86.25676490809927,39.7426998413369],[-86.25685073878775,39.742596720609654],[-86.25683464553366,39.742101738970845],[-86.25342824008476,39.74218423615756],[-86.25344969775686,39.742646218577995],[-86.25344969775686,39.74276583852132],[-86.25676490809927,39.7426998413369]]]},"id":"36","properties":{"object":1}}]}