{"type":"FeatureCollection","features":[{"type":"Feature","geometry":{"type":"Polygon","coordinates":[[[-86.50008714990129,40.032519741324336],[-86.50029099778644,40.032519741324336],[-86.50031094015247,40.0301656473847],[-86.50008295238621,40.03016462049305],[-86.50007632960562,40.02994338558969],[-86.4980385476055,40.02993728651757],[-86.49804067708949,40.03015833346899],[-86.49785560466746,40.03015217211812],[-86.49785352681164,40.03250966127724],[-86.49803055260662,40.03250966127724],[-86.49801445935253,40.03291218778454],[-86.50010658238415,40.03291218778454],[-86.50008714990129,40.032519741324336]]]},"id":"0","properties":{"object":1}},{"type":"Feature","geometry":{"type":"Polygon","coordinates":[[[-86.49676629603557,40.03785325391237],[-86.49654635489635,40.03785325391237],[-86.4965404074064,40.036858273169955],[-86.4967764417997,40.03685621958813],[-86.49677912400871,40.03636541176133],[-86.49656454728752,40.03635719737434],[-86.49657474437574,40.036001408195126],[-86.49596856513837,40.036001408195126],[-86.49596856513837,40.03581247603559],[-86.49620996394971,40.03580836880892],[-86.49621279677315,40.034626184212996],[-86.49599017342491,40.034628237861966],[-86.49599553784294,40.034350994692154],[-86.49364751936,40.03435667995387],[-86.49366897703212,40.034609279310956],[-86.4934865868191,40.03461133296043],[-86.49347854019206,40.03501125045616],[-86.49367702365916,40.03501535773086],[-86.4936662948231,40.03529875908638],[-86.4934865868191,40.035304919972354],[-86.49347815731484,40.03580344448595],[-86.4936685941549,40.03580344448595],[-86.4936685941549,40.036113539426445],[-86.49348620394188,40.03611353942645],[-86.49348195003883,40.036944784963936],[-86.49366970466987,40.03694273138469],[-86.49366970466987,40.0372281783014],[-86.4934953610839,40.03722612473072],[-86.49350332233497,40.03828562083218],[-86.49367230150291,40.038289727909664],[-86.49367766592094,40.03834722696827],[-86.49355160209724,40.03834722696828],[-86.49354891988823,40.03871480909022],[-86.49659567685205,40.03870861671737],[-86.49659031243402,40.03854228090373],[-86.49677270264704,40.03854022737264],[-86.49676629603557,40.03785325391237]]]},"id":"1","properties":{"object":1}},{"type":"Feature","geometry":{"type":"Polygon","coordinates":[[[-86.49027113103662,40.03616442269071],[-86.49006191873346,40.03617058349845],[-86.49006460094247,40.03600629510132],[-86.4886108436564,40.03600218788633],[-86.48861620807443,40.036152101073554],[-86.48844186448848,40.036154154676545],[-86.48844248332576,40.038730050128535],[-86.48860341586665,40.038730050128535],[-86.48860341586665,40.03887995731896],[-86.49006253757075,40.03889022492265],[-86.49006253757075,40.03875058537958],[-86.49023956336573,40.03875161214197],[-86.49027113103662,40.03616442269071]]]},"id":"2","properties":{"object":1}},{"type":"Feature","geometry":{"type":"Polygon","coordinates":[[[-86.48389406532758,40.03577142378962],[-86.48361511559003,40.03576731656046],[-86.48362316221707,40.035520882359094],[-86.48385383219235,40.0355208823591],[-86.4838534846149,40.03403906549759],[-86.48362281463962,40.03404111916424],[-86.48361476801257,40.033843966884206],[-86.48392858646731,40.03384807422919],[-86.48375156067235,40.03370431700772],[-86.48096742771487,40.033712531714244],[-86.48112555818162,40.03384998145769],[-86.48113628701768,40.03403070438685],[-86.4809431679686,40.034032758053755],[-86.48095088756077,40.03550717951562],[-86.48112791335575,40.03551128676042],[-86.48112523114673,40.0357536137665],[-86.48095088756077,40.03575772099649],[-86.48094294339404,40.037833972708384],[-86.48113069802508,40.037833972708384],[-86.48114142686114,40.03820155759705],[-86.48363051682696,40.03819950405572],[-86.48363072236067,40.03737505295199],[-86.48386139233595,40.037372999385745],[-86.48389406532758,40.03577142378962]]]},"id":"3","properties":{"object":1}},{"type":"Feature","geometry":{"type":"Polygon","coordinates":[[[-86.49629661333921,40.04574144659993],[-86.4965111900604,40.0457455532283],[-86.49653808965178,40.0427894707757],[-86.49629937304944,40.04279152417882],[-86.4963101018855,40.04244655158595],[-86.4942411340348,40.04242436332796],[-86.49425260918011,40.042633228856744],[-86.49405680792204,40.04263117544886],[-86.49403621800762,40.045655898109764],[-86.49420251496653,40.045655898109764],[-86.49419178613047,40.04601728091304],[-86.4963053668342,40.04604192057984],[-86.49629661333921,40.04574144659993]]]},"id":"4","properties":{"object":1}},{"type":"Feature","geometry":{"type":"Polygon","coordinates":[[[-86.48570554682324,40.02532091382264],[-86.48548828789303,40.02531064417599],[-86.48548828789303,40.02515043748793],[-86.48144037401842,40.02508109194619],[-86.4814376918094,40.02524335272865],[-86.48084760582613,40.02523513700208],[-86.48080544854677,40.026636407316694],[-86.48138480569399,40.02665283843131],[-86.48139017011202,40.02681304159116],[-86.48507507040765,40.02690341243846],[-86.4850857992437,40.0267103473012],[-86.48567588522698,40.02674320949082],[-86.48570554682324,40.02532091382264]]]},"id":"5","properties":{"object":1}}]}