{"type":"FeatureCollection","features":[{"type":"Feature","geometry":{"type":"Polygon","coordinates":[[[-85.93323824488257,39.83367357593992],[-85.93323824488257,39.83325545808757],[-85.93348232590293,39.83324927898693],[-85.93345735707274,39.83149664860107],[-85.93323205151549,39.83149664860107],[-85.93322913081317,39.8308601740269],[-85.9334504130569,39.83087047288589],[-85.93345143940203,39.82905068867438],[-85.93321272279972,39.829056868152705],[-85.93320199396365,39.828731414870845],[-85.93129226114505,39.82873553454227],[-85.9313029899811,39.82906098780462],[-85.93109109546893,39.8290589279787],[-85.93111356529509,39.833279625727066],[-85.93119537267005,39.833279625727066],[-85.93120073708808,39.83324358097813],[-85.93132009538924,39.83324667052879],[-85.93132009538924,39.83341453590515],[-85.9313142822821,39.833672956862635],[-85.93323824488257,39.83367357593992]]]},"id":"0","properties":{"object":1}},{"type":"Feature","geometry":{"type":"Polygon","coordinates":[[[-85.92987602571044,39.83344710261032],[-85.9301013312677,39.833442983221445],[-85.93009015793135,39.83209436996483],[-85.92987424010565,39.83210363877142],[-85.92986795535141,39.83128408109515],[-85.92815404674492,39.831288298421796],[-85.92815568803286,39.832107784232115],[-85.92794379352068,39.83210881409936],[-85.9279670316788,39.833459040421545],[-85.92816819735492,39.83346110011553],[-85.92817606368749,39.83390288705922],[-85.9298712197849,39.833896708016816],[-85.92987602571044,39.83344710261032]]]},"id":"1","properties":{"object":1}},{"type":"Feature","geometry":{"type":"Polygon","coordinates":[[[-85.93284278431273,39.825657110359764],[-85.93307881870604,39.82564990061158],[-85.93302990082995,39.82235033457318],[-85.9328045952727,39.82235033457318],[-85.93278581980961,39.82189609709784],[-85.93067815991083,39.82191966501645],[-85.93068713409302,39.82203176197814],[-85.93048060399887,39.822031761978145],[-85.93053866608314,39.82540732793849],[-85.93073983175925,39.82540629797077],[-85.93073764977787,39.82557135627737],[-85.93066120682094,39.825572386242655],[-85.93066657123897,39.82569907185118],[-85.93074033198688,39.82570216174115],[-85.93074167309139,39.82591948365401],[-85.93284338168277,39.82589530755406],[-85.93284278431273,39.825657110359764]]]},"id":"2","properties":{"object":1}},{"type":"Feature","geometry":{"type":"Polygon","coordinates":[[[-85.93768314758995,39.8315412521484],[-85.93768018443225,39.8313774309253],[-85.93771438259719,39.831378975742616],[-85.9377157237017,39.83121728467562],[-85.93769895989536,39.83122861336148],[-85.9376956652371,39.831102520191145],[-85.93792834686914,39.83110303513231],[-85.9378740168462,39.828050194208885],[-85.93785121806957,39.828055343849215],[-85.93782104321815,39.82805894859721],[-85.93777209290363,39.82805946356116],[-85.93764133521415,39.82806152341708],[-85.93763932355739,39.82801775146603],[-85.93765608736373,39.82801775146603],[-85.93765541681148,39.827873046347094],[-85.93766279288627,39.827850387866704],[-85.93762457140781,39.82787253138171],[-85.9376237750057,39.82770670682477],[-85.93741456270254,39.82771391635715],[-85.93740986883677,39.82770361702495],[-85.93724156022108,39.82770258709164],[-85.93581808097134,39.827721436095565],[-85.93561115737397,39.8277341356366],[-85.93561115737397,39.82790098455397],[-85.93557494755227,39.82789995462362],[-85.93557762976128,39.828044144721794],[-85.93560579295594,39.82804517464998],[-85.93559488223384,39.828093142832486],[-85.93544065521549,39.828094172759926],[-85.93539908097576,39.82807975377424],[-85.93545781552167,39.831127995438145],[-85.93565227567525,39.831127995438145],[-85.9356566101233,39.831254683328574],[-85.93564109472906,39.83127815793032],[-85.93564511804259,39.83138629521445],[-85.93567730455078,39.831396593994526],[-85.93567462234175,39.83156240414136],[-85.93588383464491,39.83155725476394],[-85.93588651685393,39.83157579252086],[-85.93747992924465,39.83156051861219],[-85.93747657648338,39.831546615291884],[-85.93768314758995,39.8315412521484]]]},"id":"3","properties":{"object":1}},{"type":"Feature","geometry":{"type":"Polygon","coordinates":[[[-85.93845995312587,39.83411770137865],[-85.93866916542903,39.83411615662293],[-85.93866916542903,39.834126969912234],[-85.93969177524451,39.83410537753524],[-85.93968807573997,39.83388412661418],[-85.93978530581674,39.83387949233114],[-85.939875830371,39.83387434312744],[-85.93991807516298,39.833886701215704],[-85.93987538654277,39.83232692796462],[-85.93987404543826,39.83230324108894],[-85.9398445411391,39.83231353973153],[-85.93980028469035,39.83231765918814],[-85.93972518283793,39.8323217786445],[-85.93964203435847,39.83232074878043],[-85.93964434391857,39.83214805047928],[-85.93861696520169,39.83216367060851],[-85.93862434127648,39.83217808873702],[-85.93840909400303,39.832177573803904],[-85.93841579952557,39.83234801645224],[-85.93838897743542,39.83235368070217],[-85.93842879461006,39.833179191475644],[-85.93843968220196,39.83381131569005],[-85.93841688342532,39.83382676331423],[-85.93842627115687,39.83395034418251],[-85.93845845766505,39.833950344182504],[-85.93845995312587,39.83411770137865]]]},"id":"4","properties":{"object":1}},{"type":"Feature","geometry":{"type":"Polygon","coordinates":[[[-85.94341229591157,39.83365372373643],[-85.94341095480706,39.833429217357896],[-85.94339620265748,39.83340450101448],[-85.94339486155297,39.83334888920933],[-85.94362284931925,39.833341680268326],[-85.94355794876951,39.83094963277327],[-85.9433393487348,39.83095787184983],[-85.94333105070915,39.83073429504753],[-85.94145958724609,39.83076279529296],[-85.94147176373706,39.830994520466504],[-85.9412826680015,39.83099658023438],[-85.94128060376501,39.83106450050175],[-85.94128328597402,39.83112629344858],[-85.94133183002863,39.83278206296519],[-85.94134255886468,39.833375258127404],[-85.94154908895882,39.83338143721674],[-85.94154419350897,39.83368365910647],[-85.94173463034903,39.8336769651225],[-85.94179565060412,39.8336769651225],[-85.94341229591157,39.83365372373643]]]},"id":"5","properties":{"object":1}},{"type":"Feature","geometry":{"type":"Polygon","coordinates":[[[-85.93540295780457,39.83988248356966],[-85.93551440312515,39.839879062128716],[-85.93557877614151,39.83988009187945],[-85.93650547935616,39.839864645616785],[-85.93649743272911,39.83966899265544],[-85.93673074901177,39.83966460306697],[-85.9367053015042,39.83761984407903],[-85.93667847941406,39.83763014192448],[-85.93648267815597,39.83763323127782],[-85.9364679260064,39.8375014187454],[-85.93536285589225,39.837510686822355],[-85.93540295780457,39.83988248356966]]]},"id":"6","properties":{"object":1}},{"type":"Feature","geometry":{"type":"Polygon","coordinates":[[[-85.94098282060442,39.83937118291411],[-85.94096538624582,39.83936603412212],[-85.94097038255855,39.83930294261705],[-85.94119904087707,39.83929830869966],[-85.9411033723717,39.83536902830588],[-85.94087806681445,39.83537417739753],[-85.94087598718741,39.835157962165304],[-85.93936881733447,39.83517632628059],[-85.93897989702731,39.83518971395567],[-85.93864059758693,39.83518868413461],[-85.93865027534515,39.83540915263105],[-85.9384664091653,39.83541155465142],[-85.93855999837763,39.83933791481852],[-85.93875848184473,39.83933739993909],[-85.93875449312559,39.83963717268425],[-85.94098392728066,39.8396032536547],[-85.94098282060442,39.83937118291411]]]},"id":"7","properties":{"object":1}},{"type":"Feature","geometry":{"type":"Polygon","coordinates":[[[-85.92601825745716,39.8515895144199],[-85.92601825745716,39.8514494920606],[-85.92625697405948,39.851443314597006],[-85.92617238399036,39.84617207983533],[-85.92594707843311,39.84616796120973],[-85.92593542095904,39.84621511987444],[-85.92355981905605,39.84624342010995],[-85.92355847795154,39.84669646694837],[-85.92374220926908,39.84669337800278],[-85.92373930249498,39.84676809374299],[-85.92353143129631,39.84676397515314],[-85.92361005554575,39.850849540203264],[-85.92381002968698,39.85084962051633],[-85.92381052656636,39.85099394035458],[-85.92362679524884,39.850995999522645],[-85.92364775981758,39.85160600006018],[-85.92601825745716,39.8515895144199]]]},"id":"8","properties":{"object":1}},{"type":"Feature","geometry":{"type":"Polygon","coordinates":[[[-85.93333906183408,39.84865989054713],[-85.93333772072957,39.84824598243676],[-85.93357241401837,39.848242893560865],[-85.93353754886502,39.84514414730299],[-85.93329883226271,39.84514620664655],[-85.93331235760832,39.84484989054511],[-85.93328821772718,39.844850920221326],[-85.93329492324972,39.844814881545325],[-85.93308705205106,39.844812822191834],[-85.93301999682569,39.8448210596054],[-85.93279871458196,39.84481694089876],[-85.93126076976033,39.84483675391207],[-85.93127015749188,39.84515801219687],[-85.9310756973383,39.84516521989756],[-85.93110908699926,39.84825803834148],[-85.93130488825734,39.84826421609174],[-85.93130355962515,39.848665015398005],[-85.9313303817153,39.84867737082471],[-85.93333906183408,39.84865989054713]]]},"id":"9","properties":{"object":1}},{"type":"Feature","geometry":{"type":"Polygon","coordinates":[[[-85.92125545535181,39.84952683718703],[-85.92117498908136,39.84952271876267],[-85.92119376454447,39.849310619574226],[-85.91846381149658,39.849335833966535],[-85.91838664882245,39.849339818948785],[-85.91777376406255,39.84934599660169],[-85.91712466948094,39.84935011503664],[-85.91711863457296,39.84950275431521],[-85.91709550050255,39.84951626792734],[-85.91703749770502,39.84951948546281],[-85.91703079216542,39.849561184497524],[-85.91703646003295,39.85126080325016],[-85.91705054163027,39.85127830610879],[-85.91709345697451,39.8512777913189],[-85.91708138703395,39.851263377200254],[-85.9171095502286,39.851262862410245],[-85.91711089133311,39.85128242442784],[-85.91722354411174,39.85128036526835],[-85.91722354411174,39.85125771450993],[-85.91725506006766,39.85125565534972],[-85.91725533401528,39.85127010556172],[-85.91733580028573,39.85126856119185],[-85.91733378862897,39.851256721021564],[-85.92098445319803,39.8512222799748],[-85.92098646485479,39.851235149731444],[-85.92106827222975,39.851235149731444],[-85.921068942782,39.85122073560384],[-85.92110179984243,39.851219191232836],[-85.92110179984243,39.85124235679413],[-85.9212137820688,39.85124184200395],[-85.9212124409643,39.85122176518447],[-85.92128016674192,39.8512202208135],[-85.92125545535181,39.84952683718703]]]},"id":"10","properties":{"object":1}},{"type":"Feature","geometry":{"type":"Polygon","coordinates":[[[-85.87638116955009,39.82307828220357],[-85.87638787507262,39.82299588194341],[-85.87637580513206,39.82294541173525],[-85.87636955891406,39.821477781708694],[-85.87638047315366,39.821410759315086],[-85.87638047315366,39.82128303577022],[-85.87636572100406,39.821242864606226],[-85.87623563386684,39.821246984726685],[-85.87597411848789,39.82124595469659],[-85.8759768006969,39.82140457914903],[-85.87587755896335,39.82140251909356],[-85.87588292338138,39.82119342314138],[-85.87208763464466,39.82119443768524],[-85.8720796682601,39.82140479744342],[-85.87174975655128,39.82140479744342],[-85.87174737018262,39.82296641880293],[-85.8720818160451,39.82295926362652],[-85.87208449825411,39.8230849240507],[-85.87588810664833,39.82308749416561],[-85.87587871891677,39.822963893754874],[-85.87598466617285,39.82296286375053],[-85.87598466617285,39.82311736423153],[-85.8762461815518,39.82312457424549],[-85.87632262450873,39.8231194242356],[-85.87637090427101,39.823118394233546],[-85.87638116955009,39.82307828220357]]]},"id":"11","properties":{"object":1}},{"type":"Feature","geometry":{"type":"Polygon","coordinates":[[[-85.88340039668401,39.830423872068465],[-85.88363106665929,39.830419752498294],[-85.88359809790485,39.82843062725212],[-85.8833714512431,39.82843577686393],[-85.88335769520202,39.82824834753001],[-85.88338183508316,39.82823495850199],[-85.88338451729217,39.82817007317548],[-85.88336171851554,39.828171103101795],[-85.88335769520202,39.828129906037894],[-85.88330270991722,39.82813299581855],[-85.88314043627182,39.82814020530617],[-85.88299559698501,39.82814020530617],[-85.88150941580129,39.82814702613464],[-85.88152024102016,39.82845195482488],[-85.88131773423953,39.82844886505855],[-85.88135247662784,39.83063074139789],[-85.88155364230396,39.83063074139789],[-85.8815603478265,39.83081406146888],[-85.88340192929223,39.83080195234425],[-85.88340039668401,39.830423872068465]]]},"id":"12","properties":{"object":1}}]}