{"type":"FeatureCollection","features":[{"type":"Feature","geometry":{"type":"Polygon","coordinates":[[[-86.37415178611728,39.97984665261406],[-86.37376554801914,39.97984665261406],[-86.3737762768552,39.97969044981641],[-86.37077756717655,39.97969456042094],[-86.37076147392246,39.97986309499304],[-86.37036450698825,39.979863094993036],[-86.37034211735786,39.98148708261084],[-86.37089197020592,39.98147886161725],[-86.37089197020592,39.98162272886248],[-86.37366570065338,39.98159205140768],[-86.37366570065338,39.981460515593376],[-86.37409485409576,39.98146668134036],[-86.37415178611728,39.97984665261406]]]},"id":"0","properties":{"object":1}},{"type":"Feature","geometry":{"type":"Polygon","coordinates":[[[-86.36986401822625,39.97986298705769],[-86.36961725499688,39.979871208245704],[-86.36962261941491,39.979710894900954],[-86.36902180459558,39.9797067842974],[-86.36900571134149,39.979895871803826],[-86.36797574307978,39.979887650618785],[-86.36797574307978,39.97972322671005],[-86.36747148778497,39.97971500550422],[-86.36746075894891,39.97989176121142],[-86.36645773768159,39.979903726556856],[-86.36642327894354,39.98151213355702],[-86.36690339435721,39.981501857318605],[-86.36690607656622,39.981616951100314],[-86.36971257953387,39.98160079241616],[-86.36971526174288,39.98149186435192],[-86.36978499917727,39.981489809103756],[-86.36986401822625,39.97986298705769]]]},"id":"1","properties":{"object":1}},{"type":"Feature","geometry":{"type":"Polygon","coordinates":[[[-86.37284255606929,39.98469155214054],[-86.3728264628152,39.98307207326105],[-86.37229002101222,39.983080294062965],[-86.37230074984828,39.98291176742613],[-86.36717773062983,39.98292820906754],[-86.3671884594659,39.98310495646273],[-86.3664696274499,39.983092625263964],[-86.36646149251385,39.98470004781806],[-86.36718032452984,39.98471237872673],[-86.36718032452984,39.98482335680453],[-86.3721912927005,39.98481102591592],[-86.3721912927005,39.984687716907175],[-86.37284255606929,39.98469155214054]]]},"id":"2","properties":{"object":1}},{"type":"Feature","geometry":{"type":"Polygon","coordinates":[[[-86.3780654565672,39.983210833096656],[-86.37784015100995,39.983214943489386],[-86.37785393891129,39.98276136721125],[-86.37577669841781,39.98279014014447],[-86.37577080545253,39.98313703436039],[-86.37559109744853,39.983139089558996],[-86.37562162652664,39.98441880393705],[-86.37579060569458,39.98441674877694],[-86.37578008315843,39.9847945413624],[-86.37786531055401,39.98479010472522],[-86.37787067497204,39.98455487688768],[-86.37810134494732,39.98455487688768],[-86.3780654565672,39.983210833096656]]]},"id":"3","properties":{"object":1}},{"type":"Feature","geometry":{"type":"Polygon","coordinates":[[[-86.37788615887095,39.9818515754131],[-86.37786939401872,39.98127559192691],[-86.37761726637132,39.98127559192691],[-86.3776145841623,39.98111117135798],[-86.3754520731605,39.98114611076198],[-86.37544939095149,39.98130642073953],[-86.37520262772212,39.9813146417539],[-86.37517755163796,39.981911719009965],[-86.37788615887095,39.9818515754131]]]},"id":"4","properties":{"object":1}},{"type":"Feature","geometry":{"type":"Polygon","coordinates":[[[-86.3780561553731,39.98729680373914],[-86.37809638850833,39.98729885881262],[-86.37809370629931,39.98727830807503],[-86.37835388057375,39.98727419792678],[-86.37833962576428,39.985849663750955],[-86.37810090916196,39.98586199445214],[-86.37810627357999,39.985696020160496],[-86.37807408707181,39.9856960201605],[-86.37808749811688,39.985527499975795],[-86.37579178230261,39.985542906909224],[-86.37579178230261,39.985707316813375],[-86.37558525220847,39.985707316813375],[-86.37557021677156,39.987314489772054],[-86.37566141187807,39.98730626947966],[-86.37566141187807,39.98743779403967],[-86.37805244919215,39.987423556557516],[-86.3780561553731,39.98729680373914]]]},"id":"5","properties":{"object":1}},{"type":"Feature","geometry":{"type":"Polygon","coordinates":[[[-86.38381955986166,39.98117689245474],[-86.38362107639456,39.98117894771228],[-86.38361302976752,39.98101863743566],[-86.38119515498423,39.98105974267066],[-86.38119515498423,39.98122827387558],[-86.381154921849,39.98123032913162],[-86.38114623736337,39.98181118699951],[-86.38381732761269,39.98176383931737],[-86.38381955986166,39.98117689245474]]]},"id":"6","properties":{"object":1}},{"type":"Feature","geometry":{"type":"Polygon","coordinates":[[[-86.3837052873552,39.978984940246626],[-86.38332039036158,39.978990078555306],[-86.3833096615255,39.97883284613556],[-86.38135490929874,39.97885643944415],[-86.38136027371677,39.97902292076102],[-86.38107059514316,39.97902189309983],[-86.38107327735217,39.97886157776247],[-86.37912434020191,39.97889343532741],[-86.37912568130642,39.979058888893505],[-86.37835872845629,39.979073276141186],[-86.37835202293375,39.97890062896905],[-86.37593569955607,39.978938652490854],[-86.37593569955607,39.979108216587214],[-86.37549849948662,39.97910821658722],[-86.37549101187822,39.9803076088162],[-86.37546150757906,39.980307608816204],[-86.37545882537005,39.98040934528633],[-86.37559964134333,39.98040831764598],[-86.37559695913431,39.980382626632085],[-86.38371941692006,39.98027878148306],[-86.3837052873552,39.978984940246626]]]},"id":"7","properties":{"object":1}},{"type":"Feature","geometry":{"type":"Polygon","coordinates":[[[-86.36494381610935,39.979765259291696],[-86.36449320499484,39.97978170169024],[-86.36449320499484,39.97961727752657],[-86.36217577640598,39.97963783056865],[-86.36217577640598,39.979798144084846],[-86.36155350391452,39.97979814408485],[-86.36154815124797,39.98123279081459],[-86.36213823723125,39.98122456979038],[-86.36213823723125,39.98133966403917],[-86.36440202163982,39.98132322201549],[-86.36440202163982,39.98120401722556],[-86.36494382786083,39.98119579619791],[-86.36494381610935,39.979765259291696]]]},"id":"8","properties":{"object":1}},{"type":"Feature","geometry":{"type":"Polygon","coordinates":[[[-86.37411515501958,39.978381760899204],[-86.37411170706054,39.976743489641414],[-86.37362890943784,39.97675582198604],[-86.37362890943784,39.97660372291355],[-86.37016885980863,39.976628387651],[-86.37018495306272,39.9768010405639],[-86.36964851125974,39.97679692978535],[-86.36964400349916,39.97841274369698],[-86.37027700482668,39.97841274369698],[-86.37027700482668,39.978531953356416],[-86.37365658818545,39.9784908466008],[-86.37365658818545,39.97837163686964],[-86.37411515501958,39.978381760899204]]]},"id":"9","properties":{"object":1}},{"type":"Feature","geometry":{"type":"Polygon","coordinates":[[[-86.37705337253456,39.97814570592912],[-86.3770614191616,39.97793168717213],[-86.37729208913689,39.977925521106194],[-86.37727104973573,39.976698525671395],[-86.37704037976046,39.97670058106366],[-86.37704574417847,39.97652381710195],[-86.37543641876954,39.976527927896946],[-86.37543901281745,39.97670905442957],[-86.375268692545,39.97671110982153],[-86.37528831875046,39.977945311921424],[-86.37545193350039,39.977943256566576],[-86.37545181606438,39.97816832266271],[-86.37705337253456,39.97814570592912]]]},"id":"10","properties":{"object":1}},{"type":"Feature","geometry":{"type":"Polygon","coordinates":[[[-86.36421981808445,39.978405712386945],[-86.36446121689579,39.978405712386945],[-86.36444030400423,39.976314346945934],[-86.36423913832812,39.97631845775355],[-86.36422304507403,39.975896747162636],[-86.36205149344786,39.97590907966006],[-86.36206497325067,39.97626645766813],[-86.36189733518724,39.9762685130734],[-86.36192074422195,39.97835588028565],[-86.36208301786735,39.97835382494315],[-86.36209825735796,39.97877225522317],[-86.36422256689775,39.978753757251255],[-86.36421981808445,39.978405712386945]]]},"id":"11","properties":{"object":1}},{"type":"Feature","geometry":{"type":"Polygon","coordinates":[[[-86.40696688577927,39.97523168169982],[-86.40676035568512,39.97523579257256],[-86.40676572010315,39.97506108026371],[-86.40197923867743,39.975123039613514],[-86.40197655646841,39.97529364089497],[-86.40151521651785,39.97530186263272],[-86.40152660505144,39.97688220716522],[-86.40210381851468,39.97687864662321],[-86.40210650072369,39.97700196972532],[-86.40658555364654,39.97693516489379],[-86.4065801892285,39.97681184167113],[-86.40699324941681,39.97680567550416],[-86.40696688577927,39.97523168169982]]]},"id":"12","properties":{"object":1}},{"type":"Feature","geometry":{"type":"Polygon","coordinates":[[[-86.39973825690292,39.97434002253914],[-86.40410563894295,39.974272192218535],[-86.40410563894295,39.97415503059709],[-86.4043309445002,39.97415503059709],[-86.40431801993515,39.972819909951475],[-86.40406589228775,39.97282196546041],[-86.40406052786972,39.97266163557848],[-86.39970270950681,39.97272364140898],[-86.39971075613386,39.972892193173095],[-86.3994291241873,39.972892193173095],[-86.39944689037956,39.97422485380648],[-86.39973388674416,39.97421868740611],[-86.39973825690292,39.97434002253914]]]},"id":"13","properties":{"object":1}},{"type":"Feature","geometry":{"type":"Polygon","coordinates":[[[-86.40050889942414,39.97505069146545],[-86.40028359386689,39.97505480234906],[-86.40027822944887,39.975028081601174],[-86.39919461700684,39.975028081601174],[-86.39921967524093,39.97714980850115],[-86.40030865210097,39.977131310090044],[-86.40030865210097,39.977065537921085],[-86.40053395765823,39.97706348253978],[-86.40050889942414,39.97505069146545]]]},"id":"14","properties":{"object":1}},{"type":"Feature","geometry":{"type":"Polygon","coordinates":[[[-86.41101112388698,39.96918200956719],[-86.41080995821086,39.9691820095672],[-86.41080727600185,39.96895589117361],[-86.40889276637893,39.96895954377174],[-86.40889813079696,39.96918771777145],[-86.40872378721099,39.96918360653493],[-86.4087222373254,39.97023241936876],[-86.40889121649334,39.97023036378197],[-86.40889658091137,39.97035986562982],[-86.4087222373254,39.97035986562981],[-86.40872626063893,39.97139477624765],[-86.40889389870236,39.971396831799446],[-86.40888585207531,39.97166508077706],[-86.41078036107088,39.971668893228184],[-86.41077527195706,39.9713927456046],[-86.41101935297743,39.97138452339659],[-86.41101112388698,39.96918200956719]]]},"id":"15","properties":{"object":1}},{"type":"Feature","geometry":{"type":"Polygon","coordinates":[[[-86.40397027235608,39.97006697214609],[-86.40398100119214,39.96989224662427],[-86.40168696320278,39.96991632567804],[-86.40169232762081,39.970084884364965],[-86.40090644037944,39.970095162320256],[-86.40089920641816,39.9714281897979],[-86.4013739574138,39.971430245348685],[-86.40137932183183,39.97154535609376],[-86.40250694041816,39.97152480061777],[-86.40250157600012,39.97140557873526],[-86.40263032203283,39.971405578735244],[-86.40263568645086,39.97152480061777],[-86.40387486701574,39.97151246732923],[-86.40387754922476,39.97139324542518],[-86.40428256278601,39.97138913432135],[-86.40427869775533,39.97005597455485],[-86.40397027235608,39.97006697214609]]]},"id":"16","properties":{"object":1}},{"type":"Feature","geometry":{"type":"Polygon","coordinates":[[[-86.41202492647497,39.975177717901715],[-86.41161723070469,39.97517977333974],[-86.41161454849568,39.975015338103105],[-86.4091605699712,39.97503628955008],[-86.4091605699712,39.975211001922325],[-86.40873141652882,39.975211001922325],[-86.40871480333837,39.97640224287601],[-86.40919223654302,39.97640018747477],[-86.409189554334,39.9765235114403],[-86.41163304674657,39.976502957461506],[-86.41163572895559,39.97637757805693],[-86.41202464926275,39.976367301046366],[-86.41202492647497,39.975177717901715]]]},"id":"17","properties":{"object":1}},{"type":"Feature","geometry":{"type":"Polygon","coordinates":[[[-86.41207826534679,39.97271569391496],[-86.41185564199856,39.97272186045096],[-86.4118636886256,39.97253686412901],[-86.41048771540096,39.97253891964646],[-86.41049039760998,39.97270952737842],[-86.41035360495022,39.97271158289065],[-86.41034824053219,39.97254097516384],[-86.40886907103307,39.97254357550634],[-86.40887175324208,39.97270390566521],[-86.40860621454961,39.97270801668998],[-86.40858475766775,39.974052216247195],[-86.40886907182333,39.97405427171904],[-86.40886907182333,39.97416732257645],[-86.41185766302367,39.97416444825261],[-86.41185766302367,39.97404112003007],[-86.4120615109088,39.9740390645578],[-86.41207826534679,39.97271569391496]]]},"id":"18","properties":{"object":1}},{"type":"Feature","geometry":{"type":"Polygon","coordinates":[[[-86.41202067473432,39.97796639461578],[-86.41180341580412,39.97796639461578],[-86.41179957666986,39.97765480259653],[-86.40991411380095,39.97766308385273],[-86.40991143159194,39.97798371977476],[-86.40973977021498,39.97798371977476],[-86.40978321802963,39.98104650902483],[-86.40996024382461,39.98104650902482],[-86.40996024382461,39.98141234459767],[-86.41185656559814,39.98138973683817],[-86.41185388338913,39.981030066930586],[-86.41207382452835,39.98102595640645],[-86.41202067473432,39.97796639461578]]]},"id":"19","properties":{"object":1}},{"type":"Feature","geometry":{"type":"Polygon","coordinates":[[[-86.38973792603237,39.968825376064686],[-86.38883133938533,39.96801134210039],[-86.38859798720104,39.96817784983624],[-86.38845583012325,39.968044232549495],[-86.38668271924797,39.96919346212388],[-86.3868329229528,39.96932091032204],[-86.38650301124397,39.969532638254975],[-86.38738063223632,39.970332682043285],[-86.3877212727812,39.97011684540806],[-86.38786074764998,39.97022579160436],[-86.38961133225932,39.96908772860214],[-86.38947722180858,39.96897466934292],[-86.38973792603237,39.968825376064686]]]},"id":"20","properties":{"object":1}},{"type":"Feature","geometry":{"type":"Polygon","coordinates":[[[-86.38427176040656,39.96234946365227],[-86.3843361334229,39.96229498429953],[-86.38311801446982,39.96127129235747],[-86.38306205944555,39.961313192434815],[-86.38254171089666,39.96166679857528],[-86.38240089492338,39.96154241987968],[-86.3803502227001,39.962957523389996],[-86.38048433315085,39.963071620501644],[-86.37986043051359,39.96350907051414],[-86.38108965095843,39.964578898523435],[-86.38172131118145,39.964147188237284],[-86.38184737500514,39.96424792088122],[-86.38393488433722,39.962870368700194],[-86.38378199842337,39.96273674103989],[-86.38430368807677,39.96238622416687],[-86.38427176040656,39.96234946365227]]]},"id":"21","properties":{"object":1}},{"type":"Feature","geometry":{"type":"Polygon","coordinates":[[[-86.39769839392473,39.961504785114734],[-86.39771985159685,39.96068244048604],[-86.39479624377061,39.960715334461085],[-86.39479624377061,39.96148833831911],[-86.39769839392473,39.961504785114734]]]},"id":"22","properties":{"object":1}}]}